the_geom,waterway_access,latitude,longitude,boat_ramp_name,asset_owner,contact_number,street,suburb,waterway_name,state,postcode,id,ramp_condition,ramp_material,has_bbq,has_fee_payable,has_kiosk,has_lighting,has_toilets,has_bins,has_pontoon_nearby,has_pontoon_ramp,number_ramp_lanes
0101000020E610000000E36DE7C153624037CF96FAB0FD41C0,All Times,-35.9819634662985,146.617419924376,"Memorial Park, Howlong",Corowa Shire Council,02 6033 8999,Victoria Street,Howlong,Murray River,NSW,2643,1,GOOD,Concrete,true,false,false,true,true,false,false,false,2
0101000020E61000006535089DB5E46240A90BDDF79DBA40C0,All Times,-33.4579458073925,151.147169605286,Spencer,Gosford City Council,02 4325 8222,Wisemans Ferry Road,Spencer,Mangrove Creek,NSW,2775,2,FAIR,Concrete,false,false,true,false,true,true,true,false,1
0101000020E61000007C7DA25219E56240D05E5A65C3F640C0,Shallow At Times,-33.9278380099546,151.159341161121,Tempe Basin,Marrickville Council,02 9335 2222,Holbeach Avenue,Tempe,Cooks River,NSW,2044,3,POOR,Concrete,false,false,false,false,false,false,true,false,1
0101000020E6100000545503F8A6DA624003D60980C0CC40C0,All Times,-33.5996246383693,150.832881933699,Governor Phillip Reserve Boat Ramp,Hawkesbury City Council,02 4560 4444,George Street,Windsor,Hawkesbury River,NSW,2756,4,GOOD,Concrete,true,false,false,false,true,true,true,true,4
0101000020E610000048866CDC1DDA62401B9FB573D86241C0,All Times,-34.7722305905174,150.81614514538,Gerroa Beach,The Council Of The Municipality Of Kiama,02 4232 0444,Bourke Street,Gerroa,Crooked River,NSW,2534,5,POOR,Sand,false,false,true,false,true,false,false,false,Informal
0101000020E610000024F69D0299E362404950D517A60041C0,All Times,-34.0050687591143,151.112428005713,Tom Uglys Bridge Boat Ramp,Sutherland Shire Council,02 9710 0333,Princes Highway,Sylvania,Georges River,NSW,2224,6,GOOD,Concrete,false,false,false,true,true,true,true,false,2
0101000020E61000002FADC58A1AE86240457BAF6C1FE440C0,Monday - Sunday: 7:00-20:30,-33.7822090012401,151.253239999854,Manly Dam - Section 1(Part of Manly Warringah War Memorial Park) - Non motorised boats only unless authorised by Waterskiing Association,Warringah Council,02 9942 2111,King Street,Manly Vale,Manly Dam,NSW,2093,7,GOOD,Concrete,true,true,false,false,true,true,false,false,1
0101000020E6100000399E35F7EDEA6240FA28685E8FB740C0,All Times,-33.4340627678484,151.341548542712,Masons Parade - Gosford Main Boat Ramp,Gosford City Council,02 4325 8222,Masons Parade,Gosford,The Broad Water (Brisbane Water),NSW,2250,8,GOOD,Concrete,true,false,false,true,true,false,true,true,3
0101000020E6100000180B68D5B7B76240223291C2023F42C0,Shallow At Times,-36.4922717293705,149.741190627298,Brogo Dam Boat Ramp,TBD,TBD,Brogo Dam Road,Brogo,Brogo Dam / Brogo River,NSW,2550,9,POOR,Concrete,true,false,false,false,true,true,false,false,1
0101000020E6100000811C5EDDDE6F624077165FDBEC683FC0,Shallow At Times,-31.4098641497753,147.495955165683,Warren (Macquarie River) Ramp,Warren Shire Council,02 6847 6600,Industrial Accessroad,Warren,Macquarie River,NSW,2824,10,GOOD,Concrete,false,false,false,false,false,false,false,false,1
0101000020E61000008EA8884B709362407018397EBBF841C0,All Times,-35.943221834067,148.607457892333,"Providence Portal Access Point, Lake Eucumbene",Snowy  Hydro,02 6453 2888,Snowy Mountains Highway,Providence,Lake Eucumbene,NSW,2629,11,GOOD,Unsealed,false,false,false,false,false,false,false,false,1
0101000020E6100000275CDBBFB2D86140205FFF6A0E4A41C0,All Times,-34.5785650011951,142.771820000112,Robinvale Caravan Park,Swan Hill Rural City Council,03 5036 2333,McLennan Drive,Robinvale,Murray River,NSW,3549,12,GOOD,Concrete,false,false,false,true,true,true,true,false,1
0101000020E610000092376302B71A6240233E696D074241C0,Shallow At Times,-34.5158516658669,144.834840005668,Sandy Point Rd Hay,Hay Shire Council,02 6990 1100,Sandy Road,Hay,Murrumbidgee River,NSW,2711,13,GOOD,Concrete,true,false,false,false,true,false,false,false,1
0101000020E6100000FA3E6F27A81D63408A83641F759C3DC0,All Times,-29.611162149467,152.926776616361,Seelands - Perring Lane,Clarence Valley Council,02 6643 0200,Perring Lane,Seelands,Clarence River,NSW,2460,14,POOR,Concrete,false,false,false,false,false,false,false,false,1
0101000020E6100000A41C6C06DEDE6240F645B0EFE6F340C0,All Times,-33.9054851160726,150.964602671772,Floyd Bay Boat Ramp,Fairfield City Council,02 9725 0222,Rowleys Point Road,Lansvale,Georges River,NSW,2166,15,FAIR,Concrete,false,false,false,false,false,true,false,false,2
0101000020E6100000F427C326B7EA6140E9B0C6527D8341C0,Shallow At Times,-35.0272620649501,143.334857350506,Tooleybuc,Wakool Shire Council,03 5887 5007,Murray Street,Tooleybuc,Murray River,NSW,2736,16,GOOD,Concrete,false,false,false,false,false,false,false,false,1
0101000020E610000013D63167691E6340F9F35C0E29B13DC0,All Times,-29.6920327164589,152.950366589867,"Fry Street Boat Ramp, Grafton",Clarence Valley Council,02 6643 0200,Fry Street,Grafton,Clarence River,NSW,2460,17,GOOD,Concrete,false,false,false,false,false,true,false,false,1
0101000020E6100000CF3AA9F7D0D7624057E05D4AB87441C0,All Times,-34.911874099577,150.744258718993,Orient Point Boat Ramp ,Shoalhaven City Council,02 4429 3111,Otranto Avenue,Orient Point,Crookhaven River,NSW,2540,18,GOOD,Concrete,false,false,false,true,true,true,true,true,1
0101000020E6100000487A1805680E6340FF0FF7B9D83340C0,All Times,-32.405051465641,152.450197742279,Neranie Bay,National Parks And Wildlife Services,1300 072 757,Seal Rocks Road,Bungwahl,Myall Lakes,NSW,2423,19,POOR,Sand,true,true,false,false,true,true,false,false,1
0101000020E610000064A994490D536240C2D31A6CEA6041C0,Shallow At Times,-34.7571540003769,146.595372000079,Five Mile Reserve Boat Ramp (Rocky Waterhole),Narrandera Shire Council,02 6959 5510,Old Wagga Road,Narrandera,Murrumbidgee River,NSW,2700,20,GOOD,Concrete,true,false,false,false,true,false,false,false,1
0101000020E61000007C33803B851F63401EFA39C799BE3EC0,All Times,-30.7445339695497,152.985013723748,Weir Reserve,Nambucca Shire Council,02 6568 2555,South Pacific Drive,Scotts Head,Warrell Creek,NSW,2447,21,POOR,Concrete,true,false,false,false,true,true,false,false,1
0101000020E61000002D517FA4EBF86240354BC255287540C0,All Times,-32.9152934263897,151.778764961878,Stockton South,Newcastle City Council,02 4974 2000,Punt Road,Stockton,Hunter River,NSW,2295,22,GOOD,Concrete,false,false,false,true,false,true,true,true,2
0101000020E6100000469AA74197C962409017E9BC2DD541C0,Shallow At Times,-35.665458310904,150.299713923787,South Durras (Murramerang),Eurobodalla Shire Council,02 4429 3111,Lakeside Drive,Durras Lake,Durras Lake,NSW,2536,23,FAIR,Sand,false,false,false,false,false,false,false,false,Informal
0101000020E61000006D0FC8F839C462406A434EDDACF441C0,All Times,-35.9115254051347,150.132076636069,"Preddys Wharf, Moruya River",Eurobodalla Shire Council,02 4429 3111,South Head Drive,Moruya Heads,Moruya River,NSW,2537,24,GOOD,Concrete,false,false,false,true,true,true,true,true,2
0101000020E61000004AD63AA724CE624072631E0501AF41C0,All Times,-35.3672186277753,150.441974272648,"Kings Point (Water Ski Club), Burrill Lake",Ulladulla Water Ski Club, 0419 215 898,Kings Point Drive,Kings Point,Burrill Lake,NSW,2535,25,GOOD,Concrete,false,true,false,false,true,true,false,false,2
0101000020E61000003277285846D762404229888E9C7341C0,All Times,-34.9032152333116,150.727336958918,Greenwell Point - West Street Boat Ramp ,Shoalhaven City Council,02 4429 3111,West Street,Greenwell Point,Crookhaven River,NSW,2540,26,GOOD,Concrete,false,false,false,true,false,true,true,false,1
0101000020E6100000641849F38AE26240A3CE0CA3F00741C0,All Times,-34.062031155828,151.079461710705,Swallow Rock - Grays Point,Sutherland Shire Council,02 9710 0333,Swallow Rock Dr,Grays Point,Port Hacking,NSW,2232,27,GOOD,Concrete,true,false,false,true,true,true,true,true,2
0101000020E610000001EDB010870F6340FA4A3D70F22F40C0,Shallow At Times,-32.3745861338884,152.485237451132,Smiths Lake - Brambles Reserve Boat Ramp,Great Lakes Council,02 6591 7222,The Lakes Way,Tarbuck Bay,Smiths Lake,NSW,2428,28,GOOD,Concrete,false,false,false,false,true,false,false,false,1
0101000020E61000004D8B21EECF7D624073369739D00542C0,Shallow At Times,-36.0454170215934,147.931632104412,Tintaldra Reserve,Parks Victoria,13 1963 ,Bridge Road,Tintaldra,Murray River,VIC,3708,29,POOR,Unsealed,false,false,false,false,false,false,false,false,1
0101000020E610000087B17E88975A624064B9FEA9BB7041C0,Shallow At Times,-34.8807270520945,146.830997703026,Berembed Weir Boat Ramp,Narrandera Shire Council,02 6959 5510,Wagga Road,Galore,Murrumbidgee River,NSW,2650,30,POOR,Unsealed,false,false,false,false,false,false,false,false,1
0101000020E610000023A5769D31D3624082C019CEA29341C0,All Times,-35.1534059167616,150.59980652974,Nielson Lane Boat Ramp ,Shoalhaven City Council,02 4429 3111,Nielsen Lane,Sussex Inlet,Sussex Inlet,NSW,2540,31,GOOD,Concrete,true,false,true,true,true,true,true,false,1
0101000020E6100000B8789A7ADCF762407A1B87E1846040C0,All Times,-32.7540552053169,151.745663930609,Raymond Terrace Boat Ramp (King Park Sporting Complex),Port Stephens Council,02 49800255,Seaham Road,Raymond Terrace,Williams River,NSW,2324,32,GOOD,Concrete,false,false,true,true,true,true,false,false,3
0101000020E6100000A3BEA0E8CA6B624027FCB51D7A8B41C0,Shallow At Times,-35.089664186344,147.368519128756,Wiradjuri Reserve Boat Ramp,Wagga Wagga City Council,1300 292 442,Narrung Street,Wagga Wagga,Murrumbidgee River,NSW,2650,33,GOOD,Concrete,false,false,false,false,true,true,false,false,1
0101000020E6100000C18935EA21D662407E3D095262733EC0,All Times,-30.4507190010604,150.69163999993,Glenriddle Reserve Boat Ramp,Tamworth Regional Council,02 6767 5555,Pera Linton Road,Barraba,Split Rock Reseviour,NSW,2347,34,GOOD,Concrete,true,false,false,false,true,true,false,false,1
0101000020E6100000362108AC1C16624052C73090A00842C0,All Times,-36.067400001352,144.690999999884,5 Mile reserve (Murray Valley Regional Park) - Murray River,National Parks And Wildlife Services,1300 072 757,Perricoota Road,Moama,Murray River,NSW,2731,35,GOOD,Concrete,true,false,false,true,true,true,false,false,2
0101000020E61000003A14D61B359562406C7BD8497DFF41C0,Shallow At Times,-35.9960110003511,148.662732999919,Anglers Reach Boat Ramp,Snowy River Shire Council,02 6451 1195,Anglers Reachroad,Anglers Reach,Lake Eucumbene,NSW,2629,36,FAIR,Unsealed,false,false,true,false,true,false,false,false,1
0101000020E6100000A7D27A0AEE1A6340EC9B6E7950153FC0,All Times,-31.0832591910402,152.841557731522,"Riverside Park Boat Ramp",Kempsey Shire Council,02 6566 3200,Austral Street,Kempsey,Macleay River,NSW,2440,37,GOOD,Concrete,true,false,false,false,true,true,false,false,2
0101000020E6100000EDF5CB73838862403C3903A264C141C0,All Times,-35.5108835712185,148.266046427117, Yachting Point Boat Ramp,National Parks And Wildlife Services,1300 072 757,Snowy Mountains Highway,Kosciuszko National Park,Blowering Reservoir,NSW,2720,38,FAIR,Unsealed,true,false,false,false,true,false,false,false,1
0101000020E61000001F1BC0DCCAF26240FE4DFF4CA89140C0,Shallow At Times,-33.1379486319165,151.587263465125,Gwandalan North (Koowong Road) Boat Ramp,Wyong City Council,02 4350 5555,Koowong Road,Gwandalan,Lake Macquarie,NSW,2259,39,FAIR,Concrete,true,false,false,false,true,true,true,false,1
0101000020E6100000F8526D8B42CC62402932075370C741C0,Shallow At Times,-35.5581153664719,150.383123124622,Kioloa Beach,Shoalhaven City Council,02 4429 3111,Kioloa,Kioloa,Tasman Sea,NSW,2539,40,FAIR,Concrete,false,false,false,true,true,true,false,false,2
0101000020E6100000A664BF0308EA624072958F4802BB40C0,All Times,-33.4610071850865,151.313478349509,Koolewong North Boat Ramp ,Gosford City Council,02 4325 8222,Brisbane Water Drive,Koolewong,Brisbane Water,NSW,2256,41,GOOD,Concrete,false,false,false,true,false,false,true,false,1
0101000020E6100000954145C66AD762405A2505C4247541C0,All Times,-34.9151845002295,150.731783995882,Greenwell Point - Bowling Club Boat Ramp,Shoalhaven City Council,02 4429 3111,Haiser Road,Greenwell Point,Crookhaven River,NSW,2540,42,GOOD,Concrete,false,false,false,true,true,true,true,false,1
0101000020E6100000B2B2DC0C88106340115401866D1B40C0,All Times,-32.214279890679,152.516607695628,Elizabeth Parade Boat Ramp,Great Lakes Council,02 6591 7222,Elizabeth Parade,Forster,Pipers Creek / Wallis Lake,NSW,2428,43,GOOD,Concrete,true,false,false,false,true,true,false,false,2
0101000020E610000083C6BB1352156340357228CD12E23FC0,All Times,-31.8830993865724,152.66626917529,Harrington,Greater Taree City Council,02 6592 5399,Beach Street,Harrington,Manning River,NSW,2427,44,FAIR,Concrete,false,false,false,false,true,true,true,true,3
0101000020E6100000E319F335458362402EF37396378941C0,All Times,-35.0720089021837,148.102198576743,Gundagai,Gundagai Shire Council,02 6944 0200,Junee Road,Gundagai,Murrumbidgee River,NSW,2722,45,GOOD,Concrete,false,false,false,false,false,false,false,false,1
0101000020E610000043C2BDF1DF1D624006A4A5BA77C141C0,Shallow At Times,-35.5114663418572,144.933586950896,Sloane Street,Deniliquin Council,02 6993 1003,Sloane Street,Deniliquin,Edward River,NSW,2710,46,GOOD,Concrete,false,false,false,false,false,false,false,false,1
0101000020E610000066CABE540BA36240DF2E7BAE015740C0,Shallow At Times,-32.6797388173561,149.095133183134,Lake Burrengong State Park - Eagle Beagle Boat Ramp,Department of Primary Industries - State Parks,02 6846 7435,Fashions Mount Road,Lake Burrendong,Lake Burrendong,NSW,2820,47,GOOD,Concrete,true,true,true,false,true,true,false,false,1
0101000020E610000079D2AA7E3C2363400C21635434803DC0,All Times,-29.5007984869017,153.101134618413,Lawrence - Clarence River,Clarence Valley Council,02 6643 0200,Bridge Street,Lawrence,Clarence River,NSW,2460,48,GOOD,Concrete,true,false,true,true,true,true,true,false,2
0101000020E6100000EBF986DBC1E46240B848E8B5ACEC40C0,All Times,-33.8490207084846,151.148664249063,Taplin Park,City Of Canada Bay Council,02 9911 6555,Bayswater Street,Drummoyne,Parramatta River,NSW,2047,49,GOOD,Concrete,false,false,false,true,true,false,false,true,3
0101000020E61000000AFC08EA561B63400D4D112DD38B3FC0,All Times,-31.5461910407294,152.854359643505,Jabiru Reserve Boat Ramp,Port Macquarie-Hastings Council,02 6581 8111,Evans Street,Lake Cathie,Cathie Creek,NSW,2445,50,GOOD,Concrete,true,false,false,true,false,true,false,false,1
0101000020E6100000A5D0FE9804F16240CB15578DA88A40C0,All Times,-33.083268802187,151.531811235128,Dora Creek Entrance Boat Ramp,Lake Macquarie City Council,02 4921 0333,Dora Street,Dora Creek,Lake Macquarie,NSW,2264,51,GOOD,Concrete,false,false,false,true,false,true,false,false,2
0101000020E6100000016D6D0A3ED16240B96F8D5C609F41C0,Shallow At Times,-35.2451282206161,150.538823331568,Bendalong Boat Harbour Ocean Ramp,Shoalhaven City Council,02 4429 3111,Red Point Road,Bendalong,Ocean,NSW,2539,52,GOOD,Concrete,true,false,false,true,true,true,false,false,1
0101000020E610000081E8A4EA15D262408186E242AB9841C0,Shallow At Times,-35.1927264791566,150.565175363623,Swanhaven (The Springs Road) Boat Ramp ,Shoalhaven City Council,02 4429 3111,The Springs Road,Swanhaven,Swan Lake,NSW,2540,53,POOR,Sand,false,false,false,false,true,false,false,false,1
0101000020E61000002FF09085CBF26240B615DCDCE98840C0,All Times,-33.0696369242318,151.587343962748,Wangi Foreshore Boat Ramp,Lake Macquarie City Council,02 4921 0333,Kent Place,Lake Macquarie,Lake Macquarie,NSW,2280,54,POOR,Concrete,true,false,false,true,true,false,false,false,2
0101000020E610000005CD9342242062408136745441C841C0,Shallow At Times,-35.5644937102743,145.004426277803,Lawson Syphon,Deniliquin Council,03 5898 3000,Lawson Syphon Road,Deniliquin,Edward River,NSW,2710,55,GOOD,Concrete,false,false,false,false,false,false,false,false,1
0101000020E610000066E47A3F17326340A9480EDC57643CC0,Shallow At Times,-28.391965630996,153.565337886833,Phillip Street Boat Ramp,Tweed  Shire Council,02 6626 7000,Phillip Street,Pottsville,Mooball Creek,NSW,2489,56,GOOD,Concrete,false,false,false,true,false,false,false,false,1
0101000020E61000008ACD1CCD2ED662406579A95DC88C41C0,All Times,-35.0998646810065,150.693213039642,Hyams Beach Jervis Bay,Shoalhaven City Council,02 4429 3111,Cyrus Street,Hyams Beach,Jervis Bay,NSW,2540,57,POOR,Sand,true,false,false,false,true,true,false,false,1
0101000020E61000007B5C6971E5C36240D206E31A221C42C0,All Times,-36.2197908028153,150.121758180412,"Taylors, Narooma",Eurobidalla Shire Council,02 6499 2222,Riverside Drive,Narooma,Narooma (Wagonga Inlet),NSW,2546,58,GOOD,Concrete,false,false,true,true,true,true,true,false,1
0101000020E61000001165A94079BD6140E2C43479660E41C0,All Times,-34.1125022418653,141.921051340913,Wentworth Hospital Boat Ramp,Wentworth Shire Council,03 5027 5027,Silver City Highway,Wentworth,Murray River,NSW,2648,59,GOOD,Concrete,false,false,false,true,true,true,false,false,1
0101000020E610000028CA14E5D21A6340A0DEDE6FB4373FC0,All Times,-31.2175970000377,152.838244000058,"Kundabung Boat Ramp",Kempsey Shire Council,02 6566 3200,River Road,Kundabung,Pipers Creek,NSW,2441,60,POOR,Concrete,false,false,false,false,true,false,false,false,1
0101000020E61000005E686F26186C6240D4FA3DBCFF9541C0,Shallow At Times,-35.1718669226299,147.377948014825,"Apex Park Boat Ramp, Lake Albert",Wagga Wagga City Council,1300 292 442,Lake Street ,Lake Albert,Lake Albert,NSW,2650,61,GOOD,Concrete,true,false,false,true,true,false,false,false,1
0101000020E6100000D638D424082B6340B4BB4C5C676F3DC0,All Times,-29.4351709067666,153.344744123932,Yamba Boat Ramp (East Of Fishing Club Ramp),TBD,TBD,Yamba Road,Yamba,Clarence River,NSW,2464,62,FAIR,Concrete,false,false,true,true,false,false,false,false,1
0101000020E61000009BF68D473DDA62400352C058178241C0,High Tide Only,-35.0163374842705,150.819980408928,Warrain Cres Currarong,Shoalhaven City Council,02 4429 3111,Warrain Crescent,Currarong,Currarong Creek,NSW,2540,63,POOR,Sand,false,false,false,false,true,true,false,false,1
0101000020E61000000E0F814736E46240963E29631BFE40C0,Shallow At Times,-33.985210795535,151.131625892704,Kogarah Bay,Kogarah City Council,02 9330 9400,Torwood Street,Sans Souci,Georges River,NSW,2219,64,GOOD,Concrete,false,false,false,false,true,false,false,false,1
0101000020E6100000BC47EEEA47D66240607DB143286541C0,All Times,-34.7902912727975,150.696279015914,Berry Boat Ramp,Shoalhaven City Council,02 4429 3111,Collangata Road,Berry,Broughton Creek,NSW,2535,65,FAIR,Concrete,false,false,false,false,true,true,false,false,1
0101000020E6100000232D50B46DBA6240D0D10B9B906740C0,Shallow At Times,-32.8091005141938,149.825891644091,Windamere Dam,Cudgegong Waters Park,02 6373 0378 ,Cudgegongroad,Windamere Dam,Windamere Dam,NSW,2852,66,GOOD,Concrete,true,true,true,false,true,true,false,false,2
0101000020E6100000AAEE780A69EF61403CE943EB947941C0,Shallow At Times,-34.9498571473691,143.481572376438,Kyalite Boat Ramp (Caravan Park),Balranald Shire Council,03 5020 1300,Kyalite Road,Kyalite,Wakool River,NSW,2734,67,GOOD,Concrete,true,false,false,false,false,false,false,false,1
0101000020E610000042263D41A4276340A3F1F49D826D3DC0,All Times,-29.4277743075378,153.238800639565,Harwood - Clarence River,Clarence Valley Council,02 6643 0200,Martins Point Road,Harwood,Clarence River,NSW,2465,68,GOOD,Concrete,false,false,false,true,true,true,false,false,1
0101000020E6100000FC7AA8DFD73063400C69F89553313CC0,All Times,-28.1926816684218,153.526351765693,Dry Dock Road Boat Ramp ,Tweed Shire Council,02 6670 2400,Dry Dock Road,Tweed Heads South,Terranora Creek,NSW,2486,69,POOR,Not Provided,false,false,false,true,true,false,true,false,2
0101000020E6100000C92E42B1481B6340347B795F93673FC0,Shallow At Times,-31.404592482718,152.852623585952,Fernbank Creek Boat Ramp,Port Macquarie-Hastings Council,02 6581 8111,Fernbank Creek Road,Port Macquarie,Hastings River,NSW,2444,70,POOR,Concrete,false,false,false,false,false,false,false,false,2
0101000020E61000009BA4B70882276340AAD0B37D1F613DC0,All Times,-29.379386764908,153.234623297384,Chatsworth Island - Clarence River,Clarence Valley Council,02 6643 0200,Chatsworth Road,Chatsworth Island,Clarence River (North Arm),NSW,2469,71,POOR,Bitumen,false,false,false,false,false,false,false,false,1
0101000020E6100000155B082D10F36240D98293CB508140C0,All Times,-33.010278174426,151.595724598236,Royal Motor Yacht Club Toronto,Royal Motor Yacht Club Toronto,02 4959 2051,Bath Street,Toronto,Lake Macquarie,NSW,2283,72,GOOD,Concrete,false,false,true,true,false,true,true,true,1
0101000020E6100000C3AD9AAD3C1D6340B3030D0742A23DC0,All Times,-29.6338200003408,152.91365699969,Carrs Peninsular Boat Ramp,Clarence Valley Council,02 6643 0200,Carrs Peninsular Road,Junction Hill,Clarence River,NSW,2460,73,POOR,Not Provided,false,false,false,false,false,false,false,false,1
0101000020E610000009B2F4BF28E96240FC87FBFF35E740C0,Shallow At Times,-33.8063354471378,151.286224344178,Little Manly Cove,Manly Council,02 9976 1500,Craig Avenue,Manly,Sydney Harbour,NSW,2095,74,FAIR,Concrete,false,false,true,true,true,false,false,false,1
0101000020E6100000DFA70FAA68F462406B3E2511B38940C0,All Times,-33.0757771903853,151.637776403978,Swansea Boat Ramp,Lake Macquarie City Council,02 4921 0333,Dobinson Drive,Swansea,Lake Macquarie,NSW,2281,75,GOOD,Concrete,false,false,false,true,false,true,false,false,3
0101000020E61000007FB0CF7D07C462408C0F0549670842C0,Shallow At Times,-36.0656520151816,150.125914483684,Tuross Lake,Eurobodalla Shire Council,02 4429 3111,Trafalgar Road,Tuross,Tuross Lake,NSW,2537,76,GOOD,Concrete,false,false,true,false,true,true,true,true,2
0101000020E61000006B33A284DDE36240DF99DB36AAED40C0,All Times,-33.8567570278426,151.12079078369,Bayview Park Boat Ramp,City Of Canada Bay Council,02 9911 6555,Burwood Road,Concord,Parramatta River,NSW,2137,77,GOOD,Concrete,false,false,false,true,true,false,true,false,2
0101000020E610000047E6D88C4C1E6340442984303E043FC0,All Times,-31.016573936716,152.946844504959,Smithtown Boat Ramp ,Kempsey Shire Council,02 6566 3200,Main Street,Smithtown,Macleay River,NSW,2440,78,GOOD,Concrete,true,false,false,false,true,true,false,true,1
0101000020E6100000D723E90C8CE762407043E335AFD240C0,All Times,-33.645972000092,151.235846000053,Akuna Bay Boat Ramp,The Council Of The Shire Of Hornsby,02 9847 6666,Liberator General San Martin Drive,Mount Kuring-Gai,Coal And Candle Creek,NSW,2083,79,GOOD,Concrete,false,true,true,true,true,false,false,false,2
0101000020E6100000763D9844A4D66240166D1780546B3FC0,All Times,-31.4192581231301,150.707552239746,Quipolly Dam Boat Ramp,Liverpool Plains Shire Council,02 6746 1755,Lowes Creek Road,Quipolly ,Quipolly Dam,NSW,2343,80,GOOD,Concrete,false,false,false,false,true,false,false,false,1
0101000020E61000007CC0D30F6AFE62402AB24D07EBFF3FC0,Unknown,-31.9996800007522,151.950447000101,Gloucester District Park,MidCoast Council,02 6538 5250,Thunderbolts Way,Gloucester,Gloucester River,NSW,2422,81,UNKNOWN,Not Provided,true,false,false,false,true,true,false,false,
0101000020E610000061F494BAE4DF62404767F6086EE43DC0,High Dam Level,-29.8923040010043,150.996671000411,Copeton Dam Northern Foreshores,Inverell Shire Council,02 6728 8288,Auburn Vale Road,Copeton,Copeton Dam,NSW,2360,82,GOOD,Concrete,true,false,true,false,true,true,false,false,1
0101000020E61000007D22F130DAF66240C69B30F8906F40C0,Shallow At Times,-32.8716116177889,151.714134665457,Sandgate - Hunter Rv South Arm,Newcastle City Council,02 4974 2000,Ferry Road,Sandgate,Hunter River,NSW,2304,83,POOR,Bitumen,false,false,false,true,false,false,false,false,1
0101000020E6100000C625E80324F46240B31E96BE5E8140C0,All Times,-33.0107038720138,151.62939639417,Valentine,Lake Macquarie City Council,02 4350 5555,Dilkera Ave,Valentine,Lake Macquarie,NSW,2280,84,GOOD,Concrete,true,false,false,true,true,true,false,false,1
0101000020E610000043728109EC146240BA6F5E839B0942C0,Shallow At Times,-36.0750583850017,144.653813126397,Casey Road,Shire Of Campaspe, 03 5481 2200,Casey Road,Echuca,Murray River,NSW,3564,85,GOOD,Concrete,false,false,false,false,false,false,false,false,1
0101000020E6100000A5EBD2529AC16240D56957A46B0842C0,All Times,-36.0657849718879,150.050088321642,Tuross River Bridge Boat Ramp,Eurobodalla Shire Council,02 4474 1000,Princes Highway,Bodalla,Tuross River,NSW,2545,86,GOOD,Concrete,false,false,false,false,false,false,false,false,1
0101000020E61000005EE7646FA9D461405AC73835D06241C0,All Times,-34.771979000782,142.645682999685,Wemen,Swan Hill Rural City Council,03 5036 2333,Hattah - Robinvale Road,Wemen,Murray River,NSW,3549,87,GOOD,Concrete,false,false,false,false,false,false,false,false,1
0101000020E6100000213F6A6798F0624014123F9468A140C0,Shallow At Times,-33.2610040004694,151.518603999627,"Wallarah Point Park, Gorokan 
(Fishermans Co Op)",Wyong Shire Council,02 4350 5555,Wallarah Road,Gorokan,Lake Budgewoi ,NSW,2263,88,GOOD,Concrete,true,false,false,true,true,false,true,false,2
0101000020E6100000E017540794936240ACA2FD9CE11042C0,Shallow At Times,-36.1318851698355,148.611819900746,Eucumbene Cove Boat Ramp,Snowy River Shire Council,02 6451 1195,Happy Jacks Drive,Kosciuszko National Park,Lake Eucumbene,NSW,2720,89,FAIR,Unsealed,false,false,false,false,false,false,false,false,1
0101000020E6100000D0634B223E946240D509EBD6C22842C0,All Times,-36.3184460303925,148.632584712263,"Kalkite Waters Access Point, Lake Jindabyne",Snowy  Hydro,02 6453 2888,Kalkite Road,Kalkite,Lake Jindabyne,NSW,2627,90,GOOD,Unsealed,false,false,false,false,true,false,false,false,1
0101000020E610000071F6BE6463D661402C1EF28CB65641C0,All Times,-34.6774460012642,142.699633000349,Happy Valley,Swan Hill Rural City Council,03 5036 2333,Happy Valley Landing Road,Happy Valley,Murray River,NSW,3594,91,GOOD,Concrete,false,false,false,false,false,false,false,false,1
0101000020E610000048661B48421B6340306693D696663FC0,Shallow At Times,-31.4007391080724,152.851841023936,Blackmans Point Boat Ramp,Port Macquarie-Hastings Council,02 6581 8111,Blackmans Point Road,Blackmans Point,Hastings River,NSW,2444,92,POOR,Concrete,false,false,false,false,false,true,false,false,1
0101000020E6100000E7BF0500D72D6340D3158D36751F3DC0,All Times,-29.1228822798201,153.432495127897,Evans Head Boat Ramp,Richmond Valley Council,02 6660 0300,Ocean Drive,South Evans Head,Evans River,NSW,2473,93,GOOD,Concrete,true,false,false,true,true,true,true,true,2
0101000020E6100000E6D086F1E3876240AB444AC1F71C40C0,Shallow At Times,-32.2263108837736,148.246575129807,Narromine Boat Ramp,Dubbo City Council,02 6801 4000,Culling Street,Narromine ,Macquarie River,NSW,2821,94,GOOD,Concrete,true,false,false,false,true,true,false,false,1
0101000020E6100000A9AFFF71FB1F6240B3D1E26633ED41C0,Shallow At Times,-35.8531311614528,144.999444007289,Picnic Pt Mathoura - Murray River,Murray Shire Council,03 5880 1200,Picnic Point Road,Mathoura,Murray River,NSW,2710,95,GOOD,Concrete,true,false,true,true,true,true,true,false,1
0101000020E61000009F5E08710F0E63405485D1D38B3240C0,All Times,-32.3948921940852,152.439384952876,Myall Lake North,TBD,TBD,Godfrey Close,Bungwahl,Myall Lakes,NSW,2423,96,POOR,Unsealed,false,false,false,false,false,false,false,false,1
0101000020E6100000C341C7A22332634006D5D510A5DF3CC0,All Times,-28.8736124536563,153.566850079702,Ballina Yacht Club Boat Ramp,Ballina Shire Council,02 6686 4444,River Street,Ballina,Richmond River,NSW,2478,97,GOOD,Concrete,false,false,false,true,false,true,false,false,2
0101000020E610000026EE1428E6EB6240531DF4B86DBE40C0,All Times,-33.4877234641996,151.371845284347,Illoura Reserve Boat Ramp,Gosford City Council,02 4325 8222,Amy Street,Davistown,Brisbane Water,NSW,2251,98,GOOD,Concrete,false,false,false,true,false,false,true,false,1
0101000020E6100000F55CCB243493624017F96842453442C0,Shallow At Times,-36.4083636295856,148.600115201181,"Widows Inlet, Lake Jindabyne",Snowy River Shire Council,02 6451 1195,Kosciuszko Road,Jindabyne,Lake Jindabyne,NSW,2627,99,GOOD,Concrete,false,false,true,false,true,false,false,false,1
0101000020E6100000805C2C6CFFEF624077CC90B33DAE40C0,Shallow At Times,-33.3612579781556,151.49992951073,Tooowoon Bay (Surf Club),Wyong Shire Council,02 4350 5555,Bay Road,Toowoon Bay,Tuggerah Lake,NSW,2261,100,GOOD,Sand,false,false,true,true,true,false,false,false,1
0101000020E610000058B69A6BA888624052B5C4BEBEB541C0,All Times,-35.4198835812082,148.27055912225,Log Bridge Creek Boat Ramp,Tumut Shire Council,02 6941 2555,Snowy Mountains Highway,Kosciuszko National Park,Blowering Reservoir,NSW,2720,101,GOOD,Concrete,true,false,false,false,true,false,false,false,1
0101000020E6100000E7CB99FB1E1A634034FAE69345A53FC0,All Times,-31.6455929221067,152.81628208197,Dunbogan Reserve Boat Ramp,Port Macquarie-Hastings Council,0,The Boulevard (Off Camden Head Road),Dunbogan,Camden Haven Inlet,NSW,2443,102,GOOD,Concrete,true,false,false,true,true,true,false,false,2
0101000020E610000070D04A2771BF614096895FE5380E41C0,Unknown,-34.1111113277904,141.982562681314,Curlwaa Boat Ramp,Wentworth Shire Council,03 5027 5027,Silver City Highway,Curlwaa,Murray River,NSW,2648,103,GOOD,Concrete,false,false,false,true,false,true,false,false,1
0101000020E6100000ECF052DB65A06240D2B9B47BA2F940C0,Shallow At Times,-33.9502710945559,149.01243368339,Taylors Point Boat Ramp,"Grabine Lakeside State Park 
(NSW Crown Holiday Park Trust)",02 4835 2345,Foggs Crossing Road,Bigga,Lachlan River,NSW,2583,104,GOOD,Concrete,true,true,true,false,true,true,false,false,1
0101000020E61000004ED2453E57C2624098B48F8C6C3642C0,All Times,-36.4251876546561,150.073149811144,Bermagui Boat Harbour Boat Ramp,Bega Valley Shire Council,02 6499 2222,Lamont Street,Bermagui,Bermagui River (Ocean),NSW,2546,105,GOOD,Concrete,false,false,false,true,true,true,true,true,3
0101000020E6100000880A125790C56140B342B438911741C0,All Times,-34.1841193084887,142.173869643437,Mildura Boat Ramp - Murray River (VIC),Mildura Rural City Council,03 5020 1300,Hugh King Drive,Mildura,Murray River,VIC,3500,106,GOOD,Concrete,false,false,false,false,false,true,false,false,2
0101000020E6100000F40246E9231C6340809AF450CA093FC0,All Times,-31.0382433507134,152.879383694402,Frederickton Boat Ramp,Kempsey Shire Council,02 6566 3200,"Macleay Valley Way","Frederickton
",Macleay River,NSW,2440,107,GOOD,Concrete,false,false,false,true,false,true,false,false,1
0101000020E6100000F0A5D4849CE162403467CFD15B0241C0,All Times,-34.0184271109305,151.050356307343,Burnum Burnum Sanctuary Boat Ramp,Sutherland Shire Council,02 9710 0333,Menai Road,Woronora,Woronora River,NSW,2232,108,FAIR,Concrete,true,false,false,true,true,true,false,false,1
0101000020E6100000016E03AF16F26240695202C45D9140C0,Shallow At Times,-33.1356740008676,151.565268999766,Summerland Point Reserve Boat Ramp,Wyong City Council,4351 5555,Kullaroo Road,Summerland Point,Lake Macquarie,NSW,2259,109,POOR,Concrete,true,false,false,false,true,false,true,false,1
0101000020E61000002A20EE0916896240D2461BDC55B941C0,All Times,-35.447932732886,148.283940281953,"The Pines Boat Ramp
",Tumut Shire Council,02 6941 2555,Snowy Mountains Highway,Kosciuszko National Park,Blowering Reservoir,NSW,2720,110,GOOD,Concrete,true,false,false,false,true,false,false,false,2
0101000020E6100000BC3FAFE941046240BB70BA1D1AD241C0,Shallow At Times,-35.6414220009187,144.133045999797,Koondrook,Gannawarra Shire Councill,03 5450 9333,Tramway Place,Koondrook,Murray River,VIC,3579,111,GOOD,Concrete,false,false,false,false,false,false,true,false,1
0101000020E6100000E09D82CD74B76140B347176A7F0B41C0,All Times,-34.0898258794472,141.73300815116,Fort Courage Caravan Park Boat Ramp,Wentworth Angling Club,"03 5027 3097
",Renmark Road,"Wentworth 
(Anabranch South)",Murray River,NSW,2648,112,GOOD,Concrete,true,true,false,false,true,true,false,true,1
0101000020E6100000DD9E89BCD6E3624085ABAE71A5CC40C0,All Times,-33.5987989523774,151.119962948599,"Berowra Waters Boat Ramp
",The Council Of The Shire Of Hornsby,02 9847 6666,Bay Road,Berowra Waters,Berowra Creek,NSW,2082,113,GOOD,Concrete,false,false,true,true,true,false,true,false,4
0101000020E610000086C82FC55D1C6340BB82EC98B96B3FC0,All Times,-31.4208007409495,152.886446564986,"Mcinherney Park, Port Macquarie",Port Macquarie Hastings Council,02 6581 8111,River Park Road,Port Macquarie,Hastings River,NSW,2444,114,GOOD,Concrete,true,false,false,true,true,true,false,true,2
0101000020E6100000CB6B90055C3063404F4DD59EF3313CC0,All Times,-28.1951236029393,153.511233121941,"Lakes Drive, Terranora Inlet",Tweed Shire Council,02 6670 2400,The Lakes Drive,Tweed Heads West,Terranora Broadwater,NSW,2485,115,POOR,Concrete,false,false,false,true,true,true,true,true,1
0101000020E6100000E9491943E5946240AD6D49371C0D42C0,All Times,-36.1024235828912,148.652986096756,Eucumbene Road Boat Ramp,Snowy River Shire Council,02 6451 1195,Eucumbene Road,Braemer Bay,Lake Eucumbene,NSW,2628,116,GOOD,Unsealed,false,true,true,false,true,true,false,false,Informal
0101000020E610000039B60FDAEC2D6340E59B15B4254E3CC0,All Times,-28.3052628090626,153.435162573516,Clarrie Purnell Park - Condong,Tweed Shire Council,02 6670 2400,Mcleod Street,Condong,Tweed River,NSW,2484,117,FAIR,Concrete,false,false,false,true,false,true,false,true,1
0101000020E6100000871B7E1C20CF6240748118FB13A741C0,High Tide Only,-35.3052972669274,150.472669836334,Narrawallee,Shoalhaven City Council,02 4429 3111,Matron Porter Drive,Narrawallee,Narrawallee Inlet,NSW,2539,118,FAIR,Concrete,false,false,false,true,true,false,false,false,1
0101000020E6100000274F1153A2E062407DFF63EDEFFC40C0,All Times,-33.9760720003387,151.01981500035,Georges River National Park Boat Ramp,National Parks And Wildlife Services,1300 072 757,The River Road,Revesby,Georges River,NSW,2213,119,GOOD,Concrete,true,true,false,true,true,true,true,true,2
0101000020E61000004B3F50FC18F4614058C1E47492B941C0,All Times,-35.4497820012063,143.628049999936,Lake Boga - Ski Club,Swan Hill Rural City Council,03 5036 2333,Willakool Drive,Lake Boga,Lake Boga,VIC,3584,120,GOOD,Concrete,false,false,false,false,true,true,false,false,2
0101000020E61000000229F5F7FFC36240F1DD01E5F50442C0,Shallow At Times,-36.0387541064373,150.124996165112,Coila Lake,Eurobodalla Shire Council,02 4429 3111,Hector Mcwilliam Drive,Coila,Coila Lake,NSW,2537,121,POOR,Unsealed,false,false,false,true,true,false,false,false,Informal
0101000020E61000004CDB9026F32A6340608B2F62557A3DC0,Shallow At Times,-29.4778653493953,153.342181475566,Wooloweyah,TBD,TBD,Lakes Boulevard,Wooloweyah,Wooloweyah Lagoon,NSW,2464,122,POOR,Unsealed,false,false,false,false,false,false,false,false,1
0101000020E6100000FA18C8E21D1E634038DC3DB5F7773EC0,All Times,-30.4686234737421,152.941148176971,Bellinger River Boat Ramp,Bellingen Shire Council,02 6655 7300,Waterfall Way,Fernmount,Bellinger River,NSW,2454,123,POOR,Unsealed,true,false,false,false,false,false,false,false,1
0101000020E6100000FED910CEC2D5624045293B1B048E3EC0,All Times,-30.5547501582562,150.680029900468,Split Rock Dam Boat Ramp,Tamworth Regional Council,02 6767 5555,Oakhamton Road,Barraba,Split Rock Reseviour,NSW,2347,124,GOOD,Concrete,false,false,false,false,true,false,false,false,1
0101000020E6100000448850E031F26240D1B21781BBA340C0,Shallow At Times,-33.2791596761432,151.568588406839,Norah Head Boat Ramp - Cabbage Tree Harbour,Wyong Shire Council,02 4350 5555,Bald Street,Norah Head,Ocean,NSW,2263,125,GOOD,Concrete,false,false,false,true,true,false,false,false,2
0101000020E61000000AAEE628063262400D0A5CE8ECE741C0,All Times,-35.8119173478518,145.563251925036,Tocumwal Foreshore Park Boat Ramp,Berrigan Shire Council,03 5888 5100,Deniliquin Road,Tocumwal,Murray River,NSW,2714,126,GOOD,Concrete,false,false,true,true,false,true,false,false,1
0101000020E610000054A7B75279616240D8B80746D3FC41C0,Shallow At Times,-35.9751975572305,147.046059950541,Table Top Reserve Boat Ramp (Lake Hume),Albury City Council,02 6023 8111,Table Top Road,Table Top,Lake Hume,NSW,2640,127,POOR,Unsealed,false,false,false,false,false,false,false,false,2
0101000020E610000035DBB29667CE62401BC50DC0BB9D41C0,All Times,-35.2322921817051,150.450145100907,Fishermans Paradise Boat Ramp,Shoalhaven City Council,02 4429 3111,Anglers Parade,Fishermans Paradise,Lake Conjola,NSW,2539,128,GOOD,Concrete,true,false,false,false,true,true,false,false,1
0101000020E610000049A3A74ABBF36240292949E3458640C0,All Times,-33.0490078074675,151.616612746637,Skye Point,Lake Macquarie City Council,02 4921 0333,Skye Point Road,Coal Point,Lake Macquarie,NSW,2283,129,GOOD,Concrete,false,false,false,true,true,true,false,false,1
0101000020E610000043274C8DD089624082253B9B53D041C0,All Times,-35.6275514639665,148.306708000886,Talbingo Dam,Snowy  Hydro,02 6453 2888,Talbingo,Talbingo,Talbingo Reservoir,NSW,2720,130,GOOD,Concrete,true,false,false,false,true,false,false,false,2
0101000020E610000015615039CADB62406B1934027C4541C0,Shallow At Times,-34.5428469423667,150.868435532561,Reddall Reserve ,Lake Illawarra Authority,02 4275 9471,Reddel Parade,Lake Illawarra,Lake Illawarra,NSW,2528,131,POOR,Concrete,true,false,true,true,true,true,false,true,1
0101000020E6100000E0C065001FF06240AFA86FCFCDA940C0,All Times,-33.3265933318338,151.503784369218,The Entrance North,Wyong Shire Council,02 4350 5555,Wilfred Barrett Drive,The Entrance North,Tuggerah Lake,NSW,2261,132,GOOD,Concrete,false,false,true,false,true,false,false,false,1
0101000020E61000009F3AEBC0D7E96240D03C1DF191DE40C0,All Times,-33.7388287918817,151.30758710807,Fishermans Beach Long Reef Boat Ramp,Warringah Council,02 9942 2111,Anzac Avenue,Collaroy,Ocean,NSW,2097,133,GOOD,Concrete,false,false,false,true,true,true,false,false,2
0101000020E61000001E130B022DCE624038ABFD0554A141C0,All Times,-35.2603766907327,150.442994138365,"Yooralla Bay, Lake Conjola",Shoalhaven City Council,02 4429 3111,Haviland Street,Lake Conjola,Conjola Lake,NSW,2539,134,POOR,Bitumen,false,false,false,false,false,false,false,false,1
0101000020E6100000E90B2B30E40D624099845AC345F641C0,Shallow At Times,-35.9240040008528,144.434104999614,Gunbower Island,Gannawarra Shire Councill,03 5450 9333,Bereton Road,Gunbower,Murray River,VIC,3566,135,UNKNOWN,Not Provided,false,false,false,false,false,,false,false,1
0101000020E610000097507FC2A0276340B1EDC842D76E3DC0,All Times,-29.4329721203373,153.238373993551,Harwood Bridge South - Clarence River,Clarence Valley Council,02 6643 0200,Yamba Road,Maclean,Clarence River,NSW,2463,136,GOOD,Concrete,false,false,false,true,true,true,false,false,1
0101000020E6100000FD26CAB1E0E8624057E242B682C640C0,All Times,-33.5508640123923,151.277428526715,Patonga Beach ,Gosford City Council,02 4325 8222,Patonga Drive,Patonga,Hawkesbury River,NSW,2256,137,GOOD,Concrete,false,false,false,false,true,false,true,false,1
0101000020E61000009DB75378174C62402909B69B54A640C0,All Times,-33.2994570387694,146.377864993582,Lake Cargelligo (Lake Street),TBD,TBD,Lake Street ,Lake Cargelligo,Lake Cargelligo,NSW,2672,138,GOOD,Concrete,false,false,false,true,true,true,false,false,2
0101000020E610000078D1DDB0C501634080E6950F4E5E40C0,Shallow At Times,-32.7367572290359,152.055382188071,Taylors Beach,Port Stephens Council,02 4980 0255,Taylors Road,Taylors Beach,Port Stephens,NSW,2316,139,FAIR,Bitumen,false,false,false,false,true,false,false,false,1
0101000020E6100000A657AFADC8406240C49CAD8E01FD41C0,All Times,-35.9766100261418,146.024496881929,Lake Mulwala Regional Boat Ramp,Corowa Shire Council,03 5888 5100,Melbourne Street,Mulwala,Lake Mulwala,NSW,2647,140,GOOD,Concrete,false,false,false,true,true,false,false,false,2
0101000020E6100000CA52BA8F3CEC6140FC1F69E2E69541C0,Shallow At Times,-35.1711085332208,143.382392753518,Nyah,Swan Hill Rural City Council,03 5036 2333,River Street,Nyah,Murray River,NSW,3594,141,FAIR,Concrete,false,false,false,false,false,false,false,false,1
0101000020E6100000671083C8F5F062404CB06C7F619D40C0,Shallow At Times,-33.22953789527,151.53000283812,Buff Point Boat Ramp,Wyong Shire Council,02 4350 5555,Narambi Road,Buff Point,Lake Budgewoi,NSW,2262,142,GOOD,Concrete,true,false,false,false,true,false,false,false,1
0101000020E61000003B0143C6A3196340C6AAD7F335A73FC0,All Times,-31.6531669999629,152.801241999501,"Bay Street Boat Ramp
(Camden Haven Inlet)",Port Maquarie-Hastings Council,02 6581 8111,Bay Street,Dunbogan,Camden Haven Inlet,NSW,2443,143,POOR,Concrete,false,false,false,false,false,true,false,false,1
0101000020E6100000914F8752F82A634027BECF8DC8113DC0,All Times,-29.0694664604363,153.342812790183,Woodburn,Lismore City Council,1300 878 387,Bank Street,North Woodburn,Richmond River,NSW,2471,144,FAIR,Concrete,false,false,false,true,false,false,false,false,1
0101000020E61000002F2AB775EB1763404418639CD5733FC0,All Times,-31.4524781934672,152.747492654556,"Rocks Ferry Reserve, Wauchope",Port Macquarie Hastings Council,02 6581 8111,Rocks Ferry Road,Wauchope,Hastings River,NSW,2446,145,GOOD,Concrete,true,false,false,true,true,true,false,false,2
0101000020E6100000F0F86B4A96B06240AC39930B945E3EC0,All Times,-30.3694464907109,149.518346033939,Yarrie Lake Boat Ramp,Yarria Lake Flora And Fauna Trust,02 6799 6760,Yarrie Lake Road,Yarrie Lake,Yarrie Lake,NSW,2388,146,GOOD,Concrete,false,false,false,false,true,false,false,false,1
0101000020E6100000E6A91D53D0D16240B017926A6B8C41C0,Shallow At Times,-35.0970280850737,150.556680257737,Boathaven Avenue Boat Ramp,Shoalhaven City Council,02 4429 3111,Boathaven Avenue,Basin View,St Georges Basin,NSW,2540,147,POOR,Sand,false,false,false,false,false,false,false,false,1
0101000020E6100000BC4536902EC4624075B4EAFD461542C0,All Times,-36.166228999712,150.130684000016,Creswick Cove Boat Ramp,Eurobodalla Shire Council,02 4474 1000,Ocean Parade,Dalmeny,Ocean,NSW,2546,148,GOOD,Concrete,false,false,false,false,false,false,false,false,1
0101000020E610000029A2595D5CEB62406877D4DE95BC40C0,All Times,-33.4733236825403,151.355024981561,Saratoga Boat Ramp ,Gosford City Council,02 4325 8222,Centennial Avenue,Saratoga,Brisbane Water,NSW,2251,149,GOOD,Concrete,false,false,false,true,false,false,true,true,1
0101000020E610000034361BAC44286340B84A77A87EF23DC0,All Times,-29.947245148777,153.258382847927,Station Creek Camping Ground - Boat Ramp,Yuraygir National Park,02 6641 1500,Station Creek Road,Barcoongere ,Station Creek,NSW,2460,150,FAIR,Sand,false,true,false,false,true,false,false,false,2
0101000020E6100000A8FDC098DBF26240BE4C4CAA358940C0,All Times,-33.0719502327497,151.589306237159,Memorial Park Boat Ramp,Lake Macquarie City Council,02 4921 0333,Dobell Drive,Wangi Wangi,Lake Macquarie,NSW,2267,151,GOOD,Concrete,true,false,false,true,true,true,true,false,2
0101000020E610000011F28641E42E634045E53DD361F43CC0,All Times,-28.9546176935303,153.465363277021,East Wardell Boat Ramp,Ballina Shire Council,02 6686 4444,River Street,East Wardell,Richmond River,NSW,2477,152,GOOD,Concrete,false,false,false,false,false,true,true,false,1
0101000020E6100000E40E3C2FBD2D63408432FC6FC1033DC0,Emergency Only,-29.0146703711239,153.429343812276,Broadwater SES,TBD,TBD,Pacific Highway,Broadwater,Richmond River,NSW,2472,153,FAIR,Concrete,false,false,false,true,false,false,false,false,1
0101000020E6100000A96F70674C1E6340A8D6F76B3D043FC0,All Times,-31.0165622215342,152.946826667406,"Smithtown Boat Ramp",Kempsey Shire Council,02 6566 3200,"Main Street",Smithtown,Macleay River,NSW,2440,154,FAIR,Concrete,true,false,false,true,true,true,false,false,1
0101000020E61000003F0C291959F16240261F69E337A140C0,Shallow At Times,-33.2595180762567,151.542126255199,"Peel Street Boat Ramp, Toukley",Wyong Shire Council,02 4350 5555,Peel Street,Toukley,Lake Budgewoi ,NSW,2263,155,FAIR,Concrete,false,false,false,false,false,false,true,false,1
0101000020E6100000387EFA38CFDF62406889901582FC40C0,Shallow At Times,-33.9727198558565,150.994045724148,Sandy Point,Sutherland Shire Council,02 9710 0333,St George Crescent,Sandy Point,Georges River,NSW,2172,156,FAIR,Concrete,false,false,false,true,false,false,false,false,1
0101000020E610000025DEAFB60AF36240D4BBA1E8F48440C0,All Times,-33.0387240209308,151.595057815067,Rathmines Boat Ramp ,Lake Macquarie City Council,02 4921 0333,Dorrington Road,Rathmines,Lake Macquarie,NSW,2283,157,GOOD,Concrete,true,false,false,false,true,true,true,false,6
0101000020E61000001B6F6EDE19F26240B2D200DA759140C0,All Times,-33.136409044649,151.565657821361,Summerland Point Reserve Boat Ramp,Wyong City Council,4350 5555,Kullaroo Road,Summerland Point,Lake Macquarie,NSW,2259,158,GOOD,Concrete,true,false,true,true,true,true,true,false,3
0101000020E61000003A27644624EB6240A95ADCF129BF40C0,Shallow At Times,-33.4934675527523,151.348178096401,St Huberts Island (Luderick Avenue) Boat Ramp,Gosford City Council,02 4325 8222,Luderick Avenue,St Huberts Island,Brisbane Water,NSW,2257,159,FAIR,Concrete,false,false,false,false,false,false,false,false,1
0101000020E610000022C85C160CEB6240ADF87EE2E4BE40C0,All Times,-33.4913600082376,151.345225506987,St Huberts Island Boat Ramp,Gosford City Council,02 4325 8222,Beachfront Parade,St Huberts Island,Brisbane Water,NSW,2257,160,FAIR,Sand,false,false,false,false,false,false,false,false,1
0101000020E61000006063213AE78862403EDBE49EFF0642C0,Shallow At Times,-36.0546759240592,148.278225960933,Tooma Reservoir,Snowy  Hydro,02 6453 2888,Cabramurra Way,Tooma,Tooma River,NSW,2642,161,POOR,Unsealed,false,true,false,false,false,false,false,false,1
0101000020E6100000E2AD991719EA62400459487D67BA40C0,High Tide Only,-33.4562832453976,151.315563011317,Tascott Boat Ramp ,Gosford City Council,02 4325 8222,Brisbane Water Drive,Tascott,Brisbane Water,NSW,2250,162,FAIR,Concrete,false,false,false,true,true,true,false,false,1
0101000020E61000004FA7C1EE492163403DA46807F2753EC0,All Times,-30.4607243185494,153.040274980764,Mylestom Boat Ramp - Downstream,Bellingen Shire Council,02 6655 7300,Mylestom Drive,Mylestom,Bellinger River,NSW,2454,163,GOOD,Concrete,true,false,false,false,true,true,true,false,1
0101000020E6100000092D9B9D0DCE62401C02F85542A141C0,All Times,-35.2598369084337,150.439162066534,"Yooralla Bay, Lake Conjola",Shoalhaven City Council,02 4429 3111,Valley Drive,Lake Conjola,Conjola Lake,NSW,2539,164,POOR,Unsealed,false,false,false,false,false,false,true,false,1
0101000020E610000047003F74462163405C5BC748BB753EC0,All Times,-30.4598889815055,153.039850352334,Mylestom Boat Ramp,Bellingen Shire Council,02 6655 7300,Mylestom Road,Mylestom,Bellinger River,NSW,2454,165,GOOD,Concrete,true,false,false,true,true,true,true,false,1
0101000020E610000060E769185040624045D3C3DE2BFE41C0,All Times,-35.9857138115099,146.009777266353,J W Purtle Reserve - Lake Mulwala,Corowa Shire Council,03 5888 5100,Melbourne Road,Mulwala,Lake Mulwala,NSW,2647,166,GOOD,Concrete,false,false,true,true,true,false,false,false,1
0101000020E6100000146DF554FED162401F4DE5D20B8C41C0,All Times,-35.0941108340869,150.562296370838,Basin View Boat Ramp,Shoalhaven City Council,02 4429 3111,Basin View Parade,Basin View,St Georges Basin,NSW,2540,167,GOOD,Concrete,false,false,false,true,true,true,true,false,2
0101000020E6100000479D8621B8E362409CA17C47BBEB40C0,All Times,-33.8416528090049,151.116226923865,"Kendall Bay, Cabarita Park",City Of Canada Bay Council,02 9911 6555,Cabarita Road,Cabarita,Parramatta River,NSW,2137,168,GOOD,Concrete,true,false,false,true,true,false,false,false,1
0101000020E6100000CE57964B11F2624019A6C1A8F09840C0,Shallow At Times,-33.1948443360854,151.564611238135,Lake Munmorah Reserve Boat Ramp,Wyong Shire Council,02 4350 5555,Colongra Bay Road,Lake Munmorah,Lake Munmorah,NSW,2259,169,GOOD,Concrete,false,false,false,false,true,false,true,false,1
0101000020E6100000237F146F370363404CA69C30965740C0,All Times,-32.6842709317103,152.10051683429,Pindimar Boat Ramp,Great Lakes Council,02 6591 7222,Curlew Avenue,Pindimar,Port Stephens,NSW,2324,170,FAIR,Unsealed,false,false,false,false,false,false,false,false,1
0101000020E610000031AF1DCB31F1624067B3CF77098F40C0,Shallow At Times,-33.1174764408268,151.537328298547,Bardens Bay Boat Ramp,Lake Macquarie City Council,02 4921 0333,Lakeview Road,Morisset Park,Lake Macquarie,NSW,2264,171,FAIR,Concrete,false,false,false,false,false,true,false,false,1
0101000020E6100000B8E64BE370C96240EE5079B89CD241C0,Shallow At Times,-35.645407733189,150.295030258412,Durras Lake Boat Ramp (South Durras),Eurobodalla Shire Council,02 4474 1000,First Street,South Durras,Durras Lake,NSW,2536,172,FAIR,Concrete,false,false,false,false,true,true,false,false,1
0101000020E61000003B628E01D9FC6240A1158777B9F83FC0,All Times,-31.9715800003811,151.90148999986,Barrington Reserve,TBD,TBD,Thunderbolts Way,Barrington,Barrington River,NSW,2422,173,FAIR,Unsealed,true,false,false,false,true,true,false,false,1
0101000020E6100000A78E746D4A5B6240C17FD28449F53DC0,Shallow At Times,-29.9581530584253,146.85283539548,4 Mile Boat Ramp,Brewarrina Shire Council,02 6830 5100,Coolabah Road,Brewarrina,Barwon River,NSW,2839,174,GOOD,Concrete,false,false,false,false,false,false,false,false,1
0101000020E6100000DB4DA4E525E862406B0E188821643DC0,All Times,-29.3911366518718,151.254626103312,Pindari Dam,Inverell Shire Council,02 6728 8288,Pindari Dam Road,Pindaroi ,Pindari Dam,NSW,2361,175,GOOD,Concrete,true,false,false,false,true,false,false,false,1
0101000020E6100000C63D348BD8886240F822C7C753BC41C0,All Times,-35.4713067743632,148.276433565172,Hume's Crossing Boat Ramp,National Parks And Wildlife Services,1300 072 757,Snowy Mountains Highway,Blowering,Blowering Dam,NSW,2720,176,GOOD,Concrete,true,false,false,false,true,false,false,false,2
0101000020E61000005C8A4039DE1862400D2A0CC2A41042C0,All Times,-36.1300280150791,144.777126909309,Echuca East Boat Ramp,Shire Of Campaspe,03 5481 2200,Goulburn Road,Echuca East,Murray River,NSW,3564,177,GOOD,Concrete,false,false,false,false,false,false,false,false,1
0101000020E61000006660A00C9B2C63402D14F7E2E1023DC0,All Times,-29.0112592557163,153.393926919208,Riley's Hill Dry Dock,TBD,TBD,Riley's Hill Dock Road,Riley's Hill,Richmond River,NSW,2472,178,POOR,Concrete,false,false,false,false,false,false,false,false,1
0101000020E61000002774ACF672E362404CC33659270641C0,All Times,-34.0480758206746,151.107783638786,Yowie Bay Boat Ramp,Sutherland Shire Council,02 9710 0333,Wonga Road,Yowie Bay,Port Hacking,NSW,2228,179,GOOD,Concrete,false,false,false,true,false,true,false,true,2
0101000020E61000002A25B21B112663404750389CE32B3EC0,All Times,-30.1714418065533,153.189588401737,Emerald Beach,Coffs Harbour City Council,02 6648 4000,Fiddaman Road,Emerald Beach,Ocean,NSW,2456,180,POOR,Concrete,true,false,true,false,true,false,false,false,1
0101000020E6100000EFC1F2B31B52624040801143B76041C0,All Times,-34.7555927119688,146.56588170446,Lake Talbot,Narrandera Shire Council,02 6959 5510,Gordon Street,Narrandera,Bundidgerry Creek,NSW,2700,181,GOOD,Concrete,false,false,false,true,true,false,false,false,1
0101000020E610000075523A048EC462403311910E0FD341C0,All Times,-35.6488970001541,150.142336000357,West Bridge Boat Ramp (Wharf Street),Eurobodalla Shire Council,02 4474 1000,Wharf Street,Nelligen,Clyde River,NSW,2536,182,GOOD,Concrete,false,false,true,true,true,true,true,true,2
0101000020E6100000C373186D30296340107BB652E2FB3CC0,All Times,-28.9839221663961,153.287161395796,Coraki Boat Ramp,Richmond Valley Council,02 6660 0300,Richmond Terrace,Coraki,Richmond River,NSW,2471,183,FAIR,Bitumen,false,false,false,false,true,true,false,false,1
0101000020E6100000A8B47D1F0EF26140A07A84A790AB41C0,Passive Craft Only,-35.3403520008917,143.564224000472,"Canoe Steps, Riverside Park, Swan Hill",Swan Hill Rural City Council,03 5036 2333,Monash Drive,Swan Hill,Murray River,NSW,3585,184,GOOD,Timber,true,false,true,true,true,true,false,false,0
0101000020E610000058966BD1341C63401091E163570A3FC0,All Times,-31.0403959680271,152.881447515613,Pola Creek Boat Ramp,Kempsey Shire Council,02 6566 3200,Frederickton Ferry Road ,"Frederickton
",Macleay River,NSW,2440,185,POOR,Unsealed,false,false,false,false,false,false,false,false,1
0101000020E6100000DFB2573245266340C5BAAF2037753DC0,All Times,-29.4578724316623,153.195946856772,Maclean Court House,Clarence Valley Council,02 6643 0200,McNaughton Place,Maclean,Clarence River,NSW,2463,186,GOOD,Concrete,false,false,false,true,false,true,false,true,2
0101000020E61000000F97FB5212F96240E1F441F37D4A40C0,All Times,-32.5819686958364,151.783486834895,Bridge Reserve Boat Ramp,Dungog Shire Council,02 4995 7777,Durham Street,Clarence Town,Williams River,NSW,2321,187,FAIR,Concrete,true,false,false,false,true,true,true,true,1
0101000020E6100000A42B39FBD8106340C3CCDF62A82A40C0,All Times,-32.3332637398503,152.526486980115,Pacific Palms Boat Ramp - Wallis Lake,Great Lakes Council,02 6591 7222,Lakes Way Way,Pacific Palms,Wallis Lake,NSW,2428,188,GOOD,Concrete,false,false,false,false,false,false,true,false,2
0101000020E6100000A745F75E72DA6240A99F458B844041C0,All Times,-34.5040449228248,150.826461298898,Lake Illawarra - Kanahooka,Wollongong City Council,02 4227 7111,Kanahooka Road,Kanahooka,Lake Illawarra,NSW,2530,189,POOR,Concrete,false,false,false,true,true,true,true,false,2
0101000020E6100000DD628F097AEB6240E3FB10D848BE40C0,All Times,-33.4865980227403,151.358647136737,Davistown Boat Ramp - Restella Avenue,Gosford City Council,02 4325 8222,Restella Avenue,Davistown,Brisbane Water,NSW,2251,190,GOOD,Concrete,false,false,false,true,true,false,true,false,1
0101000020E61000001D97C079819262401B4941C5E88B3DC0,Shallow At Times,-29.546520546378,148.578305126336,Collarenebri Boat Ramp,Walgatt Shire Council,02 6828 1399,Walgett Street,Collarenebri,Barwon River,NSW,2833,191,GOOD,Concrete,true,false,false,false,false,true,false,true,1
0101000020E6100000BD64F3CC7EDB6240D39C244EA6C840C0,All Times,-33.5675752333424,150.859228587511,Pitt Town Boat Ramp,Hawkesbury City Council,02 4560 4444,Punt Road,Pitt Town,Hawkesbury River,NSW,2756,192,FAIR,Unsealed,false,false,false,false,false,false,false,false,1
0101000020E61000004A0C91E7F3016340AACE0096DA5440C0,All Times,-32.6629207138006,152.061023505494,Bundabah Boat Ramp,Great Lakes Council,02 6591 7222,Bundabah Road,Bundabah,Port Stephens,NSW,2324,193,FAIR,Concrete,false,false,false,false,false,false,false,false,1
0101000020E610000054381668F7E762407A7E63307FE340C0,Monday - Sunday: 7:00-20:30,-33.7773190007983,151.24895099964,Manly Dam - Section 3 (Part of Manly Warringah War Memorial Park) - Non motorised boats only unless authorised by Waterskiing Association,Warringah Council,02 9942 2111,King Street,Manly Vale,Manly Dam,NSW,2093,194,GOOD,Timber,true,true,false,false,true,true,false,false,1
0101000020E610000058DA435607E762406C10FB71A9E840C0,All Times,-33.8176710582637,151.219645626569,Tunks Park,North Sydney Council,02 9936 8100,Brothers Avenue,Cammeray,Middle Harbour,NSW,2062,195,GOOD,Concrete,false,false,false,true,true,false,true,true,2
0101000020E61000008EB2871E88D861408DBB354D084A41C0,All Times,-34.5783783447615,142.766616120371,Robinvale Bridge - Murray River Vic,Swan Hill Rural City Council,03 5036 2333,Robinvale,Robinvale,Murray River,NSW,3549,197,GOOD,Concrete,false,false,false,false,false,false,false,false,1
0101000020E6100000AC9444E329EA6240AAEA62872ECD40C0,All Times,-33.6029824479095,151.317613252589,Sand Point Boat Ramp,Pittwater Council,02 9970 1111,Sand Point Lane,Palm Beach,Pittwater  ,NSW,2108,198,FAIR,Bitumen,false,false,false,false,true,false,false,false,2
0101000020E6100000EAD5818ADDEA6240CA34642445B740C0,All Times,-33.4317975510872,151.339543584428,Gosford Breakwall (Iguana Joes) Boat Ramp,Gosford City Council,02 4325 8222,Dane Drive,Gosford,The Broad Water (Brisbane Water),NSW,2250,199,FAIR,Concrete,false,false,false,true,true,false,true,false,1
0101000020E6100000679A90C5CF1F62407F47C988D6C541C0,Shallow At Times,-35.5456095679101,144.994112760952,Twin Rivers,Deniliquin Council,03 5898 3000,Riverina Highway,Deniliquin,Edward River,NSW,2710,200,GOOD,Concrete,false,false,false,false,false,false,false,false,1
0101000020E6100000ED914659B6E962406254A2CB98BF40C0,All Times,-33.4968504469514,151.303509366829,Woy Woy South Boat Ramp ,Gosford City Council,02 4325 8222,Woy Woy Road,Woy Woy,Brisbane Water,NSW,2256,201,POOR,Concrete,false,false,false,false,true,true,false,false,1
0101000020E6100000E6063C6961EF61405C67040F0C9C41C0,Shallow At Times,-35.2191180011275,143.480641000023,"Oswin Road, Beverford",Swan Hill Rural City Council,03 5036 2333,Oswin Road,Beverford,Murray River,NSW,3590,202,FAIR,Sand,false,false,false,false,false,false,false,false,2
0101000020E6100000EB1A42959A2063404B83F071A6A53EC0,All Times,-30.647071000308,153.018869999992,Shelly Beach Ocean Ramp,Nambucca Shire Council,02 6568 2555,Shelley Beach Road,Nambucca Heads,Tasman Sea,NSW,2448,203,POOR,Concrete,true,false,false,false,true,true,false,false,2
0101000020E610000009F3675AE2D962400620044A434341C0,All Times,-34.5254910011427,150.80888099959,Lake Illawarra - Tallawarra,NSW Crown Lands,1300 886 235,Yallah Bay Road,Yallaj ,Lake Illawarra,NSW,2530,204,FAIR,Concrete,false,false,false,false,false,false,false,false,1
0101000020E6100000B6E74B4A74056340F073E37FBD5F40C0,Shallow At Times,-32.7479705677614,152.170445583584,Fingal Bay Boat Ramp,Port Stephens Council,02 4980 0255,Marine Drive,Fingal Bay,Port Stephens / Ocean,NSW,2315,205,FAIR,Sand,false,false,false,false,true,false,false,false,1
0101000020E6100000B06CF7ECD7DF624027419FBB842D40C0,All Times,-32.3556131866083,150.995108111621,Lake Liddell - Upper Hunter River,Lake Liddell Recreatonal Area Trust,02 6541 2010,Hebden Road,Muswellbrook ,Lake Liddell,NSW,2333,206,GOOD,Concrete,true,true,false,true,true,false,false,false,2
0101000020E6100000CA9AEE4A170563404D19FC72195540C0,All Times,-32.6648391467048,152.159093347573,Marine Drive Boat Ramp,Great Lakes Council,02 6591 7222,Marine Drive,Tea Gardens,Myall River,NSW,2324,207,FAIR,Concrete,false,false,false,true,false,false,true,false,1
0101000020E610000004B77F684E156340DA61CAE3ACE43FC0,All Times,-31.8932630890939,152.665821313327,Manning Point,Greater Taree City Council,02 6592 5399,Main Road,Manning Point,Manning River,NSW,2430,208,POOR,Concrete,true,false,true,true,true,true,true,false,1
0101000020E6100000F63F33AC51236340055A38B12B603EC0,All Times,-30.3756666910722,153.103719806764,Sawtell Beach Ocean Ramp,Coffs Harbour City Council,02 6648 4000,Boronia Street,Sawtell,Tasman Sea,NSW,2452,209,FAIR,Concrete,false,false,false,true,false,true,false,false,1
0101000020E6100000F88F476005F2624028DA6254869E40C0,All Times,-33.2384744150807,151.563156261225,Budgewoi Bridge - East (Slade Reserve),Wyong Shire Council,02 4350 5555,Central Coast Highway,Budgewoi,Budgewoi Creek,NSW,2262,210,FAIR,Unsealed,true,false,false,false,true,false,false,false,1
0101000020E61000002F2AB775EB1763404418639CD5733FC0,All Times,-31.4524781934672,152.747492654556,Rocks Ferry Reserve Boat Ramp,Port Macquarie Hastings Council,02 6581 8111,Rocks Ferry Road,Wauchope,Hastings River,NSW,2446,211,GOOD,Concrete,true,false,false,true,true,true,false,false,2
0101000020E6100000D5660FB8CEF2624079E841D7E48840C0,All Times,-33.0694836685006,151.5877342511,Wangi Wangi,Lake Macquarie City Council,02 4921 0333,Kent Place,Wangi Wangi,Lake Macquarie,NSW,2267,212,GOOD,Concrete,false,false,false,true,true,true,true,false,1
0101000020E61000000FF4ED250DE862402B5E7D0052E740C0,All Times,-33.8071899997852,151.25160500026,Clontarf Reserve Boat Ramp,Manly Council,02 9976 1500,Sandy Bay Road,Clontarf,Sydney Harbour,NSW,2093,213,FAIR,Sand,false,false,false,false,true,false,false,false,1
0101000020E6100000730ABB287A1963403528ED20AF533FC0,All Times,-31.326891000652,152.796162000002,Mooney Street Boat Ramp,Port Macquarie Hastings Council,02 6581 8111,Mooney Street,Telegraph Point,Wilson River,NSW,2441,214,POOR,Not Provided,false,false,false,false,false,false,false,false,1
0101000020E61000000633C64CFCCC62409D03053A29B841C0,All Times,-35.4387581371768,150.405798327549,Tabourie Lake,Shoalhaven City Council,02 4429 3111,Via Princes Highway,Tabourie ,Tabourie Lake,NSW,2539,215,GOOD,Concrete,false,false,false,false,true,false,false,false,1
0101000020E6100000C7280EA6221363409234D2A716E03FC0,Shallow At Times,-31.8753456962773,152.597979571967,Croki Boat Ramp,Greater Taree City Council,02 6592 5399,Ferry Road,Croki,Manning River,NSW,2430,216,POOR,Concrete,false,false,false,false,false,false,false,false,1
0101000020E610000030306C5DB81A634072AB0A26D1673FC0,Shallow At Times,-31.4055351043748,152.835005484872,Oakes Crescent Boat Ramp,Port Macquarie Hastings Council,02 6581 8111,Oakes Cresent,Fernbank Creek,Hastings River,NSW,2444,217,FAIR,Concrete,false,false,false,false,false,false,false,false,1
0101000020E610000013DC338703DD6240B7109A77D83541C0,High Tide Only,-34.4206685545227,150.90668068055,Wollongong Harbour,Wollongong City Council,02 4227 7111,Endeavor Drive,Wollongong,Tasman Sea,NSW,2500,218,GOOD,Concrete,false,false,true,true,false,true,false,false,1
0101000020E6100000C62F12DF7705634000837B05E55540C0,All Times,-32.6710516789517,152.170882735749,Hawks Nest - Moira Parade Boat Ramp,Great Lakes Council,02 6591 7222,Moira Parade,Hawks Nest,Myall River,NSW,2324,219,FAIR,Concrete,true,false,false,true,true,true,true,true,2
0101000020E61000007E483F1F5A2B6340CC8EFC72B8693DC0,All Times,-29.4129707209202,153.354751227951,Iluka Boat Ramp,Clarence Valley Council,02 6643 0200,Crown Street,Iluka,Clarence River (Iluka Bay),NSW,2466,220,GOOD,Concrete,true,false,true,true,true,true,false,false,1
0101000020E6100000248C7A2A0E326240FBBC0DC418E841C0,All Times,-35.8132557932931,145.564229239798,Tocumwal Boat Ramp (New),Berrigan Shire Council,03 5888 5100,Hennessy Road,Tocumwal,Murray River,NSW,2714,221,GOOD,Concrete,false,false,false,true,false,false,false,true,1
0101000020E6100000A97BE3DC50136240443DC2786D0542C0,All Times,-36.0424033115801,144.603620952895,Farleys Road,Parks Victoria,13 1963 ,Farleys Road,Torrumbarry,Murray River,VIC,3526,222,POOR,Unsealed,false,false,false,false,false,false,false,false,1
0101000020E61000000337EDD94DBC624034E0AB59F98942C0,All Times,-37.0779220666158,149.884503329573,Quarantine Bay Boat Ramp,Bega Valley Shire Council,02 6499 2222,Quarantine Bay Road,Eden,Twofold Bay (Ocean),NSW,2551,223,GOOD,Concrete,false,false,false,true,true,true,true,false,3
0101000020E6100000701DDA76FD2A63404856BB59256F3DC0,All Times,-29.4341636736265,153.343440462118,"Yamba Rd Boat Ramp, (opp Golding St)",Clarence Valley Council,02 6643 0200,Yamba Road,Yamba,Clarence River (Yamba Bay),NSW,2464,224,GOOD,Concrete,false,false,true,true,true,true,true,false,2
0101000020E6100000FD1D46664FCE6240DAC11745D8B041C0,Shallow At Times,-35.3816000333788,150.447192322681,"Northern Boat Ramp, Burrill Lake",Shoalhaven City Council,02 4429 3111,Via Princes Highway,Burrill Lake,Burrill Lake,NSW,2539,225,FAIR,Concrete,false,false,false,true,false,false,false,false,1
0101000020E61000001A5028D3E8C362402F5FCF81E51A42C0,Shallow At Times,-36.210128999954,150.122171000229,North Narooma Boat Ramp,Eurobidalla Shire Council,02 6499 2222,Princes Highway,Narooma,Wagonga Inlet,NSW,2546,226,FAIR,Sand,false,false,false,false,false,false,false,false,1
0101000020E61000001E5868DF4D016340FDE0635F7F5E40C0,All Times,-32.7382621038141,152.040755943105,Lemon Tree Passage,Port Stephens Council,02 4980 0255,Beachroad,Port Stephens,Lemon Tree Passage Port Stephens,NSW,2319,227,POOR,Bitumen,false,false,false,false,false,false,false,false,1
0101000020E610000019BB3AB9D4D76140B705DC0C4A4A41C0,All Times,-34.5803848337486,142.744717230519,Euston Boat Ramp (Euston Club) - Murray River,Balranald Shire Council,03 5020 1300,Murray Terrace,Euston,Murray River,NSW,2737,228,GOOD,Concrete,false,false,false,false,false,false,false,false,2
0101000020E610000056CB33A234E9624010AE5D02F0DB40C0,All Times,-33.7182620007917,151.287675000344,Jamieson Park,Warringah Council,02 9942 2111,The Esplanade,Narrabeen,Narrabeen Lagoon,NSW,2101,229,GOOD,Asphalt,true,true,true,false,true,true,false,false,1
0101000020E6100000E0BBCF653DCE6240B7845B3D72B141C0,All Times,-35.3862988182895,150.44499483655,Maria Avenue Boat Ramp,Shoalhaven City Council,02 4429 3111,Maria Avenue,Burrill Lake,Burrill Lake,NSW,2539,230,FAIR,Concrete,false,false,false,false,false,true,false,true,2
0101000020E6100000E17EC4847922634062EBF82E59913DC0,All Times,-29.5677670819963,153.077333816319,Brushgrove Boat Ramp,TBD,TBD,Inmon Lane,Brushgrove,Clarence River (South Arm),NSW,2460,231,POOR,Not Provided,false,false,false,false,false,false,false,false,1
0101000020E6100000AD35D98EBAEA6240777853E206BE40C0,All Times,-33.4845850856372,151.335273193586,Lions Park Western Boat Ramp,Gosford City Council,02 4325 8222,North Burge Road,Woy Woy,Brisbane Water,NSW,2256,232,GOOD,Concrete,false,false,false,true,true,false,false,true,2
0101000020E610000062DBA403131F6340B40D85921A503FC0,All Times,-31.3129054617727,152.971071073519,Point Plomer (Offshore),National Parks And Wildlife Services,1300 072 757,Point Plomer Road,Limeburners Creek,South Pacific Ocean,NSW,2324,233,GOOD,Concrete,true,false,false,false,true,false,false,false,1
0101000020E610000015B8541CBAE962404F53D605B8D440C0,Shallow At Times,-33.6618659302245,151.303968587367,Rowland Reserve,Pittwater Council,02 9970 1111,Pittwater Road,Bayview,Pittwater / Hawkesbury River Broken Bay,NSW,2104,234,GOOD,Concrete,false,true,false,true,true,true,true,false,6
0101000020E610000028190FF24CEB6240EA07AED60BBE40C0,All Times,-33.4847362851868,151.353142766465,Lintern Street Boat Ramp,Gosford City Council,02 4325 8222,Lintern Street,Davistown,Brisbane Water,NSW,2251,235,GOOD,Concrete,false,false,false,true,false,false,false,false,2
0101000020E6100000581F08B69CF76240BFA03AE1A06140C0,All Times,-32.7627221618909,151.737879768242,"Riverside Park Boat Ramp, Raymond Terrace ",Port Stephens Council,02 4980 0255,Hunter Street,Raymond Terrace,Hunter River,NSW,2324,236,FAIR,Concrete,false,false,false,false,false,false,false,false,1
0101000020E61000002DF58775CB1D6340F7C0233478B13DC0,All Times,-29.6932404124536,152.931086316626,Crown Hotel Boat Ramp,Clarence Valley Council,02 6643 0200,Prince Street,Grafton,Clarence River,NSW,2460,237,GOOD,Concrete,false,false,true,true,true,true,true,true,1
0101000020E61000005657038FFCDE62405889AF671DF740C0,All Times,-33.930584870063,150.968329912687,Davy Robinson Reserve Boat Ramp ,Liverpool City Council,02 9821 9222,Davy Robinson Drive,Moorebank,Georges River,NSW,2170,238,GOOD,Concrete,false,false,false,true,true,true,true,true,2
0101000020E61000004D1F820C254C62407F9D10E0D7A540C0,Shallow At Times,-33.2956504899148,146.37952256598,Lake Cargelligo (Bogan Street),TBD,TBD,Bogan Street,Lake Cargelligo,Lake Cargelligo,NSW,2672,239,GOOD,Concrete,true,false,false,true,false,true,false,false,1
0101000020E6100000635ABFDE366362406A067800C78940C0,Shallow At Times,-33.0763855539379,147.100448011147,Gum Bend Lake Boat Ramp,Lachlan Shire Council,02 6895 1900,Gum Bend Road,Condobolin,Gum Bend Lake,NSW,2877,240,GOOD,Concrete,true,false,false,true,true,true,true,false,1
0101000020E6100000FAE9E1F3CAF16240A4B90FEF709D40C0,Shallow At Times,-33.2300089670928,151.556024495352,Budgewoi - Sailing Club,Wyong Shire Council,02 4350 5555,Noela Place,Budgewoi,Lake Munmorah,NSW,2262,241,FAIR,Unsealed,false,false,false,false,true,false,false,false,1
0101000020E610000053627061A4F16240573011B3088C40C0,All Times,-33.094015487092,151.551315993786,Balcolyn Hall Reserve Boat Ramp,Lake Macquarie City Council,02 4921 0333,Balcolyn Street,Balcolyn,Lake Macquarie,NSW,2264,242,GOOD,Concrete,false,false,false,true,true,true,false,false,2
0101000020E61000008DC3934EA4F16240BDA29A0F088C40C0,All Times,-33.0939960007722,151.55130699978,Balcolyn Reserve,Lake Macquarie City Council,02 4921 0333,Balcolyn Street,Balcolyn,Lake Macquarie,NSW,2264,243,FAIR,Concrete,true,false,false,false,true,true,false,false,1
0101000020E61000004529932269F46240553CFE9F8E8940C0,All Times,-33.0746650687585,151.637833869385,Thomas Humphries Reserve Boat Ramp,Lake Macquarie City Council,02 4921 0333,Wallarah Street,Swansea,Lake Macquarie,NSW,2281,244,GOOD,Concrete,false,false,false,true,true,true,false,false,3
0101000020E61000004F0CE3B19EDA6240FD5298881A6041C0,All Times,-34.7508097404261,150.831871932462,Cook Park Boat Ramp,The Council Of The Municipality Of Kiama,02 4232 0444,Jupiter Street,Gerringong,Ocean,NSW,2534,245,GOOD,Concrete,false,false,false,true,false,true,false,false,2
0101000020E6100000E270451448B462404EDD5C6D2AC840C0,Shallow At Times,-33.5637947753372,149.633798728587,Ben Chifley Dam Boat Ramp,Bathurst Regional Council,02 6333 6111,Chifley Dam Road,The Lagoon,Chifley Dam,NSW,2795,246,GOOD,Concrete,true,false,false,true,true,true,false,false,1
0101000020E6100000EFB094C5BE8C6240829F4FCA39F43EC0,Shallow At Times,-30.9540068096535,148.398287573254,Warrana Weir,Coonamble Shire Council,02 6827 1900,Weir road,Coonamble,Warrana Weir,NSW,2829,247,GOOD,Concrete,true,true,false,false,true,false,false,false,2
0101000020E61000007FFFADF625E46240307B00ED800841C0,All Times,-34.0664345028257,151.1296342276,Wally's Wharf - Dolans Bay,Sutherland Shire Council,02 9710 0333,Port Hacking Road,Dolans Bay,Port Hacking,NSW,2229,248,GOOD,Concrete,false,false,false,true,true,true,true,true,2
0101000020E6100000EED6053F1219634034031C4E4F973DC0,All Times,-29.5910538500204,152.783477317243,Copmanhurst Boat Ramp ,Clarence Valley Council,02 6643 0200,Lawrence Street,Copmanhurst,Clarence River,NSW,2460,249,POOR,Not Provided,false,false,false,false,false,false,false,false,1
0101000020E6100000518215A3811E63408E7F398C9EAD3DC0,All Times,-29.6782004967095,152.953324834833,Kirchner Street Boat Ramp,Clarence Valley Council,02 6643 0200,Kirchner Street,Grafton,Clarence River,NSW,2460,250,GOOD,Not Provided,true,false,false,true,true,false,false,false,2
0101000020E6100000E97E93B9930A6340E2E46A46541B40C0,All Times,-32.2135093709892,152.330532825544,Cooloongolook Cedar Wharf - Cooloongolook River,Great Lakes Council,02 6591 7222,Mimi Street ,Cooloongolook,Cooloongolook River,NSW,2423,251,FAIR,Unsealed,false,false,false,false,false,true,true,false,1
0101000020E6100000E1FD29128D416240E7BFF85F690042C0,All Times,-36.0032157864187,146.048470575347,Woodlands Ramp,TBD,TBD,Hogans Road,Yarrawonga,Lake Mulwala,VIC,2850,252,GOOD,Concrete,true,false,false,false,false,false,false,false,2
0101000020E6100000DA56A9108FF16240B6B34249818B40C0,All Times,-33.0898830009168,151.548713999501,Balcolyn Boat Ramp,Lake Macquarie City Council,02 4921 0333,Queen Street,Balcolyn,Lake Macquarie,NSW,2264,253,FAIR,Concrete,true,false,false,false,true,true,false,false,1
0101000020E6100000298C5733240F634099C4492E1C1E40C0,All Times,-32.2352350101657,152.473169013015,Coomba Park Boat Ramp,Great Lakes Council,02 6591 7222,Coomba Road,Coomba Park,Wallis Lake,NSW,2428,254,FAIR,Concrete,true,false,false,true,true,true,true,false,1
0101000020E610000086B1898EFD2063403E469D2D1BED3EC0,All Times,-30.926195956132,153.030951756413,"Jerseyville Boat Ramp",Kempsey Shire Council,02 6566 3200,"Plummers Lane","Jerseyville
",Macleay River,NSW,2431,255,GOOD,Concrete,false,false,false,false,true,true,false,false,1
0101000020E6100000DCFC96E08C2A634010E19F1604743DC0,Shallow At Times,-29.4531873836832,153.32969693651,Carrs Drive Boat Ramp ,TBD,TBD,Carrs Drive,Wooloweyah,Oyster Channel (Wooloweyah Lagoon),NSW,2464,256,POOR,Unsealed,false,false,false,false,false,false,false,false,1
0101000020E610000022A82BBA3DE262405B1D001FE5FF40C0,High Tide Only,-33.999179720932,151.070035062091,Scylla Bay Boat Ramp ,Sutherland Shire Council,02 9710 0333,Verona Range,Como,Georges River,NSW,2226,257,FAIR,Bitumen,false,false,false,true,false,false,true,false,1
0101000020E6100000E7BC6756770A6340F743C56E5A3C40C0,All Times,-32.471509786912,152.32706756841,Violet Hill,National Parks And Wildlife Services,1300 072 757,Violet Hill Road,Buladelah,Boolambayte Lake,NSW,2423,258,GOOD,Concrete,false,true,false,false,true,true,false,false,2
0101000020E610000033E6BB1C5E5E62401BB4C0BDBC0C42C0,Shallow At Times,-36.0995099249778,146.948988310805,Mungabareena Reserve Boat Ramp ,Albury City Council,02 6023 8111,Doctors Point Road,East Albury,Murray River,NSW,2640,259,GOOD,Concrete,false,false,false,false,false,false,false,false,2
0101000020E6100000B584A34174D86240F861B9FFC17741C0,Shallow At Times,-34.9356078772725,150.764191455242,West Cresent Boat Ramp,Shoalhaven City Council,02 4429 3111,West Crescent,Culburra Beach,Wollumboola Lake,NSW,2540,260,POOR,Unsealed,true,false,false,false,true,true,false,false,1
0101000020E6100000DFAE1DCDC7BC61405724023CFC0D41C0,All Times,-34.1092600832423,141.899389799094,"Wentworth 1 (Lock), Murray River",Wentworth Shire Council,03 5027 5027,Log Bridge Road,Wentworth,Murray River,NSW,2648,261,GOOD,Concrete,false,false,false,false,false,true,false,false,1
0101000020E61000004A9C68CF22206340CCE942D7957B3EC0,Shallow At Times,-30.4827551401484,153.004249290769,Kalang River Boat Ramp,Bellingen Shire Council,02 6655 7300,Pacific Highway,Urunga,Kalang River,NSW,2455,262,POOR,Unsealed,false,false,false,false,false,false,false,false,1
0101000020E6100000E25FE2E724F96240897C03B7307340C0,All Times,-32.8999241606735,151.785755102289,Stockton North,Newcastle City Council,02 4974 2000,Booth Street,Stockton,Hunter River,NSW,2295,263,GOOD,Concrete,false,false,false,true,true,true,true,true,2
0101000020E610000078AC92E08BF46240BF3809BD008940C0,All Times,-33.0703350348499,151.642074858162,Pelican,Lake Macquarie City Council,02 4921 0333,Lakeview Street,Pelican,Lake Macquarie,NSW,2281,264,GOOD,Concrete,true,false,false,true,true,true,false,false,2
0101000020E6100000494FC75AC3C2614099019FC4381641C0,All Times,-34.1736074234388,142.086346997525,Merbein - Murray River Vic,Mildura Rural City Council,03 5020 1300,River Road,Merbein,Murray River,VIC,3505,265,GOOD,Concrete,false,false,false,false,true,false,false,false,1
0101000020E61000009CE791A3FD0163401A2AEC45835940C0,All Times,-32.699318638148,152.062211785288,Soldiers Point,Port Stephens Council,02 4980 0255,Mitchell Street,Soldiers Point,Port Stephens,NSW,2317,266,GOOD,Concrete,false,false,false,true,true,false,false,true,2
0101000020E6100000E99ACD531DF461408BB543EBE1B941C0,All Times,-35.4522070007907,143.628579999516,Lake Boga - Jacaranda Crescent,Swan Hill Rural City Council,03 5036 2333,Jacaranda Crescent,Lake Boga,Lake Boga,VIC,3584,267,GOOD,Concrete,true,false,false,false,false,true,true,false,1
0101000020E61000002D01F792C61F63401243012505DE3EC0,Shallow At Times,-30.867265999611,152.992990000182,"Fishermans Reach Boat Ramp",Kempsey Shire Council,02 6566 3200,"Fishermans Reach Road","Fishermans Reach
",Macleay River,NSW,2441,268,FAIR,Concrete,false,false,false,false,false,false,false,false,1
0101000020E61000002FB65160409A624073C67BFA2C1242C0,Shallow At Times,-36.1419976333972,148.820358428567,Frying Pan Road Boat Ramp,Snowy River Shire Council,02 6451 1195,Fryingpan Creek Road,Fryingpan,Lake Eucumbene,NSW,2630,269,FAIR,Unsealed,false,false,true,false,true,false,false,false,Informal
0101000020E6100000F7D53ED54F1D634028F1A7A7BEB43EC0,All Times,-30.7060341629996,152.915995238043,Tilly Willy Creek. Macksville,Nambucca Shire Council,02 6568 2555,Mckay Street,Macksville,Tilly Willy Creek,NSW,2447,270,FAIR,Concrete,false,false,false,false,false,true,false,false,1
0101000020E61000005138ABA7A5E162404508AC3890E940C0,All Times,-33.824713787079,151.05147155229,Silverwater Park,Auburn City Council,02 9735 1222,Clyde Street,Silverwater,Parramatta River,NSW,2128,271,GOOD,Concrete,false,false,false,false,true,false,true,false,2
0101000020E61000005C4E45C37BFE6140F6047A077BC041C0,Shallow At Times,-35.5037545533941,143.952607760776,Murrabit (Gonns Crossing),Gannawarra Shire Councill,03 5450 9333,Moulamein Road,Murrabit,Murray River,VIC,3579,272,GOOD,Concrete,false,false,false,false,false,false,false,false,1
0101000020E61000007095FDF0E32563400B07D5BA27783DC0,All Times,-29.4693562288367,153.184074874192,Ilarwil Boat Ramp,Clarence Valley Council,02 6643 0200,Lawrence Road,Ilarwill,Clarence River,NSW,2463,273,POOR,Unsealed,false,false,false,false,false,false,false,false,1
0101000020E61000004D0D168574D16240D85A3E023F9A41C0,Shallow At Times,-35.2050478748767,150.545473616667,Berrara Creek Boat Ramp,Shoalhaven City Council,02 4429 3111,Lakeland Avenue,Berrara,Berrara Creek,NSW,2540,274,POOR,Sand,true,false,false,false,true,true,false,false,1
0101000020E61000001CEB8E47A5EB6240A40D791122BF40C0,All Times,-33.493227180584,151.363925723207,Empire Bay Boat Ramp,Gosford City Council,02 4325 8222,Kendall Road,Empire Bay,Brisbane Water,NSW,2257,275,GOOD,Concrete,false,false,false,true,false,false,true,false,1
0101000020E6100000406DCFFA4C116340B75151415B2A40C0,Shallow At Times,-32.3309098860804,152.540646939402,Elizabeth Beach Boat Ramp,National Parks And Wildlife Services,1300 072 757,Lakeside Crescent,Elizabeth Beach,Ocean,NSW,2428,276,POOR,Concrete,false,false,false,false,false,true,false,false,1
0101000020E610000066D073130525634054E5F7637A353EC0,All Times,-30.2088987808432,153.156869627189,Moonee Creek,Coffs Harbour City Council,02 6648 4000,Moonee Beach Road,Moonee Beach,Moonee Creek,NSW,2450,277,POOR,Bitumen,true,false,true,false,true,false,false,false,1
0101000020E610000087A9C8C417F9624018441A6AAE4B40C0,All Times,-32.5912602070095,151.784151451033,Durham Street Boat Ramp,Dungog Shire Council,02 4995 7777,Durham Street,Clarence Town,Williams River,NSW,2321,278,POOR,Not Provided,false,false,false,false,false,false,false,false,1
0101000020E61000008590F46F55CA62404C71848651D041C0,Shallow At Times,-35.6274879595463,150.322929361024,"Pebbly Beach, North Durras",Eurobodalla Shire Council,02 4429 3111,Deopt Beach Road,North Durras,Tasman Sea,NSW,2536,279,POOR,Sand,false,false,false,false,false,false,false,false,Informal
0101000020E6100000A37720E611F962401C0F211D0C7140C0,All Times,-32.8831821834012,151.783434928334,Stockton Bridge (West Side) Hunter River,Newcastle City Council,02 4974 2000,Greenleaf Road,Kooragang,Hunter River,NSW,2304,280,POOR,Concrete,false,false,false,true,false,false,false,false,1
0101000020E6100000044FE06C991963402B87367F820F3FC0,All Times,-31.0605849750638,152.799978674033,"Greenhill Boat Ramp",Kempsey Shire Council,02 6566 3200,"Greenhill Ferry Road
","Greenhill
",Macleay River,NSW,2440,281,POOR,Concrete,false,false,false,false,false,false,false,false,1
0101000020E6100000210B7A513BBE62404223625AD46342C0,Shallow At Times,-36.7799180010975,149.944740999571,Wallagoot Lake,National Parks And Wildlife Services,1300 072 757,Wallagoot Lake Road,Wallagoot,Wallagoot Lake,NSW,2550,282,POOR,Concrete,true,false,false,false,true,true,false,false,1
0101000020E6100000C10A6A84CDE46240D65C3B52170741C0,Mid to High Tide Only,-34.0553992071015,151.150087554086,Tonkin Park - Cronulla,Sutherland Shire Council,02 9710 0333,Tonkin St,Cronulla,Port Hacking,NSW,2230,283,FAIR,Concrete,false,false,false,true,true,true,false,false,1
0101000020E61000007FA3F75C751D6340289E93233BB43EC0,All Times,-30.7040273890872,152.920576556844,North Macksville Lions Park,Nambucca Shire Council,02 6568 2555,Ferry Street,Macksville,Nambucca River,NSW,2447,284,GOOD,Concrete,true,false,false,true,true,true,true,true,2
0101000020E6100000FA7D9960E3FF624071303E680F5D40C0,Shallow At Times,-32.7270326903971,151.996506023206,Tanilba Bay,Port Stephens Council,02 4980 0255,Peace Parade,Tanilba Bay,Port Stephens,NSW,2319,285,GOOD,Concrete,false,false,false,false,false,false,false,false,1
0101000020E61000004441012934EB6240401D38EC45C340C0,All Times,-33.5255713724132,151.350117208911,Pretty Beach Boat Ramp ,Gosford City Council,02 4325 8222,Araluen Drive,Pretty Beach,Brisbane Water,NSW,2257,286,GOOD,Concrete,false,false,false,true,false,false,true,true,1
0101000020E6100000CD1ED8855DD762403D84D02A126E41C0,Shallow At Times,-34.8599294202945,150.73016636096,Shoalhaven Heads - Hay Ave Ramp Shoalhaven River,Shoalhaven City Council,02 4429 3111,Hay Avenue,Shoalhaven Heads,Shoalhaven River,NSW,2535,287,FAIR,Concrete,false,false,false,false,true,true,false,false,1
0101000020E6100000C346325EC81C63403FE78D732D9E3DC0,Shallow At Times,-29.6178810330814,152.89945897884,"Seelands Boat Ramp
(Western Bank)",Clarence Valley Council,02 6643 0200,Old Punt Lane,The Whiteman,Clarence River,NSW,2460,288,POOR,Concrete,false,false,false,false,false,false,false,false,1
0101000020E6100000B6FF932DF9116340C5E452782C0140C0,Shallow At Times,-32.0091696171526,152.561667241154,"Saltwater Road, Khappinghat Ck Lagoon",National Parks And Wildlife Services,1300 072 757,Saltwater Road,Wallabi Point,Khappinghat Creek,NSW,2430,289,GOOD,Concrete,true,false,false,false,true,true,false,false,1
0101000020E6100000F428785690A36240C93A6F87135840C0,Shallow At Times,-32.6880959790338,149.111369356811,Lake Burrendong State Park - Second Ramp,Department of Primary Industries - State Parks,02 6846 7435,Fashions Mount Road,Lake Burrendong,Lake Burrendong,NSW,2820,290,GOOD,Concrete,true,true,true,false,true,true,false,false,1
0101000020E6100000E3042BFB74D76240803E8336226E41C0,All Times,-34.8604190960732,150.733029922506,Shoalhaven Heads - Wharf Rd Ramp Shoalhaven River,Shoalhaven City Council,02 4429 3111,Wharf Road,Nowra,Shoalhaven River,NSW,2541,291,FAIR,Concrete,false,false,false,true,true,true,true,false,2
0101000020E61000009A71AC29F2FE624053A571BF925340C0,All Times,-32.652915888301,151.96706088715,Karuah,Port Stephens Council,02 4980 0255,Bundabah Street,Karuah,Karuah River,NSW,2324,292,GOOD,Concrete,true,false,false,true,true,true,true,true,2
0101000020E61000001884CCCCCC186240FAF69FCDAA0F42C0,All Times,-36.122400000675,144.774999999471,Unnamed Road Reserve (off Dungula Way) - Murray River,Murray Shire Council (via Moama on the Murray Resort),,Dungula Way,Moama,Murray River,NSW,2731,293,GOOD,Concrete,false,false,false,false,false,false,false,false,1
0101000020E6100000B49AC78B64186340587BF28A4AA13FC0,All Times,-31.6300436822888,152.762273683407,"Lakewood Boat Ramp, Queens Lake",Port Macquarie Hastings Council,02 6581 8111,Sirius Drive,Lakewood,Queens Lake,NSW,2443,294,GOOD,Concrete,false,false,false,false,false,false,false,false,1
0101000020E6100000505BB53BA5F36240A83E0CEB1E9040C0,Shallow At Times,-33.1259435472287,151.613920072758,Cams Wharf Boat Ramp ,Lake Macquarie City Council,02 4921 0333,Cams Wharf Road,Cams Wharf,Lake Macquarie,NSW,2281,295,GOOD,Concrete,true,false,false,true,true,true,false,false,2
0101000020E61000005EE0BB35951A6340EFD632370A163FC0,All Times,-31.0860933779831,152.830714098879,"West Kempsey Boat Ramp",Kempsey Shire Council,02 6566 3200,"Kemp Street ",Kempsey,Macleay River,NSW,2440,296,POOR,Concrete,false,false,false,false,false,false,false,false,1
0101000020E6100000734BEC0889EE62405B8A941E872A40C0,Shallow At Times,-32.3322485184951,151.454227887643,Lostock Dam,State Water Corporation,1300 662 077,Paterson River Road,East Gresford,Lostock Dam,NSW,2311,297,POOR,Sand,true,false,true,false,true,true,false,false,1
0101000020E6100000D4FEB223E72D63404C257416CF4E3CC0,All Times,-28.3078474076804,153.434465264893,Condong Boat Ramp (Mcleod Street) ,Tweed Shire Council,02 6670 2400,Mcleod Street,Condong,Tweed River,NSW,2484,298,POOR,Bitumen,false,false,false,false,false,false,false,false,1
0101000020E6100000490338DDFEC36240D602650C9F1A42C0,All Times,-36.2079787724703,150.124861344719,"Mill Bay, Narooma",Eurobodalla Shire Council,02 6499 2222,Centenary Drive,Narooma,Narooma (Wagonga Inlet),NSW,2546,299,GOOD,Concrete,false,false,false,false,false,false,false,false,1
0101000020E61000004E587F821010634006E3E6BFF63140C0,Shallow At Times,-32.3903427007081,152.502015351029,Smiths Lake - De Bert Reserve Boat Ramp,Great Lakes Council,02 6591 7222,Amaroo Drive,Smiths Lake,Smiths Lake,NSW,2428,300,POOR,Concrete,true,false,true,false,true,true,false,false,1
0101000020E6100000BC77E7B688D76240A833ACC2F97341C0,All Times,-34.906059583743,150.735438778005,Greenwell Point Boat Ramp - Adelaide Street,Shoalhaven City Council,02 4429 3111,Adelaide Street,Greenwell Point,Crookhaven River,NSW,2540,301,GOOD,Concrete,true,false,true,true,true,true,true,true,2
0101000020E6100000FAA28DBFD6F26240BE321598788640C0,All Times,-33.0505552390582,151.588714386591,Secret Bay - Balmoral,Lake Macquarie City Council,02 4921 0333,Balmoral Place,Balmoral,Lake Macquarie,NSW,2283,302,GOOD,Concrete,false,false,false,true,false,true,true,false,1
0101000020E6100000B14D99263005634098CD0A68D05640C0,Shallow At Times,-32.6782350590467,152.162127780362,Winda Woppa Boat Ramp,Great Lakes Council,02 6591 7222,The Anchorage ,Winda Woppa,Myall River,NSW,2324,303,FAIR,Concrete,false,false,false,false,false,false,false,false,1
0101000020E6100000B4F1FC8D8D1062402627AE0780FF41C0,All Times,-35.9960946655613,144.517279619247,Headworks Road,Shire Of Campaspe, 03 5481 2200,Headworks Road,Torrumbarry,Murray River,VIC,3526,304,GOOD,Concrete,false,false,false,false,true,false,false,false,1
0101000020E61000009661E71C8BBC6240C920F0F8167242C0,Shallow At Times,-36.8913260624409,149.891981555859,Top Lake Boat Ramp,Bega Valley Shire Council,02 6499 2222,Lakewood Drive,Merimbula ,Merimbula Lake,NSW,2548,306,FAIR,Concrete,false,false,true,false,true,true,false,false,1
0101000020E6100000CF1BD99C480163407583F6DC6C5D40C0,All Times,-32.729884739273,152.040113853493,Henderson Park (Lemon Tree Passage) Boat Ramp,Port Stephens Council,02 4980 0255,Cook Parade,Lemon Tree Passage,"Lemon Tree Passage, Port Stephens",NSW,2319,307,GOOD,Concrete,true,false,true,true,true,true,true,true,2
0101000020E6100000F2F523F3252B6340BA1C1EEA8E633DC0,Shallow At Times,-29.3888994525448,153.348382539974,The Anchorage - Clarence River,TBD,TBD,Marandowie Drive,Iluka,Clarence River,NSW,2466,308,POOR,Unsealed,false,false,false,false,false,false,false,false,1
0101000020E610000021E88DD10CF26240B4122BC00E8E40C0,All Times,-33.1098251543348,151.564064767038,Sunshine,Lake Macquarie City Council,02 4921 0333,Sunshine Parade,Sunshine,Lake Macquarie,NSW,2264,309,GOOD,Concrete,false,false,false,true,true,true,false,false,1
0101000020E6100000E3FD17F9374062405C0E7568C4FE41C0,All Times,-35.9903688975871,146.006832644328,Inglis Street - NSW Side Lake Mulwala,Corowa Shire Council,03 5888 5100,Inglis Street,Mulwala,Lake Mulwala,NSW,2647,310,GOOD,Concrete,false,false,true,false,true,false,false,false,2
0101000020E610000041AECB2774896240A38CE97A13C541C0,All Times,-35.5396569862726,148.295429132284,Rest Area Boat Ramp,National Parks And Wildlife Services,1300 072 757,Snowy Mountains Highway,Blowering,Blowering Dam,NSW,2720,311,FAIR,Unsealed,true,false,false,false,true,false,false,false,1
0101000020E610000022CEEBE469E56240B12822DCDCEB40C0,Shallow At Times,-33.8426776091377,151.169176540906,"Margaret St, Woolwich",The Council Of The Municipality Of Hunters Hill,02 9879 9400,Margaret Street,Woolwich,Parramatta River,NSW,2110,312,GOOD,Concrete,false,false,false,false,false,false,false,true,2
0101000020E61000005BF5BED2A49762404F88414DE37241C0,All Times,-34.8975616998656,148.738870022741,"Woolgarlo Access Point, Lake Burrinjuck",TBD,TBD,Burrinjuck Road,Bowning,Lake Burrinjuck,NSW,2582,313,GOOD,Unsealed,false,false,true,false,true,true,false,false,1
0101000020E61000008C9A84FCE1DF624031B25D4D97FD40C0,All Times,-33.9811798770428,150.99633623027,Picnic Point,Bankstown City Council,02 9707 9999,Carinya Road,Picnic Point,Georges River,NSW,2213,314,FAIR,Concrete,false,false,false,true,false,true,false,true,1
0101000020E6100000BEB3238FAE7A624087B4DC14A6AF3FC0,Shallow At Times,-31.6861279524642,147.833808488589,Bottom Weir Boat Ramp,Warren Shire Council,02 6847 6600,Industrial Access Road,Warren,Macquarie River,NSW,2824,315,GOOD,Concrete,false,false,false,false,false,false,false,false,1
0101000020E6100000178C104886BC6140E1BB87246E0E41C0,All Times,-34.1127362883342,141.891391784972,Wentworth - Murray River NSW,Wentworth Angling Club,"03 5027 3097
",Log Bridge Road,Wentworth,Murray River,NSW,2648,316,GOOD,Concrete,false,false,false,false,true,false,false,false,1
0101000020E61000000E88F622B829634012D24D4477613DC0,All Times,-29.3807261171333,153.303727609164,Goodwood Island nr Wharf,TBD,TBD,Goodwood Island Road,Goodwood Island,Clarence River,NSW,2469,317,POOR,Unsealed,false,false,false,false,false,false,false,false,1
0101000020E61000009EE4E2417D1063402792ACE7F9E53FC0,All Times,-31.8983444973293,152.515290206099,Cundletown Boat Ramp (River Street) ,Greater Taree City Council,02 6592 5399,River Street,Cundletown,Manning River,NSW,2430,318,FAIR,Concrete,true,false,false,false,false,false,true,false,2
0101000020E6100000416C19E526E662407CB3DD69EB0041C0,Mid to High Tide Only,-34.0071842510724,151.192247914938,Bonna Point,Sutherland Shire Council,02 9710 0333,Prince Charles Parade,Kurnell,Botany Bay,NSW,2231,319,GOOD,Concrete,false,false,false,true,true,true,false,true,2
0101000020E6100000403C3AFBFF226340742649EAD5563EC0,High Tide Only,-30.3392015865888,153.093747724286,"Boambee Creek Boat Ramp
(Near The Link Centre)",Coffs Harbour City Council,02 6648 4000,Hogbin Drive,Toormina,Boambee Creek,NSW,2452,320,POOR,Concrete,false,false,false,false,false,true,false,false,1
0101000020E6100000A6503159F5F86240E04D5B4DA34B40C0,All Times,-32.5909210868665,151.779949756926,Wharf Reserve Boat Ramp (Williams River),Dungog Shire Council,02 4995 7777,Rifle Street,Clarence Town,Williams River,NSW,2321,321,GOOD,Concrete,false,false,false,false,true,false,false,true,1
0101000020E61000003AA4D7D3C2E36240BEBA85CC54FF40C0,All Times,-33.9947753575302,151.117532654929,Dover Park (Blakehurst) Boat Ramp,Kogarah City Council,02 9330 9400,Princes Highway,Blakehurst,Georges River,NSW,2221,322,GOOD,Concrete,false,false,false,false,true,true,true,true,2
0101000020E61000009E23BD45DE1F6340A6A5178687A73EC0,All Times,-30.6544116790516,152.995882863438,Stuart Island - Nambucca Heads,Namucca Shire Council,02 6568 2555,Riverside Drive,Nambucca Heads,Nambucca River,NSW,2448,323,GOOD,Concrete,true,false,false,true,true,true,true,false,2
0101000020E6100000A27F59097BD4624037CD4CBAA88E41C0,All Times,-35.1145241618164,150.640019106676,Sanctuary Point Boat Ramp (John Williams Reserve) ,Shoalhaven City Council,02 4429 3111,Sanctuary Point Road,Sanctuary Point Road,St Georges Basin,NSW,2540,324,POOR,Concrete,false,false,false,true,true,true,false,false,1
0101000020E61000000BEB396FCB176240E647B217620E42C0,All Times,-36.1123685474884,144.743583310243,Victoria Park,Shire Of Campaspe, 03 5481 2200,Scenic Drive,Echuca,Murray River,NSW,3564,325,FAIR,Concrete,false,false,false,false,true,true,false,false,2
0101000020E6100000BE0009C9F8CF624047881EB890A041C0,All Times,-35.254416479977,150.499119298538,Berringer Lake Boat Ramp,Shoalhaven City Council,02 4429 3111,Berringer Crescent,Berringer Lake,Berringer Lake,NSW,2539,326,POOR,Unsealed,true,false,false,false,false,false,false,false,1
0101000020E610000017CE80CD9DD5624024440760716C41C0,All Times,-34.8472099338035,150.675513030598,Boughton Creek Boat Ramp,Shoalhaven City Council,02 4429 3111,Back Forest Road,Back Forest,Broughton Creek,NSW,2535,327,GOOD,Unsealed,false,false,false,false,false,false,false,false,1
0101000020E61000003A64241008D06240B0046FB683A241C0,Shallow At Times,-35.269644550522,150.500984259679,Conjola Beach Boat Ramp,Shoalhaven City Council,02 4429 3111,Lake Conjola Entrance Road,Lake Conjola,Conjola Lake,NSW,2539,328,FAIR,Concrete,true,false,true,true,true,true,false,false,1
0101000020E610000039C2822C3ACF6240738AF9D0CBAD41C0,All Times,-35.3577824800931,150.475851302517,Ulladulla - South Harbour,Shoalhaven City Council,02 4429 3111,Vai Princes Highway,Ulladulla,Harbour,NSW,2539,329,GOOD,Concrete,false,false,true,true,true,true,false,true,2
0101000020E61000008F309EB909EA624063AAE7A90FBB40C0,All Times,-33.4614155179195,151.313687142338,Koolewong South Boat Ramp,Gosford City Council,02 4325 8222,Brisbane Water Drive,Koolewong,Brisbane Water,NSW,2256,330,GOOD,Concrete,false,false,false,true,false,false,true,false,1
0101000020E6100000CB1830F147F06240A8667636E49B40C0,Shallow At Times,-33.2179020002489,151.50878199953,Brundenell Avenue Boat Ramp,Wyong Shire Council,02 4350 5555,Brundenell Avenue,San Remo,Wallarah Creek,NSW,2262,331,POOR,Unsealed,false,false,false,false,false,false,false,false,1
0101000020E610000056B97A3E20F362409D868821F27F40C0,Shallow At Times,-32.9995767513876,151.597686042495,Fennell Bay Bridge Boat Ramp (Lions Park),Lake Macquarie City Council,02 4921 0333,Anzac Parade,Toronto,Lake Macquarie,NSW,2283,332,GOOD,Concrete,true,false,false,true,true,true,false,false,1
0101000020E61000006C1CD026222063407D325BA23FA53EC0,Shallow At Times,-30.6455022308969,153.004168898074,Gordon Park Nambucca Heads,Nambucca Shire Council,02 6568 2555,Wellington Drive,Nambucca Heads,Nambucca River,NSW,2448,333,GOOD,Concrete,true,false,false,true,true,true,false,false,2
0101000020E6100000D0CE8287020F63405EF390ADA00C40C0,All Times,-32.098653503205,152.46905875729,"Wallamba River - Shalimar Boat Ramp, Darawank",Great Lakes Council,02 6591 7222,Aquatic Road,Darawank,Wallamba River,NSW,2428,334,GOOD,Concrete,false,false,false,false,false,false,false,false,1
0101000020E61000009C1839FE3EE36240210244AE4FEA40C0,All Times,-33.8305566627571,151.101439582363,Kissing Point Park Boat Ramp,City Of Ryde Council,02 9952 8222,Delange Road,Putney,Parramatta River,NSW,2112,335,GOOD,Concrete,false,false,false,true,true,false,false,false,2
0101000020E6100000F85D14C082EE62402E3863AD82A940C0,All Times,-33.324300454566,151.453460731296,Chittaway Bay (East) Boat Ramp,Wyong Shire Council,02 4350 5555,Kalua Drive,Chittaway Bay,Ourimbah Creek / Tuggerah Lake,NSW,2261,336,GOOD,Unsealed,false,false,false,false,false,false,false,false,1
0101000020E610000059290139B9EF6240E2C68476E7A240C0,Shallow At Times,-33.2726886890721,151.491360189694,Wyongah (behind fire station),Wyong Shire Council,02 4350 5555,Oakland Street,Wyongah,Tuggerah Lake,NSW,2259,337,FAIR,Concrete,false,false,false,false,false,false,false,false,1
0101000020E6100000741B9B0B23D362402488D00D726E41C0,All Times,-34.8628556507322,150.598027995056,Greys Beach Boat Ramp,Shoalhaven City Council,02 4429 3111,Fairway Drive,Nowra,Shoalhaven River,NSW,2541,338,GOOD,Concrete,false,false,false,true,true,true,true,true,3
0101000020E61000006F4BB0CB29096340D5A16B16003D40C0,Shallow At Times,-32.4765651727245,152.28635200913,Korsemans,National Parks And Wildlife Services,1300 072 757,Korsmans Camproad,Bulahdelah,Two Mile Lake,NSW,2423,339,POOR,Unsealed,true,true,false,false,true,true,true,true,1
0101000020E61000005D4F88A00BF26140C0727F4E7CAA41C0,Shallow At Times,-35.3319185373598,143.56391932128,Swan Hill,Swan Hill Rural City Council,03 5036 2333,Milloo Street,Swan Hill,Murray River,NSW,3585,340,GOOD,Concrete,true,false,false,true,false,true,false,false,1
0101000020E61000000EA7D73EE40D6340D9C09F3892EA3FC0,All Times,-31.9162936582587,152.434111996838,Taree West - Manning Waters Estate,Greater Taree City Council,02 6592 5399,Petken Drive,Taree,Manning River,NSW,2430,341,POOR,Unsealed,false,false,false,false,false,false,false,false,1
0101000020E61000002830CA181F1A634092F6020F45A53FC0,All Times,-31.6455850012049,152.816296000384,Dunbogan Reserve Boat Ramp,Port Maquarie-Hastings Council,02 6581 8111,The Boulevarde,Dunbogan,Camden Haven Inlet,NSW,2443,342,FAIR,Concrete,true,false,false,true,true,true,false,false,2
0101000020E6100000E1CCD8A1E10663402E08737A3A4140C0,All Times,-32.5095971166305,152.215042994917,Nerong - Waterhen Park Boat Ramp,Great Lakes Council,02 6591 7222,Egret Street,Nerong,Bombah Broadwater,NSW,2423,343,FAIR,Concrete,true,false,false,false,true,true,true,true,1
0101000020E610000082C552FD00C662406A09790665EA41C0,Shallow At Times,-35.8312080470085,150.187620793975,"Tomakin, Tomago River",Eurobodalla Shire Council,02 4429 3111,Via George Bass Drive,Tomakin,Tomaga R,NSW,2537,344,GOOD,Concrete,false,false,false,false,true,false,false,false,1
0101000020E6100000B4062809E83F6240D434DDA44F0142C0,Shallow At Times,-36.0102430420026,145.997074678589,Yarrawonga Caravan Park - Vic Side,Moira Shire Council (Vic),03 5871 9222,Yarrawonga Road,Yarrawonga,Lake Mulwala,VIC,3730,345,FAIR,Concrete,true,false,true,true,true,false,false,false,2
0101000020E6100000EF034A3D8EE5624022E6C817F3E940C0,Shallow At Times,-33.8277311068489,151.173613209306,Woodford Bay,Lane Cove Municipal Council,02 9911 3555,Kellys Esplanade,Longueville,Sydney Harbour,NSW,2066,346,POOR,Unsealed,false,false,false,false,false,false,false,false,1
0101000020E610000042FDEBFEAD166340855D181BC8A13FC0,Shallow At Times,-31.6319596228109,152.708739720265,Kendall Boat Ramp,Port Macquarie-Hastings Council,0,Laurieton-Comboyneroad,Kendall,Camden Haven River,NSW,2439,347,FAIR,Concrete,false,false,false,false,false,true,false,false,1
0101000020E61000002040D9CD0C326240ABAC7B211DE841C0,All Times,-35.8133890012626,145.564063000028,Tocumwal Boat Ramp (Downstream),Berrigan Shire Council,03 5888 5100,Deniliquin Road,Tocumwal,Murray River,NSW,2714,348,FAIR,Concrete,false,false,false,true,true,false,false,true,2
0101000020E6100000F8FE25781C126340FFEE14C77DF13FC0,All Times,-31.9433254648311,152.565975259982,Bohnock Boat Ramp,Greater Taree City Council,02 6592 5399,Manning Point Road,Bohnock,Manning River,NSW,2430,349,FAIR,Concrete,false,false,false,true,false,true,true,false,2
0101000020E6100000AA6FE1C086C7624049AD2C6707DA41C0,Shallow At Times,-35.703350922408,150.235199394517,Long Beach Boat Ramp,Eurobodalla Shire Council,02 4429 3111,Bay Road,Long Beach,Batemans Bay,NSW,2536,350,FAIR,Sand,false,false,false,false,false,false,false,false,Informal
0101000020E6100000A72EF034E565624067C91853DE8E3FC0,Shallow At Times,-31.5580799041285,147.184229344469,Nyngan Boat Ramp - Bogan River,Warren Shire Council,02 6847 6600,Rotary Park,Nyngan,Bogan River,NSW,2825,351,GOOD,Concrete,false,false,false,false,true,true,false,false,1
0101000020E6100000007F39EB52E66240273A525B5AC440C0,All Times,-33.5340074683666,151.197621929452,Deerubbun Reserve,Gosford City Council,02 4325 8222,Peats Ferry Road,Mooney Mooney,Hawkesbury River,NSW,2083,352,GOOD,Concrete,false,false,false,true,true,true,false,true,2
0101000020E610000055A8E31B8DEB6240524722A902B840C0,All Times,-33.4375811974884,151.360975212711,Erina Creek Boat Ramp,Gosford City Council,02 4325 8222,Central Coast Highway,Erina,Brisbane Water,NSW,2250,353,GOOD,Concrete,false,false,false,false,false,false,true,false,2
0101000020E61000003069BD34C51862404BA0CCBDC04041C0,Shallow At Times,-34.5058820008422,144.7740729999,4 Mile Boat Ramp,Hay Shire Council,02 6990 1100,Maude Road,Hay,Murrumbidgee River,NSW,2711,354,GOOD,Concrete,false,false,false,false,false,false,false,false,1
0101000020E6100000950B8FB4E028634091CB610FA55E3DC0,All Times,-29.3697061170347,153.277429847131,Woombah Boat Ramp,Clarence Valley Council,02 6643 0200,Whitby Lane,Goodwood Island ,Clarence River (Middle Channel),NSW,2469,355,GOOD,Concrete,false,false,false,false,false,false,false,false,1
0101000020E6100000B90954A817F26140A88FBAA1B75241C0,Shallow At Times,-34.6462289963668,143.565387882363,"Sturt Highway Bridge Boat Ramp, Balranald (Caravan Park)",Balranald Shire Council,03 5020 1300,Sturt Highway,Balranald,Murrumbidgee River,NSW,2715,356,GOOD,Concrete,false,false,false,false,false,false,false,false,1
0101000020E6100000BE7060A6D3A56240241165F638CE40C0,Shallow At Times,-33.6111133569232,149.18208617054,Carcoar Dam Boat Ramp,Blayney Shire Council,02 6368 2104,Carcoar Dam Road,Carcoar,Carcoar Dam,NSW,2791,357,FAIR,Concrete,true,false,false,false,true,true,false,false,1
0101000020E6100000D6FF0A07E44C6240CA39D32B60FE41C0,All Times,-35.9873099118591,146.402835389598,"Lone Pine Avenue, Corowa",Corowa Shire Council,02 6033 8999,Lone Pine Avenue,Corowa,Murray River,NSW,2646,358,GOOD,Concrete,false,false,false,true,false,false,false,true,1
0101000020E6100000F69CA38DA3E862404F9CD3A8C0DB40C0,All Times,-33.7168170006995,151.26996499973,Middle Creek Reserve (no 1),Warringah Council,2 9942 2111,Wakehurst Parkway,Cromer,Narrabeen Lagoon,NSW,2099,359,GOOD,Concrete,true,true,false,false,true,true,false,false,1
0101000020E6100000687726C286F46140EF0DE4A771B741C0,All Times,-35.4331560004756,143.641449999933,Lake Boga - West Lakeside Drive,Swan Hill Rural City Council,03 5036 2333,Lakeside Drive,Lake Boga,Lake Boga,VIC,3584,360,GOOD,Concrete,false,false,false,false,false,true,false,false,1
0101000020E6100000AC767952910363405EE76201CE6440C0,All Times,-32.7875367863587,152.111489522203,Boat Harbour Boat Ramp,Port Stephens Council,02 4980 0255,Graham Street,Boat Harbour,Ocean,NSW,2316,361,FAIR,Sand,true,false,false,false,true,false,false,false,1
0101000020E610000048013CDD927F62404C210253FFB040C0,Shallow At Times,-33.3827918777848,147.986677758405,Forbes Aquatic Area,Forbes Shire Council,02 6850 2300,Bedgerebong Road,Forbes,Forbes Aquatic Area,NSW,2871,362,GOOD,Concrete,false,false,false,false,true,true,false,false,1
0101000020E610000096E7663A7C286340772659E850E23DC0,High Tide Only,-29.8840470521595,153.26516456698,"Wool River, Lower Ramp",Clarence Valley  Council,02 6643 0200,Wooli Road,Wooli,Wool River,NSW,2462,363,GOOD,Concrete,false,false,false,true,false,true,false,false,2
0101000020E6100000D8A36A16981963405B46107109A73FC0,All Times,-31.6524878182157,152.79981537655,"Laurie St Wharf, Laurieton",Port Macquarie Hastings Council,02 6592 5399,Laurie Street,Laurieton,Camden Haven River,NSW,2443,364,FAIR,Concrete,false,false,false,true,false,true,true,false,1
0101000020E610000028093B8DB4F461405181114757B741C0,All Times,-35.4323510013079,143.647040000252,Lake Boga - East Lakeside Drive,Swan Hill Rural City Council,03 5036 2333,Lakeside Drive,Lake Boga,Lake Boga,VIC,3584,365,GOOD,Concrete,false,false,false,false,false,true,false,false,1
0101000020E610000002D49EEA271662406EFA2B9FAC0842C0,All Times,-36.0677679981935,144.692372617923,Murray Valley Regional Park Boat Ramp (Five Mile),National Parks And Wildlife Services,1300 072 757,Perricoota Road,Moama,Murray River,NSW,2731,366,GOOD,Concrete,true,false,false,false,true,true,false,false,2
0101000020E6100000C4D1AEED562463406132F8746B4C3EC0,High Tide Only,-30.2985146623563,153.135611382908,Coffs Harbour Creek - Edgar Street Boat Ramp,Coffs Harbour City Council,02 6648 4000,Edgar Street,Coffs Harbour,Coffs Harbour Creek,NSW,2450,367,GOOD,Concrete,true,false,false,false,true,true,false,false,1
0101000020E61000009ECF617AD91C6340AB64516C4A9E3DC0,All Times,-29.6183231066431,152.901547614133,"Seelands Boat Ramp
(Eastern Bank)",Clarence Valley Council,02 6643 0200,Old Punt Road,Seelands,Clarence River,NSW,2460,368,POOR,Concrete,false,false,false,false,false,false,false,false,1
0101000020E6100000553EA8E1D119634061628E5953A43FC0,All Times,-31.641896817457,152.806870297051,"Stingray Creek, North Haven",Port Macquarie Hastings Council,02 6581 8111,River Street,North Haven,Stingray Creek,NSW,2443,369,GOOD,Concrete,false,false,false,true,true,true,false,false,1
0101000020E6100000284E88B883766240D3612C44F3F641C0,Shallow At Times,-35.9292988983831,147.703579202863,Jingellic Reserve Boat Ramp,Tumbarumba Shire Council,02 6948 9100,River Road,Jingellic,Murray River,NSW,2642,370,GOOD,Concrete,false,false,false,false,false,false,false,false,1
0101000020E6100000A7E38775ACF36240DB406211FC7A40C0,Shallow At Times,-32.9608175019982,151.614802136811,Speers Point Boat Ramp,Lake Macquarie City Council,02 4921 0333,Creek Reserve Road,Speers Point ,Cockle Creek (Lake Macquarie),NSW,2284,371,GOOD,Concrete,false,false,false,true,true,false,true,false,2
0101000020E6100000CFAA1F3765C462408E2BA77B010C42C0,Shallow At Times,-36.0937952581654,150.137355386591,Potato Point Boat Ramp,Eurobodalla Shire Council,02 4429 3111,Riverview Street,Potato Point,Potato Creek,NSW,2545,372,POOR,Concrete,false,false,false,false,false,false,false,false,1
0101000020E610000041941EDD88DC624017F8EACF7EBC40C0,All Times,-33.4726200005827,150.89170700047,Holmes Drive Reserve Boat Ramp,Hawkesbury City Council,02 4560 4444,Holmes Drive,Cumberland Reach,Hawkesbury River,NSW,2756,373,GOOD,Concrete,false,false,false,false,false,false,false,false,1
0101000020E61000005918321DBA1863404203AE915DA13FC0,All Times,-31.6303340005718,152.772718999712,Queens Lake Sailing Club Reserve Boat Ramp,Port Maquarie-Hastings Council,02 6581 8111,Ocean Drive,Lakewood,Camden Haven Inlet,NSW,2443,374,FAIR,Concrete,false,false,false,false,false,true,false,false,1
0101000020E610000055A1BCADA35162405E05A096A06041C0,Shallow At Times,-34.754900768409,146.551230305117,Narranderra,Narrandera Shire Council,02 6959 5510,Newell Highway,Narrandera,Murrumbidgee River,NSW,2700,375,GOOD,Concrete,true,false,false,true,true,false,false,false,1
0101000020E61000001475ED319FEA62400C66C49AABC240C0,All Times,-33.5208619555452,151.331932987007,Ettalong Beach South Boat Ramp,Gosford City Council,02 4325 8222,The Esplanade ,Ettalong Beach,Brisbane Water,NSW,2257,376,POOR,Sand,false,false,true,true,false,false,false,false,1
0101000020E610000014F39B35F8E462408CFE953E74D340C0,All Times,-33.651984999885,151.155299000348,Apple Tree Bay Boat Ramp,National Parks And Wildlife Services,1300 072 757,Bobbin Head Road,Bobbin Head,Cowan Creek,NSW,2074,377,GOOD,Concrete,false,true,true,true,true,false,true,false,3
0101000020E61000003D469BCA1AF2624001354884669640C0,Shallow At Times,-33.175003562219,151.565770438452,Chain Valley Bay Boat Ramp,Wyong City Council,4350 5555,Lloyd Avenue,Chain Valley Bay,Lake Macquarie,NSW,2259,378,GOOD,Concrete,true,false,false,true,true,true,true,false,1
0101000020E6100000DEAFC04C79F0624063C73E89369C40C0,Shallow At Times,-33.2204143101251,151.514807106344,San Remo Boat Ramp (Northlakes Oval),Wyong Shire Council,02 4350 5555,Emu Drive,San Remo,Lake Budgewoi ,NSW,2262,379,FAIR,Concrete,false,false,false,false,false,false,true,false,2
0101000020E61000007BABEFB531F26240493686890F9640C0,Shallow At Times,-33.1723491578419,151.568568199258,Mulloway Road Boat Ramp,Wyong Shire Council,02 4350 5555,Mulloway Road  ,Chain Valley |Bay,Lake Macquarie,NSW,2259,380,GOOD,Concrete,false,false,false,false,false,true,true,false,1
0101000020E6100000BE449250D4DB6240AC06A62C7E4441C0,Shallow At Times,-34.5351005373644,150.869667325669,Lake Illawarra - Windang Near Windang Bridge,Shellharbour City Council,02 4221 6111,Fern Street,Windang,Lake Illawarra,NSW,2528,382,GOOD,Concrete,true,false,false,true,true,true,true,false,2
0101000020E6100000E25E772530F16240C526A87E709240C0,Shallow At Times,-33.1440580674221,151.53712724032,Vales Point.,Wyong Shire Council,02 4350 5555,Peveril Street,Mannering Park,Lake Macquarie,NSW,2259,383,GOOD,Concrete,true,false,false,true,true,true,true,false,2
0101000020E61000004B6CBD6638CF6240455F1108D2AD41C0,Shallow At Times,-35.3579721531701,150.475634927718,Ulladulla Harbour Boat Ramp,Shoalhaven City Council,02 4429 3111,Watson Street,Burrill Lake,Ocean,NSW,2539,384,FAIR,Unsealed,false,false,false,false,false,true,false,false,1
0101000020E6100000C10A2215A9D461406735A913D06241C0,All Times,-34.7719750000204,142.645639959801,"Weman, Murray River",Parks Victoria,13 1963 ,Happy Valley Road,Monak,Murray River,NSW,2738,385,GOOD,Concrete,false,false,false,false,false,false,false,false,1
0101000020E61000004DBBF7D64232634061184DCD33DC3CC0,Shallow At Times,-28.8601654351445,153.570659145213,Cawarra Park Boat Ramp,Ballina Shire Council,02 6686 4444,Cawarra Street,Ballina,Richmond River (North Creek),NSW,2478,386,FAIR,Concrete,false,false,false,true,true,true,false,false,1
0101000020E6100000931AD471E2206340D23A55485EA13DC0,All Times,-29.6303448875504,153.027642168298,River Street Boat Ramp,Clarence Valley Council,02 6643 0200,River Street,Ulmarra,Clarence River,NSW,2462,387,GOOD,Not Provided,false,false,false,false,false,false,false,false,1
0101000020E6100000042E5304A2E66240F44298C70BEC40C0,All Times,-33.8441094869103,151.207277452908,Quiberie Park Boat Ramp,North Sydney Council,02 9936 8100,Railway Avenue,Lavender Bay,Sydney Harbour,NSW,2060,389,POOR,Concrete,false,false,false,true,true,false,false,false,1
0101000020E61000002CAE05135B236340B76DBCA993AA3DC0,All Times,-29.6663156590491,153.104867468924,Coldstream Terrace - Tucabia,Clarence Valley Council,02 6643 0200, Coldstream Terrace,Tucabia,Coldstream River,NSW,2462,390,POOR,Bitumen,false,false,false,false,false,false,false,false,1
0101000020E610000012105B5E39E96240FB0F93B6F1DB40C0,All Times,-33.7183140009001,151.288253000123,Jamieson Park,Warringah Council,02 9942 2111,The Esplanade,Narrabeen,Narrabeen Lagoon,NSW,2101,391,GOOD,Concrete,true,true,true,false,true,true,false,false,1
0101000020E6100000A3D2CFFC54026340ED577B3EF75A40C0,Shallow At Times,-32.7106702902091,152.072874456314,Salamander Shores,Port Stephens Council,02 4980 0255,Seaview Crescent,Soldiers Point,Port Stephens,NSW,2317,392,FAIR,Concrete,false,false,false,true,false,false,false,false,1
0101000020E6100000FAD3811CEABC614095B5CD318E0441C0,All Times,-34.0355894331398,141.903578046389,"Pomona , Darling River",Wentworth Shire Council,03 5027 5027,Neilpo Street,Pomona,Darling River,NSW,2648,393,GOOD,Concrete,false,false,false,true,false,true,false,false,1
0101000020E6100000C2B96481AD0C6340670B844BFE0C40C0,All Times,-32.1015104670285,152.396179863672,Wallamba River - Bullocky Wharf Boat Ramp,Great Lakes Council,02 6591 7222,Wharf Street,Nabiac,Wallamba River,NSW,2312,394,GOOD,Concrete,false,false,false,false,false,false,false,false,1
0101000020E6100000219DBB1D5BF86240B8BC7B47557540C0,All Times,-32.9166650156198,151.761122576173,Carrington Boat Ramp,Newcastle City Council,02 4974 2000,Tully Street,Carrington,Hunter River,NSW,2294,395,GOOD,Concrete,false,false,false,true,false,true,false,false,3
0101000020E6100000CABD93DF22C462401C397CEBC31A42C0,All Times,-36.2091039997633,150.129257000501,"Apex Park Boat Ramp, Narooma",Eurobodalla Shire Council,02 4474 1000,Centenary Drive,Narooma,Wagonga Inlet,NSW,2546,396,GOOD,Concrete,false,false,false,true,true,true,true,true,2
0101000020E6100000FED95200EE53624071B6701A76FE41C0,All Times,-35.9879792261462,146.622802888698,"Lions Park Howlong Road, Howlong",Corowa Shire Council,02 6033 8999,Howlong Road,Howlong,Murray River,NSW,2643,397,POOR,Concrete,true,false,false,false,true,false,false,false,1
0101000020E61000002D54321B64406240E45B2886E40042C0,Shallow At Times,-36.0069740006509,146.012219999598,Bank Street Boat Ramp,Moira Shire Council (Vic),03 5871 9222,Bank Street,Yarrawonga,Lake Mulwala,VIC,3730,398,FAIR,Concrete,false,false,false,false,true,false,false,false,1
0101000020E6100000C8077C0CBFE362409B44FF07AE0141C0,Shallow At Times,-34.0131235119272,151.117071382758,Holts Point Place Boat Ramp,Sutherland Shire Council,02 9710 0333,Holts Point Place,Sylvania Waters,Georges River,NSW,2224,399,GOOD,Concrete,false,false,false,false,false,false,false,false,1
0101000020E61000007390139652F96240D3C9C5F3F67540C0,All Times,-32.9215988841785,151.79133132764,Horseshoe Beach,Newcastle City Council,02 4974 2000,Wharf Road,Newcastle,Hunter River,NSW,2300,400,POOR,Sand,false,false,false,true,false,true,false,false,1
0101000020E610000041D1B2172EDF624085A59C8A30F540C0,All Times,-33.9155438675762,150.974376534703,Rabaul Road,Bankstown City Council,02 9707 9999,Rabaul Road,Georges Hall,Georges River,NSW,2198,401,GOOD,Concrete,true,false,false,true,true,true,false,true,2
0101000020E61000005BC2AE2D75DB6240FD8CF0A47A5041C0,Shallow At Times,-34.6287428068699,150.858054009749,Minnamurra River (Entrance),The Council Of The Municipality Of Kiama,02 4232 0444,Charles Avenue,Minnamurra,Minnamurra River,NSW,2533,402,GOOD,Concrete,false,false,false,true,true,true,false,false,1
0101000020E6100000A8DE489B90C262403CA5DED9D8F341C0,Shallow At Times,-35.9050552689682,150.08015217049,Gilmores Creek Boat Ramp,Eurobodalla Shire Council,02 4429 3111,Glenduart,West Moruya,Moruya River,NSW,2537,403,POOR,Sand,false,false,false,false,false,false,false,false,Informal
0101000020E6100000F1D8C9D335EF6240B4493899ACAE40C0,Shallow At Times,-33.3646422886699,151.475320715173,"Saltwater Creek Reserve Boat Ramp, Long Jetty (The Entrance Aquatic Centre)",Wyong Shire Council,02 4350 5555,Tuggerah Parade,Long Jetty,Tuggerah Lake,NSW,2261,404,FAIR,Concrete,false,false,false,true,true,false,false,false,1
0101000020E6100000681401E62F2263402708104661E03EC0,Shallow At Times,-30.8764842785969,153.068346979245,Trial Bay Boat Ramp,National Parks And Wildlife Services,1300 072 757,Cardwell Street,South West Rocks,Tasman Sea,NSW,2431,405,GOOD,Concrete,false,false,false,false,true,true,false,false,1
0101000020E61000004BD0CBC4ED1D6340CE5818956AB33DC0,All Times,-29.7008450684014,152.935274503778,Through Street Boat Ramp,Clarence Valley Council,02 6643 0200,Through Street,South Grafton,Clarence River,NSW,2460,406,GOOD,Not Provided,false,false,false,false,false,false,false,false,1
0101000020E6100000BFC156FFEFC36240DF5329458E1C42C0,All Times,-36.2230917407794,150.12304655976,The Loop Boat Ramp,Eurobodalla Shire Council,02 4474 1000,Lake View Drive,Narooma,Wagonga Inlet,NSW,2546,407,GOOD,Concrete,false,false,false,false,false,false,false,false,1
0101000020E6100000721815F41CDE6240629555875F2641C0,All Times,-34.2997903030289,150.94103435631,Austinmer Beach Boat Ramp,Wollongong City Council,02 4227 7111,Headland Ave,Austinmer,Coledale Beach,NSW,2515,408,POOR,Sand,false,false,false,true,true,true,false,false,1
0101000020E6100000701971FD42496240CAB32CEBD10142C0,All Times,-36.0142187088273,146.28942749109,Snake Island-Boiling Downs Creek,Corowa Shire Council,02 6033 8999,Spring Drive,Corowa,Murray River,NSW,2646,409,GOOD,Concrete,false,false,false,false,false,true,false,false,1
0101000020E6100000A0673528112B6340D49F5380E1663DC0,All Times,-29.4018783764039,153.345844368273,"Spenser Street Boat Ramp, Iluka",Clarence Valley Council,02 6643 0200,Spenser Street,Iluka,Clarence River,NSW,2466,410,GOOD,Concrete,true,false,false,true,true,true,true,true,2
0101000020E61000006162C00298E3624064EA82ACA70041C0,All Times,-34.005117000507,151.112305999518,Horse Rock Point (Sylvania) Boat Ramp,Sutherland Shire Council,02 9710 0333,Princes Highway,Sylvania,Georges River,NSW,2224,411,GOOD,Concrete,false,false,false,true,true,true,true,false,2
0101000020E610000005206522D3836240153E72C8D3033EC0,Shallow At Times,-30.0149503020203,148.119523236761,Walgett Boat Ramp,Wallget Shire Council,02 6828 1399,Castlereagh Highway,Walgett,Namoi River,NSW,2832,412,GOOD,Concrete,false,false,false,false,false,true,false,false,1
0101000020E6100000F579905A6BF762403BB16BB2F15440C0,Shallow At Times,-32.6636260057298,151.73185470789,Seaham - Williams River,Cessnock City Council,02 4993 4100,Torrence Street,Seaham,Williams River,NSW,2324,413,FAIR,Bitumen,false,false,true,false,false,false,false,false,1
0101000020E6100000C2B96481AD0C6340670B844BFE0C40C0,All Times,-32.1015104670285,152.396179863672,Bullocky Wharf Boat Ramp,Great Lakes Council,02 6591 7222,Wharf Street,Nabiac,Wallamba River,NSW,2312,414,GOOD,Concrete,false,false,false,false,false,false,false,false,1
0101000020E6100000891CD677DFFB62407CCF73E9D30440C0,All Times,-32.0377170386773,151.871028822123,"Rocky Crossing Reserve, Barrington River",TBD,TBD,Barrington West Road,Barrington,Barrington River,NSW,2422,415,POOR,Unsealed,true,false,false,false,true,true,false,false,1
0101000020E6100000ADC16AF3E4D26240A5FAE943009641C0,All Times,-35.1718830959774,150.590448101529,Lakehaven Drive Boat Ramp,Shoalhaven City Council,02 4429 3111,Lakehaven Drive,Sussex Inlet,Sussex Inlet,NSW,2540,416,GOOD,Concrete,true,false,false,true,true,true,true,true,4
0101000020E6100000059E1154E820634038D0F441D78B3EC0,All Times,-30.5462533209504,153.028360399636,"Third Head, Urunga",Bellingen Shire Council,02 6655 7300,Osprey Drive,Urunga,Tasman Sea,NSW,2455,417,GOOD,Concrete,true,false,false,false,true,true,false,false,1
0101000020E6100000D442E33EE3E7624001BEFA4B0AE740C0,All Times,-33.8050017332389,151.246489948148,The Spit Road Boat Ramp,Mosman Municipal Council,02 9978 4000,Spit Road,Mosman,Middle Harbour,NSW,2088,418,POOR,Unsealed,false,false,false,true,true,false,false,false,1
0101000020E61000000EEF44A372F36240A5AF63A91C8040C0,All Times,-33.0008746849774,151.607743868481,Bolton Point Boat Ramp,Lake Macquarie City Council,02 4921 0333,Middle Point Road,Bolton Point,Lake Macquarie,NSW,2283,419,GOOD,Concrete,true,false,false,false,true,true,true,false,1
0101000020E6100000C5AB1E74D5FC6240EDB44A74F30040C0,Shallow At Times,-32.00742963455,151.901056346802,The Cove,TBD,TBD,Manchester Road,Bindera,Barrington River,NSW,2422,420,POOR,Unsealed,false,false,false,false,false,false,false,false,1
0101000020E6100000EE8FC7716DEB624025F2444ACAB940C0,High Tide Only,-33.4514859043741,151.357109918375,Green Point Boat Ramp,Gosford City Council,02 4325 8222,Orana Street,Green Point,Brisbane Water,NSW,2251,421,FAIR,Concrete,false,false,false,true,false,false,false,false,1
0101000020E6100000894EFD126B266340AD199F7059273EC0,All Times,-30.1537084949902,153.200570578327,Sandy Beach,Coffs Harbour City Council,02 6648 4000,Sandy Beach Drive,Sandy Beach,Ocean,NSW,2456,422,POOR,Bitumen,true,false,true,false,true,false,false,false,1
0101000020E6100000CFB4CC77EE836240C4AE2F67C01D42C0,Shallow At Times,-36.2324341757608,148.122859859292,Khancoban Pondage,Lockhart Shire Council,02 6920 5305,Power Station Road,Khancoban,Khancoban Pondage,NSW,2642,423,GOOD,Concrete,true,false,false,true,true,false,false,false,2
0101000020E6100000104B03D0A4456240DE9532154A0442C0,All Times,-36.033510827732,146.176368719513,Nicholson St Bundalong ,Moira Shire Council (Vic),03 5871 9222,Nicholson Street,Bundalong,Murray River,VIC,3730,424,GOOD,Concrete,true,false,false,true,true,false,false,false,2
0101000020E610000072D013566FC462407AE2EA736CD241C0,All Times,-35.6439347168825,150.13859084959,"Caravan Park, Nelligen",Eurobodalla Shire Council,02 4429 3111,Nelligen,Nelligen,Clyde River,NSW,2536,425,GOOD,Concrete,false,false,true,true,false,true,true,true,2
0101000020E6100000B3130A4A51F46140504C4A8D09BB41C0,All Times,-35.4612290013107,143.634923000032,Lake Boga - Caravan Park,Swan Hill Rural City Council,03 5036 2333,Murray Valley Highway,Lake Boga,Lake Boga,VIC,3584,426,GOOD,Concrete,false,false,false,false,false,false,false,false,1
0101000020E610000052777944EC22634094B77CC9C75F3EC0,Shallow At Times,-30.374142258595,153.091341244925,Bonville Creek Boat Ramp,Coffs Harbour City Council,02 6648 4000,Lyons Road,Sawtell,Bonville Creek,NSW,2452,427,FAIR,Bitumen,false,false,false,false,false,true,false,false,3
0101000020E61000009FF1DA77C9F46240CFE17DCC898A40C0,All Times,-33.0823302855166,151.649593284249,Blacksmiths Boat Harbour,Lake Macquarie City Council,02 4921 0333,Bali Street,Blacksmiths,Lake Macquarie,NSW,2281,428,GOOD,Concrete,false,false,false,false,false,false,false,true,2
0101000020E6100000F100C69422266340CDB4B49AE4743DC0,All Times,-29.4566132250955,153.191721331335,Old Ferry Road Boat Ramp,Clarence Valley Council,02 6643 0200,Old Ferry Road,Ashby,Clarence River,NSW,2463,429,POOR,Not Provided,false,false,false,false,false,false,false,false,1
0101000020E6100000A5DF2C7193E16240223A5FA9980141C0,Shallow At Times,-34.0124713625885,151.04924830212,Bonnet Bay (Washington Drive) Boat Ramp,Sutherland Shire Council,02 9710 0333,Washington Drive,Bonnet Bay,Woronora River,NSW,2226,430,FAIR,Concrete,false,false,false,true,false,true,false,false,2
0101000020E6100000EC405283744D6240096E7356485A41C0,Shallow At Times,-34.7053325713751,146.420472775127,Yanco Weir,Narrandera Shire Council,02 6959 5510,Stuart Highway,Cudgel,Murrumbidgee River,NSW,2700,431,POOR,Unsealed,false,false,false,false,false,false,false,false,1
0101000020E6100000DB699B8D15D262401E24C392AB9841C0,Shallow At Times,-35.1927360012853,150.565131000082,The Springs Road Boat Ramp,Shoalhaven City Council,02 4429 3111,The Springs Road,Swanhaven,Swan Lake,NSW,2540,432,POOR,Sand,false,false,false,false,true,true,false,false,1
0101000020E610000037A7F270E71F6340969E258E96BE3EC0,Shallow At Times,-30.7444847909779,152.997002099926,Scotts Head Boat Ramp,Nambucca Shire Council,02 6568 2555,Short Street,Scotts Head,Ocean,NSW,2447,433,FAIR,Concrete,true,false,false,false,true,true,false,false,2
0101000020E6100000F06AB0357EDE624045FAC99C03F440C0,All Times,-33.9063602434367,150.952906460348,Chipping Norton Lake - Angle Park Boat Ramp,Liverpool City Council,02 9821 9222,Ascot Drive,Chipping Norton,Chipping Norton Lake / Georges River,NSW,2170,434,GOOD,Concrete,true,false,false,true,true,false,true,false,2
0101000020E6100000A564872DE52B63408B67D7D07A5D3DC0,Shallow At Times,-29.3651552701845,153.371725811424,"Woody Head, Ocean Ramp",National Parks And Wildlife Services,1300 072 757,Woody Head Road,Iluka,Shark Bay Tasman Sea,NSW,2466,435,POOR,Sand,true,true,true,false,true,true,false,false,1
0101000020E6100000F674E62D9B2C63402C8B9A6DE2023DC0,All Times,-29.0112675192169,153.393942785369,Rileys Hill (Broadwater),Lismore City Council,1300 878 387,Rileys Hill Dock Road,Rileys Hill,Richmond River,NSW,2472,436,POOR,Concrete,false,false,false,false,false,false,false,false,1
0101000020E61000002EB9DA26B44862409A4B9B1C47AB41C0,Shallow At Times,-35.338107658222,146.271991183466,Lake Urana Boat Ramp,Urana Shire Council,02 6930 9100,Collingullie Jerilderie Road,Urana,Lake Urana,NSW,2645,437,GOOD,Concrete,true,false,false,false,true,true,false,false,1
0101000020E61000000E5680B6852063405CA7D7135CE53EC0,All Times,-30.8959362412928,153.01632237497,"Mattys Flat Boat Ramp",Kempsey Shire Council,02 6566 3200,"New Entrance Road","South West Rocks
",Macleay River,NSW,2431,438,POOR,Concrete,false,false,true,true,true,true,false,false,1
0101000020E6100000AD2D8DE850C7614090F93E37151A41C0,All Times,-34.2037724549765,142.228626514186,Bruces Bend Nichols Point - Murray River Vic,Parks Victoria,13 1963 ,Billabong Road,Nichols Point,Murray River,VIC,3501,439,GOOD,Concrete,false,false,false,false,false,true,false,false,1
0101000020E61000008F4312FFD5F36240A7B79452157D40C0,All Times,-32.9772132135543,151.619872604057,Marmong Point,Lake Macquarie City Council,02 4921 0333,Nanda Street,Marnomg Point,Lake Macquarie,NSW,2284,440,GOOD,Concrete,false,false,true,true,false,true,false,false,1
0101000020E61000001149835E38C561406EFD83E0651341C0,All Times,-34.1515465397341,142.163131004731,"Apex Park Boat Ramp, Mildura ",Mildura Rural City Council,03 5020 1300,Cureton Avenue,Mildura,Murray River,VIC,3500,441,GOOD,Concrete,false,false,false,false,true,true,false,false,1
0101000020E6100000B561D9F44DBC624075000F1FCB7B42C0,All Times,-36.9671362708331,149.884516167234,Pambula Lake Boat Ramp,Bega Valley Shire Council,02 6499 2222,Landing Road,Broadwater,Pambula Lake (Ocean),NSW,2549,442,GOOD,Concrete,true,false,false,false,true,true,true,true,2
0101000020E6100000CB1685FF9A066340B6741533F63440C0,All Times,-32.4137634138837,152.206420669498,Bulahdelah Boat Ramp,Great Lakes Council,02 6591 7222,Old Pacific Highway,Bulahdelah,Myall River,NSW,2423,443,GOOD,Concrete,true,false,false,true,false,true,true,true,1
0101000020E610000095C2DB065EE76240F32796801BC640C0,All Times,-33.5477143033203,151.230227879733,"Parsley Bay, Brooklyn",Hornsby Shire Council,02 9847 6672,George Street,Brooklyn,Hawkesbury River,NSW,2083,444,GOOD,Concrete,false,false,false,true,true,true,true,true,4
0101000020E6100000E6EC722EE1D262403267AD0D8D8B41C0,All Times,-35.0902421089835,150.589987968887,The Basin Road Boat Ramp,Shoalhaven City Council,02 4429 3111,The Basin Road,Basin View,St Georges Basin,NSW,2540,445,POOR,Sand,false,false,true,false,false,true,true,true,1
0101000020E61000005F6C0CB9C3EA6240647B2DC73FC040C0,All Times,-33.5019463512497,151.336391948952,Blackwall Boat Ramp ,Gosford City Council,02 4325 8222,Orange Grove Road,Blackwall,Brisbane Water,NSW,2256,446,FAIR,Concrete,false,false,false,true,false,false,true,false,1
0101000020E6100000C4702441B8D861402232E2D4074A41C0,Passive Craft Only,-34.5783640007469,142.772491999791,"Canoe pontoon, Robinvale",Swan Hill Rural City Council,03 5036 2333,McLennan Drive,Robinvale,Murray River,NSW,3549,447,GOOD,Aluminium,false,false,false,true,true,true,true,true,0
0101000020E61000001AF54490C4EA62404AB4D2CD19BE40C0,All Times,-33.4851624754743,151.336494574244,Lions Park Eastern Boat Ramp,Gosford City Council,02 4325 8222,North Burge Road,Woy Woy,Brisbane Water,NSW,2256,448,GOOD,Concrete,false,false,false,true,true,false,true,true,2
0101000020E6100000B7F1A1E01695624090A57666D7E541C0,All Times,-35.7956359938936,148.659042660043,"Tantangara Access Point, Tantangara Reservoir",Snowy  Hydro,02 6453 2888,Snowy Mountains Highway,Tantangara,Tantangara Reservoir,NSW,2629,449,GOOD,Unsealed,false,false,false,false,false,false,false,false,1
0101000020E61000002F97FB49E3E66240C75BD48221EC40C0,All Times,-33.8447726761729,151.215245238674,Milsons Park Boat Ramp,North Sydney Council,02 9936 8100,Mcdougall Street,Kirribilli,Sydney Harbour,NSW,2061,450,FAIR,Concrete,false,false,false,true,true,false,false,false,1
0101000020E61000007DB0D3575C00634007D0ABA1E45C40C0,Shallow At Times,-32.7257272805146,152.011272347885,Mallabula Point,Port Stephens Council,02 4980 0255,Bay Street,Mallabula,Port Stephens,NSW,2319,451,POOR,Concrete,true,false,false,false,true,false,false,false,1
0101000020E6100000E26352616C2663405CA4DEE34C0F3EC0,All Times,-30.059767000061,153.200730000418,Arrawarra Beach Boat Ramp,Coffs Harbour City Council,02 6648 4000,Second Avenue,Arrawarra,Ocean,NSW,2456,452,GOOD,Concrete,false,false,false,true,true,true,false,false,1
0101000020E6100000C4B5B33C0F306340DDCA2307258C3CC0,Shallow At Times,-28.5474400007614,153.501859999653,Heritage Park Gordon St,Byron Shire Council,02 6626 7000, Gordon St,Mullumbimby,Brunswick River,NSW,2482,453,POOR,Concrete,false,false,false,false,false,true,false,false,1
0101000020E6100000986C13A214EB624042A9A6BB78C140C0,All Times,-33.5114969791198,151.34626869005,Booker Bay Boat Ramp,Gosford City Council,02 4325 8222,Karu Avenue,Booker Bay,Brisbane Water,NSW,2257,454,FAIR,Concrete,false,false,false,true,false,false,true,false,1
0101000020E61000002BD844DC2B936240416F6097951F40C0,Shallow At Times,-32.2467526646492,148.599104055845,Lions Park,Dubbo City Council,02 6801 4000,Bligh Street,Dubbo,Macquarie River,NSW,2830,455,GOOD,Concrete,false,false,false,true,false,false,true,false,1
0101000020E6100000F1EBDD83E209634082319FD5754540C0,All Times,-32.5426585223495,152.308900769654,Mungo Brush,National Parks And Wildlife Services,1300 072 757,Tuloa Avenue,Mungo Brush,Bombah Broadwater,NSW,2324,457,GOOD,Concrete,true,true,false,false,true,true,false,false,2
0101000020E61000002B6447710D5D62400AAFE434030B42C0,Shallow At Times,-36.0860353581066,146.907890929638,Norieul Park,Albury City Council,02 6023 8111,Hume Highway,Albury,Murray River,NSW,2640,458,FAIR,Concrete,false,false,false,true,false,false,false,false,1
0101000020E61000006F6E38E9590D6340814F37BC93EE3FC0,All Times,-31.9319417605434,152.417225465982,"Andrews Reserve Boat Ramp, Taree",Greater Taree City Council,02 6592 5399,Edinburgh Drive,Taree,Manning River,NSW,2430,459,GOOD,Concrete,true,false,false,false,true,true,false,false,2
0101000020E61000001A2883FB8EF1624027E0D82F818B40C0,All Times,-33.0898799714053,151.5487039148,Shingle Splitters Point,Lake Macquarie City Council,02 4921 0333,Queen Street,Balcolyn,Lake Macquarie,NSW,2264,460,FAIR,Concrete,true,false,false,false,true,true,false,false,1
0101000020E6100000377BDCD1D7D762403CEB7A855D6D41C0,All Times,-34.8544165468397,150.745095186832,Shoalhaven Heads - River Rd Ramp Shoalhaven River,Shoalhaven City Council,02 4429 3111,River Road,Shoalhaven Heads,Shoalhaven River,NSW,2535,461,GOOD,Concrete,true,false,true,true,true,true,true,true,1
0101000020E6100000D46C1616A1F26140C67B2C04BC5C41C0,All Times,-34.7244878022389,143.5821638525,Regatta Beach Boat Ramp,National Parks And Wildlife Services,1300 072 757,Regatta Beach Road,Yanga,Yanga Lake,NSW,2711,462,GOOD,Concrete,true,true,false,false,true,false,false,false,1
0101000020E610000000D6721FAFDD6240F7CFA31F3A2F41C0,High Tide Only,-34.3689612913003,150.927627300538,Bellambi Boat Ramp (Alternate Beach Ramp),Wollongong City Council,02 4227 7111,Robert Cram Drive,Bellambi,Ocean,NSW,2518,463,GOOD,Concrete,false,false,false,false,false,false,false,false,2
0101000020E61000007F45A0695DE662406C2F0719A3FA40C0,All Times,-33.9581023488125,151.198902905493,Port Botany - Foreshore Road,Sydney Ports,02 9296 4962,Foreshore Raod,Banksmeadow,Botany Bay,NSW,2019,464,GOOD,Concrete,false,false,false,true,true,true,true,true,4
0101000020E610000041398C69ABF362406EC6A4910D7B40C0,All Times,-32.961351590592,151.614674352526,Cockle Creek,Lake Macquarie City Council,02 4921 0333,Creek Reseve Road,Speers Point ,Lake Macquarie,NSW,2284,465,GOOD,Concrete,true,false,false,true,true,true,true,true,3
0101000020E610000024A3F22213C2624055BA30056B3642C0,Shallow At Times,-36.4251409995965,150.064836000348,Bermagui River Park Boat Ramp (Bridge),Bega Valley Shire Council,02 6499 2222,Bridge Street,Bermagui,Bermagui River,NSW,2546,466,FAIR,Concrete,false,false,false,false,true,true,false,false,2
0101000020E61000008D33D0A9C69962409EB06ABE457641C0,All Times,-34.924003412337,148.80550089516,"Good Hope Resort Boat Ramp -
Lake Burrinjuck",Good Hope Resort ,02 6227 1234,Good Hope Road,Good Hope,"Lake Burrinjuck /
Murrumbidgee River",NSW,2582,467,FAIR,Concrete,false,true,true,false,true,false,false,false,1
0101000020E61000001233AE27F861624032F814EC87FF41C0,Shallow At Times,-35.9963355162039,147.061542358621,Bowna Waters Reserve Boat Ramp,Albury City Council,02 6023 8111,Bowna Waters Road,Table Top,Lake Hume,NSW,2640,468,FAIR,Concrete,true,false,false,true,true,false,false,false,2
0101000020E6100000D6FF9238ABE46140C915FC027A5B41C0,All Times,-34.7146610003361,143.145901000126,Boundary Bend Boat Ramp ,Balranald Shire Council,03 5020 1300,Murray Valley Highway,Boundary Bend,Murray River,VIC,3599,469,GOOD,Concrete,false,false,false,false,false,false,false,false,1
0101000020E6100000CA1B8070D52A6340CB16484FE29B3DC0,Shallow At Times,-29.6089219618796,153.338554620945,Brooms Head Boat Ramp,Clarence Valley Council (Reserve Trust),02 6643 0200,Ocean Road,Brooms Head,Ocean,NSW,2463,470,GOOD,Sand,true,true,true,false,true,true,false,false,1
0101000020E6100000276B0B9053E16240F7D21D77CD0341C0,High Tide Only,-34.029707803309,151.041450521757,"Prince Edward Park, Woronora",Sutherland Shire Council,02 9710 0333,Prince Edward Park Road,Woronora,Woronora River,NSW,2232,471,POOR,Concrete,true,false,false,true,true,false,false,false,1
0101000020E610000025752E03D1DB6140F99CDE87F74241C0,All Times,-34.5231790387133,142.869264212358,Lake Benanee,Balranald Shire Council,03 5020 1300,Stuart Highway,Euston,Lake Benanee,NSW,2737,472,GOOD,Sand,false,false,false,false,true,true,false,false,1
0101000020E6100000CB50CEA606F062408D3D8BA1F4AB40C0,Shallow At Times,-33.343403046597,151.500811961136,The Entrance - Marine Parade,Wyong Shire Council,02 4350 5555,Marine Parade,The Entrance,Tuggerah Lake,NSW,2261,473,GOOD,Concrete,false,false,false,true,false,false,false,false,1
0101000020E6100000D54F2828F40E6240626F39882DF941C0,All Times,-35.9467020302243,144.467304304823,Torrumbarry - Upstream Of Weir,Parks Victoria,13 1963 ,Weir Road,Torrumbarry,Murray River,VIC,3526,474,GOOD,Concrete,false,false,false,false,false,false,false,false,2
0101000020E6100000F7350D7B01C2624005266436733042C0,Shallow At Times,-36.3785160054213,150.06268074589,Beauty Point Boat Ramp,Bega Valley Shire Council,02 6499 2222,Beauty Point Road,Beauty Point,Wallaga Lake,NSW,2546,475,FAIR,Unsealed,false,false,false,false,true,true,true,true,2
0101000020E61000001B5A7928D0D46240895E8C47348D41C0,Shallow At Times,-35.1031579432866,150.650409924522,Erowal Bay Boat Ramp,Shoalhaven City Council,02 4429 3111,Naval Parade,Erowal Bay,St Georges Basin,NSW,2540,476,GOOD,Concrete,false,false,false,true,false,true,true,false,2
0101000020E6100000AFE967DF20BE6240EC1FCCCD4B5D42C0,Shallow At Times,-36.7288758513167,149.941512778239,Blackfellows Lake Boat Ramp,Bega Valley Shire Council,02 6499 2222,Blackfellows Lake Road,Kalaru,Blackfellows Lake (Bega River),NSW,2550,477,POOR,Unsealed,false,false,false,false,false,false,false,false,1
0101000020E6100000BFF31FAE56F46240FF8908928D7E40C0,All Times,-32.9886953870482,151.635581076056,Eleebana Boat Ramp,Lake Macquarie City Council,02 4921 0333,Bareki Road,Eleebana,Lake Macquarie,NSW,2282,478,GOOD,Concrete,true,false,false,true,true,true,false,false,2
0101000020E61000009A4020159AD262406DB00CF434DC3DC0,All Times,-29.860183003519,150.58130890178,Bingara Boat Ramp,Gwydir Shire Council,02 6724 2000,Old Keera Road,Bingara,Gwydir River,NSW,2404,479,GOOD,Concrete,false,false,false,false,false,false,false,false,1
0101000020E6100000F1BC3E57DBF26240BD09E7C6F49240C0,All Times,-33.1480950000873,151.589275000129,Gamban Road Boat Ramp,Wyong City Council,02 4350 5555,Gamban Road,Gwandalan,Lake Macquarie,NSW,2259,480,GOOD,Concrete,true,false,false,true,true,true,true,false,2
0101000020E61000000839E69F4DF36240693ADFD9529240C0,Shallow At Times,-33.1431534137708,151.603225659994,Browns Bay Boat Ramp (Nords Wharf),Lake Macquarie City Council,02 4921 0333,Branter Road,Nords Wharf,Lake Macquarie,NSW,2281,481,FAIR,Concrete,false,false,false,false,false,false,false,false,1
0101000020E6100000CBB09942E7DF6240918AB13E1EE63DC0,Low Dam Level,-29.8988990004969,150.996979999711,Copeton Dam Northern Foreshores,Inverell Shire Council,02 6728 8288,Auburn Vale Road,Copeton,Copeton Dam,NSW,2360,482,GOOD,Bitumen,true,false,true,false,true,true,false,false,2
0101000020E6100000BD57A01F11D86240DB092ED21E9041C0,All Times,-35.1259405827329,150.752090275926,Murray Beach Jervis Bay,Parks Australia,02 6274 1111,Jervis Bay Road,Jervis Bay,Jervis Bay,NSW,2540,483,GOOD,Concrete,false,false,false,true,true,false,true,false,2
0101000020E610000099EFF1D20E326340841EDF9E37333CC0,All Times,-28.2000674528813,153.564309570819,Fingal Boat Harbour Boat Ramp,Tweed Shire Council,02 6670 2400,Lighthouse Parade,Fingal Head,Tweed River,NSW,2487,484,GOOD,Concrete,true,false,false,true,true,true,true,false,2
0101000020E610000058C90FE9B7F062400289F180B28D40C0,All Times,-33.1070100001689,151.52244999965,Bonnells Bay Boat Ramp (Pendlebury Park),Lake Macquarie City Council,02 4921 0333,Grand Parade,Bonnells Bay,Lake Macquarie,NSW,2264,485,GOOD,Concrete,false,false,false,true,true,true,false,false,2
0101000020E610000039AD5FE92BE86240DE57E4AF79FB40C0,All Times,-33.9646510949094,151.255360304707,Fishermans Road Boat Ramp,Randwick City Council,02 9399 0999,Fishermans Road,Malabar,Ocean,NSW,2036,486,GOOD,Concrete,false,false,false,true,false,false,false,false,1
0101000020E6100000E77A01DED81F63406513F3512BD23EC0,High Tide Only,-30.8209735125014,152.995223048106,"Stuarts Point Boat Ramp",Kempsey Shire Council,02 6566 3200,"Ocean Avenue",Stuarts Point,Macleay River,NSW,2441,487,POOR,Concrete,false,false,false,false,true,false,false,false,2
0101000020E6100000876744C021236340C46B0C630B813DC0,All Times,-29.5040800004315,153.09787000046,Weir Road Boat Ramp,Clarence Valley Council,02 6643 0200,Weir Road,Lower Southgate,Clarence River,NSW,2460,488,POOR,Not Provided,false,false,false,false,false,false,false,false,1
0101000020E6100000C0ACE944160462402402279FEBD041C0,All Times,-35.6321906033011,144.127718407055,Noorong Street Boat Ramp (Barham),The Council Of The Shire Of Wakool,03 5887 5007,Noorong Street,Barham,Murray River,NSW,2732,489,GOOD,Concrete,false,false,false,false,false,false,false,false,1
0101000020E61000009AA6273D34DD6240DAD19F68B93C41C0,All Times,-34.4744082241411,150.912626817172,Port Kembla Boat Harbour (Darcy Rd),Wollongong City Council,02 4227 7111,Foreshore Raod,Port Kembla,Port Kembla Outer Harbour,NSW,2505,490,GOOD,Concrete,false,false,false,true,true,true,true,false,3
0101000020E61000007D729379CEF26240E3DC61E9D09040C0,All Times,-33.1313754775854,151.587704456313,Diamond Drill Point,Wyong City Council,4350 5555,Garema Road,Gwandalan,Lake Macquarie,NSW,2259,491,FAIR,Concrete,false,false,false,false,true,true,false,false,1
0101000020E610000011B1E8267C1F6340AECF1E59C5B43EC0,Shallow At Times,-30.7061362934325,152.983905271984,Boultons Crossing Reserve,Nambucca Shire Council,02 6568 2555,Gumma Road,Macksville,Warrell Creek,NSW,2447,492,FAIR,Concrete,true,true,false,false,true,true,false,false,1
0101000020E61000000828CC7C7F2963409B513AB373E43CC0,All Times,-28.892390443552,153.296812437766,Wyrallah Road Boat Ramp,Lismore City Council,1300 878 387,Wyrallah Road,Wyrallah,Wilsons River,NSW,2480,493,GOOD,Not Provided,false,false,false,false,false,false,false,false,2
0101000020E61000004C1E67DE30D7624049A0901B0C8041C0,Shallow At Times,-35.0003694969351,150.724715424922,Callala Bay Boat Ramp,Shoalhaven City Council,02 4429 3111,Watt Street,Callala Bay,Jervis Bay,NSW,2540,494,FAIR,Concrete,true,false,false,true,true,true,true,false,1
0101000020E6100000C2C8445821EE6240E749592E90A940C0,All Times,-33.3247125564556,151.441570410103,Sunshine Reserve Boat Ramp,Wyong Shire Council,02 4350 5555,Sunshine Avenue,Chittaway Point,Ourimbah Creek / Tuggerah Lake,NSW,2261,495,FAIR,Concrete,false,false,false,true,false,false,false,false,1
0101000020E610000003EF9F223AEC6240F233364344BC40C0,Shallow At Times,-33.4708332075751,151.382096588488,Kincumber Boat Ramp - Carrack Road (Kincumber Hotel),Gosford City Council,02 4325 8222,Carrack Road,Kincumber,Kincumber Broadwater,NSW,2251,496,GOOD,Concrete,false,false,false,false,false,false,true,true,1
0101000020E6100000DF8B88824AA86240E337E1BD2DB741C0,All Times,-35.4310834264468,149.259095446293,Googong Dam Boat Ramp,Act Parks And Recreations,13 22 81,Googong Dam Road,Googong,Googong Dam,NSW,2620,497,GOOD,Concrete,true,false,false,true,true,false,false,false,1
0101000020E61000004D15B1281B8A624004CCF2508C2642C0,All Times,-36.3011571107418,148.315815301767,Geehi Dam Boat Ramp,Snowy River Shire Council,02 6451 1195,Geehi Dam Road,Khancoban,Geehi River,NSW,2642,498,GOOD,Unsealed,false,false,false,false,false,false,false,false,1
0101000020E6100000D841D3EF641363402316E08D4BD53FC0,All Times,-31.8331841156088,152.606071388828,Coopernook Boat Ramp ,Greater Taree City Council,02 6592 5399,George Gibson Drive,Coopernook ,Landsdowne River,NSW,2426,499,GOOD,Concrete,true,false,false,false,false,true,true,false,2
0101000020E6100000B6E06AF1A91F6340B49E5F9ECEFD3EC0,All Times,-30.991434000344,152.989494999643,"Kinchela Boat Ramp",Kempsey Shire Council,02 6566 3200,"Riverside Drive",Kinchela,Kinchela Creek / Macleay River,NSW,2440,500,POOR,Concrete,false,false,false,false,false,false,false,false,1
0101000020E61000009EC726D1820F6340839650521F1040C0,All Times,-32.1259558576103,152.484718871824,Riverview Place Reserve Boat Ramp,Great Lakes Council,02 6591 7222,Riverview Place,Darawank,Wallamba River,NSW,2428,501,POOR,Unsealed,false,false,false,false,false,false,false,false,1
0101000020E61000005EA8E00681D56240D1B46233298241C0,All Times,-35.0168823463406,150.672000349793,Myola Jervis Bay,Shoalhaven City Council,02 4429 3111,Catherine Street,Myola,Currambene Creek,NSW,2540,502,FAIR,Concrete,false,false,false,false,true,false,false,false,1
0101000020E6100000DE4C48CCC29D6240D7E85BFA586A41C0,All Times,-34.8308403919961,148.930029050075,Yass River Boat Ramp,Yass Valley Council,02 6226 1477,Meehan Street,Yass,Yass Riiver,NSW,2582,503,GOOD,Concrete,false,false,false,false,false,false,false,false,1
0101000020E610000037325C5484266340B1EA482F171C3EC0,All Times,-30.109728770544,153.2036535073,Woolgoolga,Coffs Harbour City Council,02 6648 4000,Carrington Street,Woolgoolga,Tasman Sea,NSW,2456,504,GOOD,Concrete,true,false,false,false,true,true,false,false,2
0101000020E6100000A07436B8C32D63402E48C8A5971F3DC0,All Times,-29.1234077085466,153.430141550406,South Evans Head Boat Ramp,Richmond Valley Council,02 6660 0300,Bundjalung Road,South Evans Head,Evans River,NSW,2473,505,FAIR,Concrete,false,false,false,false,false,false,false,true,3
0101000020E61000007A95691453D56240A7447B79468341C0,All Times,-35.025588212194,150.666391569346,Woollamia Regional Ramp ,Shoalhaven City Council,02 4429 3111,Frank Lewis Way,Woollamia,Currambene Creek,NSW,2540,506,FAIR,Concrete,false,false,false,true,true,true,true,false,2
0101000020E6100000022A2E3A87F362400319FEE2548940C0,All Times,-33.0729030361854,151.61025723473,Wangi Wangi Caravan Park Boat Ramp,National Parks And Wildlife Services,1300 072 757,Watkins Road,Wangi Wangi,Lake Macaquarie,NSW,2267,507,FAIR,Unsealed,false,false,true,true,true,true,true,false,2
0101000020E6100000A03F87DD768C6240A59FF33800FC41C0,All Times,-35.9687567891663,148.389509929807,Tumut Pond Reservoir Boat Ramp,Bombala Council,02 6458 3555,Snowridge Road,Cabramurra,Tumut Reservoir,NSW,2629,508,POOR,Unsealed,false,true,false,false,false,false,false,false,1
0101000020E61000006D6F947AD3E362404BE242FD030241C0,All Times,-34.0157467438299,151.119565286553,Hawkesbury Reserve (Sylvania Waters) Boat Ramp,Sutherland Shire Council,02 9710 0333,Moruya Avenua,Sylvania Waters,Georges River,NSW,2224,509,GOOD,Concrete,false,false,false,true,true,true,true,true,2
0101000020E6100000B261971EA6DF62409911A49AE2B040C0,All Times,-33.3819154072873,150.98902825896,Wisemans Ferry Boat Ramp,Hornsby Shire Council,02 9847 6672,Old Northern Road,Wisemans Ferry ,Hawkesbury River,NSW,2775,510,POOR,Concrete,false,false,true,true,true,false,true,false,1
0101000020E610000063279679ABE46140AE164EFA7B5B41C0,Shallow At Times,-34.7147210007946,143.145932000417,Boundary Bend,Swan Hill Rural City Council,03 5036 2333,Murray Valley Highway,Boundary Bend,Murray River,NSW,3599,511,FAIR,Concrete,false,false,false,false,false,true,false,false,1
0101000020E610000080B6046F48D362401D8DF8A8BF6E41C0,All Times,-34.8652240003232,150.602592000203,Nowra Wharf & Boat Ramp,Shoalhaven City Council,02 4429 3111,Wharf Road,Nowra,Shoalhaven River,NSW,2541,512,FAIR,Concrete,false,false,false,true,true,true,false,false,1
0101000020E610000097869B0B723E6240DD763959910E3EC0,Shallow At Times,-30.0569053426069,145.951421550523,Bourke Boat Ramp - Darling River,Bourke Shire Council,02 6830 8000,Mitchell Hwy,North Bourke,Darling River,NSW,2840,513,GOOD,Concrete,false,false,false,false,false,false,false,false,1
0101000020E6100000663549AD2ED362408BAE12F6C39441C0,All Times,-35.162230261919,150.599447863565,River Road Boat Ramp - Sussex Inlet,Shoalhaven City Council,02 4429 3111,River Road,Sussex Inlet,Sussex Inlet,NSW,2540,514,GOOD,Concrete,false,false,false,false,false,true,false,false,1
0101000020E61000009696EDF3C0F26240A1BBED138B9A40C0,Shallow At Times,-33.2073693190389,151.586053813972,"Elizabeth Bay Boat Ramp, Lake Munmorah ",Wyong Shire Council,02 4350 5555,Elizabeth Bay Drive,Lake Munmorah,Lake Munmorah,NSW,2259,515,FAIR,Concrete,false,false,true,false,true,false,false,false,1
0101000020E6100000A7D27A0AEE1A6340EC9B6E7950153FC0,All Times,-31.0832591910402,152.841557731522,"Riverside Park Boat Ramp",Kempsey Shire Council,02 6566 3200,Austral Street,Kempsey,Macleay River,NSW,2440,516,POOR,Concrete,true,false,false,false,false,true,false,false,1
0101000020E610000094CF5A3016F76240E2BB96C4BC6A40C0,All Times,-32.8338857398992,151.721458604207,Tomago - Hunter Rv North Arm,Cessnock City Council,02 4993 4100,Tomago Road,Tomago,Hunter River,NSW,2322,517,FAIR,Concrete,false,false,false,false,true,true,false,false,1
0101000020E610000052FD0D528DC662408F1B3940C66A40C0,Shallow At Times,-32.8341751364561,150.204751040767,Dunns Swamp (Wollemi National Park) Boat Ramp,National Parks And Wildlife Services,1300 072 757,Narango Road,"Olinda
(Wollemi National Park)",Cudgegong River,NSW,2849,518,GOOD,Unsealed,false,false,false,false,true,true,false,false,Informal
0101000020E61000001B87D179F00263407C7171AFF76440C0,All Times,-32.7888087562487,152.091854962572,Fishermans Bay Boat Ramp,National Parks And Wildlife Services,1300 072 757,Pacific Street,Fishermans Bay,Ocean,NSW,2316,519,POOR,Sand,false,false,false,false,true,false,false,false,1
0101000020E6100000D24E41E40BD36240EEA4CFA79E9541C0,Shallow At Times,-35.168904281987,150.595201613955,Sussex Road Boat Ramp ,Shoalhaven City Council,02 4429 3111,Sussex Road,Sussex Inlet,Sussex Inlet,NSW,2540,520,POOR,Concrete,true,false,true,false,true,true,false,false,1
0101000020E6100000D90ECB266040624027635DDFDB0042C0,All Times,-36.0067099767678,146.011737248037,Bank Street Boat Ramp,Moira Shire Council (Vic),03 5871 9222,Bank Street,Yarrawonga,Lake Mulwala,VIC,3730,521,GOOD,Concrete,true,false,true,true,true,false,false,false,2
0101000020E6100000480CB87E70C76240DF6C09D602E441C0,All Times,-35.7813365503332,150.232482299298,"Mosquito Bay, Malua Bay",Eurobidalla Shire Council,02 6499 2222,George Bass Drive,Malua Bay,Tasman Sea,NSW,2536,522,GOOD,Concrete,false,false,true,true,true,true,false,false,2
0101000020E610000069F03B83CCD2624085E0E488169641C0,Shallow At Times,-35.1725627057613,150.587464921063,Pacificana Drive Boat Ramp,Shoalhaven City Council,02 4429 3111,Pacificana Drive,Sussex Inlet,Sussex Inlet,NSW,2540,523,POOR,Concrete,false,false,false,false,false,false,true,false,1
0101000020E6100000B193B1BFEC1D6340432B125839B43EC0,Shallow At Times,-30.7040000004156,152.93515000041,Newee Creek - Macksville,Nambucca Shire Council,02 6568 2555,Nursery Road,Macksville,Newee Creek,NSW,2447,524,POOR,Unsealed,false,false,false,false,false,false,false,false,1
0101000020E610000091CDA5AD6711634078B411E2D2C93FC0,All Times,-31.7883740704751,152.543906043848,Lansdowne - Lansdowne River,National Parks And Wildlife Services,1300 072 757,Mill Street,Lansdowne,Lansdowne River,NSW,2163,525,POOR,Concrete,false,false,false,false,false,false,false,false,1
0101000020E6100000382F92937820634097B5A1BBD77D3EC0,All Times,-30.4915730733679,153.014718804852,Urunga Ramp - Upstream,Bellingen Shire Council,02 6655 7300,Atherton Drive,Urunga,Kalang River,NSW,2455,526,GOOD,Concrete,true,false,false,true,false,true,false,false,1
0101000020E61000004A040470DBE26240A9FB2F86C6FD40C0,All Times,-33.9826209768574,151.089286811681,Oatley Bay Boat Ramp,Kogarah City Council,02 9330 9400,Morshead Drive,Hurstville Grove,Georges River,NSW,2220,527,GOOD,Concrete,false,false,false,true,true,true,true,true,3
0101000020E6100000E797F20442326340949A93B932DC3CC0,Shallow At Times,-28.8601490006791,153.570558999839,Martin Street Boat Ramp,Ballina Shire Council,02 6686 4444,Martin Street,Ballina,North Creek,NSW,2478,528,GOOD,Concrete,false,false,false,false,false,false,false,false,1
0101000020E61000006230006584F462402C6B0FE04F8840C0,Shallow At Times,-33.0649375987326,151.641161442155,Belmont Airport Boat Ramp ,Lake Macquarie City Council,02 4921 0333,Naru Street,Pelican,Lake Macquarie,NSW,2281,529,FAIR,Concrete,false,false,false,false,false,true,false,false,1
0101000020E61000003E6DA167FCF16240EE782F56729E40C0,All Times,-33.2378642780112,151.562061133658,Budgewoi Bridge - West (Diamond Drive),Wyong Shire Council,02 4350 5555,Diamond Head Drive,Budgewoi,Budgewoi Creek,NSW,2262,530,GOOD,Concrete,false,false,false,true,false,false,false,false,1
0101000020E6100000A8C75DDC55E26240E00AC409CCE840C0,All Times,-33.8187267501105,151.072981055416,Wharf Road Boat Ramp,Council Of The City Of  Ryde,02 9952 8222,Wharf Road,Ermington,Parramatta River,NSW,2114,531,GOOD,Concrete,false,false,false,true,true,false,true,false,2
0101000020E6100000621A4C9E6C116340B8722F370D0940C0,All Times,-32.0707158071213,152.544509075774,Blackhead Beach Boat Ramp,Great Lakes Council,02 6591 7222,Main Street,Black Head,Ocean,NSW,2430,532,FAIR,Concrete,false,false,true,true,true,false,false,false,1
0101000020E610000009A3D83251056340F67F5F57B15540C0,All Times,-32.6694745270069,152.166161940688,Tea Gardens - Marine Drive East Boat Ramp ,Great Lakes Council,02 6591 7222,Marine Drive,Tea Gardens,Myall River,NSW,2324,533,GOOD,Concrete,false,false,true,true,true,true,true,true,2
0101000020E61000000A7831ED3D27634071DF034A8EFB3DC0,All Times,-29.9826399096923,153.226309391612,Red Rock Reserve Boat Ramp,"North Coast Holiday Parks Red Rocks
(NSW Crown Holiday Parks Trust)",1300 886 235,Ford Street,Red Rock,Corindi River,NSW,2456,534,GOOD,Concrete,false,false,false,false,false,true,false,false,1
0101000020E61000005A64CEB7362A634034219A46046C3DC0,All Times,-29.4219402433675,153.31917944251,"Witonga Dr - Crystal Waters Reserve, Yamba",Clarence Valley Council,02 6643 0200,Witonga Drive,Yamba,Clarence River (Oyster Channel),NSW,2464,535,GOOD,Concrete,true,false,false,true,true,true,true,true,2
0101000020E6100000D5BEBC4774BF6240D4E0C2FB535E42C0,All Times,-36.7369379712633,149.982944363254,Kianinny Bay Boat Ramp ,Bega Valley Shire Council,02 6499 2222,Kianinny Street,Tathra,Ocean,NSW,2550,536,GOOD,Concrete,true,true,false,true,true,true,true,true,3
0101000020E61000009EC726D1820F6340839650521F1040C0,All Times,-32.1259558576103,152.484718871824,Manns Rd - Tuncurry (Wallamba Rv),Great Lakes Council,02 6591 7222,Manns Road,Tuncurry,Wallis Lake,NSW,2428,537,POOR,Unsealed,false,false,false,false,false,false,false,false,1
0101000020E6100000A8470B72DFC5624070223DF955EB41C0,All Times,-35.8385612057217,150.183526060134,"Mossy Point, Tomago River",Eurobodalla Shire Council,02 4429 3111,Via Mossy Point Road,Mossy Point,Tomaga R,NSW,2537,538,GOOD,Concrete,false,false,false,true,true,true,true,false,2
0101000020E6100000B7BA2AFC9919634050FF63B69DA63FC0,All Times,-31.6508440012106,152.800047000366,Laurieton United Services Club Boat Ramp,Port Maquarie-Hastings Council,6581 8111,Seymour Street,Laurieton,Camden Haven Inlet,NSW,2443,539,GOOD,Concrete,false,false,false,true,false,true,true,false,2
0101000020E6100000C767F65D11CA6140CE9C0376352340C0,Shallow At Times,-32.275069000019,142.314620000134,Lake Menindee - Sunset Strip,Central Darling Shire Council,08 8083 8900,Kingfisher Avenue,Menindee,Lake Menindee,NSW,2879,540,FAIR,Concrete,false,false,false,false,false,false,false,false,1
0101000020E610000072603A128EDE6240D05173DB59F340C0,Shallow At Times,-33.9011797249874,150.954842676179,Chipping Norton Lake - Bradbury Wharf Boat Ramp (Hoy Park) ,Fairfield City Council,02 9725 0222,Silverwater Crescent,Lansvale,Chipping Norton Lake / Georges River,NSW,2166,541,GOOD,Concrete,false,false,false,true,false,false,false,false,1
0101000020E6100000B1F8907C282B634004695F0966683DC0,All Times,-29.4078069551406,153.348692210338,Charlie Ryan Park Boat Ramp,Clarence Valley Council,02 6643 0200,Young Street,Iluka,Clarence River (Iluka Bay),NSW,2466,542,POOR,Sand,false,false,false,false,false,false,false,false,1
0101000020E610000032D5AB3F755C6240C97C6BAE2F0B42C0,Shallow At Times,-36.087392618641,146.889312587367,Kremur Street Boat Ramp,Albury City Council,02 6023 8111,Kremur Street,West Albury,Murry River,NSW,2640,543,GOOD,Concrete,false,false,false,true,true,true,false,false,1
0101000020E610000063793015BF056340344A4D661B5C40C0,Shallow At Times,-32.7195861699478,152.179575533558,Shoal Bay Ramp,Port Stephens Council,02 4980 0255,Shoal Bay Road,Shoal Bay,Port Stephens,NSW,2315,544,GOOD,Concrete,false,false,false,true,true,false,false,false,2
0101000020E6100000E019CE8AA8196340D9FE3B33FAA53FC0,All Times,-31.6483490010713,152.801823999921,Tunis Street Boat Ramp,Port Maquarie-Hastings Council,02 6581 8111,Tunis Street,Laurieton,Camden Haven Inlet,NSW,2443,545,POOR,Concrete,true,false,false,true,true,true,true,false,1
0101000020E6100000CACAFD183F1063402DD6890AA91640C0,All Times,-32.1770337269812,152.507702346504,Forster Boatharbour Boat Ramp,Great Lakes Council,02 6591 7222,Mackeral Terrace,Forster,Wallis Lake,NSW,2428,546,GOOD,Concrete,false,false,false,true,false,true,true,false,4
0101000020E610000033343AF217DB62402E2AA8A59C4F41C0,High Tide Only,-34.6219679900281,150.846673120193,Minnamurra River (Bridge Ramp),The Council Of The Municipality Of Kiama,02 4232 0444,Riverside Drive,Minnamurra,Minnamurra River,NSW,2533,547,GOOD,Concrete,true,false,false,true,true,true,true,false,1
0101000020E6100000A6FE0024832B6340B0B3367BDD6E3DC0,All Times,-29.4330670364904,153.359758378928,"Hickey Island, Yamba",Clarence Valley Council,02 6643 0200,Harbour Street,Yamba,Clarence River (Yamba Bay),NSW,2464,548,FAIR,Concrete,true,false,false,true,true,true,true,true,1
0101000020E610000020B6DEB552D862406AF9E665E37341C0,All Times,-34.9053771379284,150.760096487983,Crookhaven Heads Boat Ramp,Shoalhaven City Council,02 4429 3111,Prince Edward Avenue,Crookhaven Heads,Crookhaven River,NSW,2540,549,FAIR,Concrete,false,false,false,true,true,true,true,false,3
0101000020E6100000DD36D6572E9A624073407B70807641C0,All Times,-34.925794658834,148.818157118213,"Hume Park Tourist Resort Boat Ramp,
Lake Burrinjuck",Hume Park Tourist Resort,02 6227 1235,Patmores Road,Good Hope,"Lake Burrinjuck /
Murrumbidgee River",NSW,2582,550,GOOD,Concrete,false,true,true,false,true,true,false,false,1
0101000020E61000005E90763FB11E6240EF4BC5EA76C241C0,Shallow At Times,-35.5192540610659,144.959136706896,"Mcleans Beach, Deniliquin - Edward River",Deniliquin Council,03 5898 3000,Butler Street,Deniliquin,Edward River,NSW,2710,551,GOOD,Concrete,true,false,false,true,true,false,false,false,2
0101000020E61000009C6DB98F150E634037F6BE27100C40C0,All Times,-32.0942430193358,152.440132009663,"Wallamba River - Willow Point Road, Failford",Great Lakes Council,02 6591 7222,Willow Point Road,Failford,Wallamba River,NSW,2430,552,POOR,Unsealed,false,false,false,false,false,false,false,false,1
0101000020E6100000B97C7107A132634020A2C80624423CC0,All Times,-28.2583622207477,153.582156869559,Cudgen Creek Boat Ramp,Tweed Shire Council,02 6670 2400,Marine Parade,Kingscliff,Cudgen Creek,NSW,2487,553,GOOD,Concrete,true,false,false,false,false,false,false,false,2
0101000020E6100000B75F4DF69428634031C5D29AA26C3DC0,Shallow At Times,-29.4243561520172,153.268183852311,"Big River Sailing Club Ramp, Harwood Island Clarence River",Big River Sailing Club,02 6646 4517,Careys Lane,Harwood,Clarence River,NSW,2465,554,POOR,Sand,false,false,false,false,false,false,false,false,1
0101000020E6100000DD82D66A70C961408D7E0E626B2941C0,All Times,-34.3235895701192,142.294972819297,Karadoc - Murray River Vic,Parks Victoria,13 1963 ,Eddy Road,Karadoc,Murray River,VIC,3498,555,GOOD,Concrete,false,false,false,false,true,false,false,false,1
0101000020E61000005EDAA7BAE8F462408DD6AEA8558640C0,Shallow At Times,-33.0494891027166,151.653409316862,Belmont Park Boat Ramp,Lake Macquarie City Council,02 4921 0333,Paley Cresent ,Belmont South,Lake Macquarie,NSW,2280,556,GOOD,Concrete,false,false,false,false,false,true,false,false,1
0101000020E6100000DC1779EC0431634026E738CFCB2F3CC0,All Times,-28.1867036355899,153.531851040373,Kennedy Drive Boat Ramp (Ray Pascoe Park),Tweed Shire Council,02 6670 2400,Kennedy Drive,Tweed Heads,Terranora Creek,NSW,2485,558,GOOD,Concrete,true,false,false,true,true,true,true,false,2
0101000020E6100000B22CF6A811206340386EEB3B55A53EC0,All Times,-30.6458318185598,153.002155762491,"RSL Club Car Park, Nambucca Heads",Nambucca Shire Council,02 6568 2555,Riverside Drive,Nambucca Heads,Nambucca River,NSW,2448,559,POOR,Concrete,true,false,true,false,false,true,false,false,2
0101000020E61000007EC04B5CB32D6340464A20617A033DC0,All Times,-29.0135861114343,153.428144596055,Broadwater,Lismore City Council,1300 878 387,Coraki-Broadwater Road,Broadwater,Richmond River,NSW,2472,560,POOR,Bitumen,false,false,false,false,false,false,false,false,1
0101000020E6100000C2EC7FF6D51E634048424715A0B33EC0,Shallow At Times,-30.7016614245388,152.963618516782,Belmore Channel - South Nambucca,Bellingen Shire Council,02 6655 7300,Pacific Highway,Nambucca Heads,Nambucca River,NSW,2448,561,POOR,Unsealed,true,false,true,false,false,false,false,false,1
0101000020E6100000FB240EE6C32C6340E1EF4FA3BDFF3CC0,All Times,-28.9989873953017,153.39891340983,Dungarubba Boat Ramp,Lismore City Council,1300 878 387,Coraki-Broadwater Road,Dungarubba,Richmond River,NSW,2480,562,GOOD,Concrete,false,false,false,false,true,true,false,false,1
0101000020E6100000E2AC27190AEE624015CE7D5DA2AB40C0,All Times,-33.3408924927027,151.438732697955,Bluebell Park Boat Ramp,Wyong Shire Council,02 4350 5555,Panorama Parade,Berkeley Vale,Tuggerah Lake,NSW,2261,563,POOR,Sand,false,false,false,false,false,false,false,false,1
0101000020E610000095495541830E63400C2D88E609EB3FC0,All Times,-31.9181198198758,152.453522364213,Taree - West End Avenue,Greater Taree City Council,02 6592 5399,West End Avenue,Taree,Manning River,NSW,2430,564,FAIR,Concrete,false,false,false,false,false,true,false,false,1
0101000020E6100000555CE935C12E6340376C4BF330463CC0,All Times,-28.2741844233644,153.46108527735,Riverside Drive Boat Ramp,Tweed Shire Council,1300 292 872,Riverside Drive,Tumbulgum,Tweed River,NSW,2490,565,GOOD,Bitumen,true,false,false,false,false,false,false,false,2
0101000020E6100000CE892024F0F26240D3F58D47568440C0,All Times,-33.0338830416837,151.591814101745,Styles Point,Lake Macquarie City Council,02 4921 0333,Overhill Road,Rathmines,Lake Macquarie,NSW,2267,566,GOOD,Concrete,false,false,false,true,true,true,true,false,2
0101000020E6100000212C034F35DE624069B29771A4EB3DC0,All Times,-29.9204779620508,150.944007402607,Copeton Dam Boat Ramp,Copeton Waters State Park,02 6723 6269,Copeton Dam Road,Inverell,Copeton Dam,NSW,2360,567,GOOD,Unsealed,true,false,true,false,true,false,false,false,Informal
0101000020E6100000A8A27DADCB1D63401A53C84E78B13DC0,All Times,-29.6932420004915,152.93111300028,Junction Hill Boat Ramp,Clarence Valley Council,02 6643 0200,Prince Street,Grafton,Clarence River,NSW,2460,568,POOR,Not Provided,false,false,false,false,false,false,false,false,1
0101000020E6100000571D4C780FC5624004E77D352FFA41C0,Shallow At Times,-35.9545657028921,150.158138416921,"Congo Campground, Congo Creek (Eurobodalla National Park)",National Parks And Wildlife Services,02 4476 0800,Congo Road,Congo,Congo Creek,NSW,2537,569,POOR,Sand,false,false,false,false,false,false,false,false,1
0101000020E61000003044E36B4FBC6140E90D038C670E41C0,All Times,-34.1125350012697,141.88469499958,"Wentworth  2 (Sand Hopper), Murray River",Wentworth Shire Council,03 5027 5027,Log Bridge Road,Wentworth,Murray River,NSW,2648,570,GOOD,Concrete,false,false,false,false,false,true,false,false,1
0101000020E610000038B5BEE653E962407C0D23FBFA2A40C0,All Times,-32.3357843323856,151.291491863705,Glennies Creek Boat Ramp,Cessnock City Council,02 4993 4100,Carrowbrook Road,Singleton,Lake St Clair,NSW,2330,571,GOOD,Concrete,true,true,false,false,true,false,false,false,2
0101000020E6100000271D02A54B0D634021C9EE0BBBEE3FC0,All Times,-31.9325416048024,152.415483955506,Tinonee - Manning River,Greater Taree City Council,02 6592 5399,Hutchinson Street,Tinonee,Manning River,NSW,2430,572,POOR,Concrete,false,false,false,true,false,false,false,false,1
0101000020E61000000A541E8997CC62400B331C1EC2C041C0,High Tide Only,-35.5059239995663,150.393498000369,Bawley Point Boat Ramp,Shoalhaven City Council,02 4429 3111,Tingira Ave,Bawley Point,Ocean,NSW,2539,573,FAIR,Concrete,false,false,false,false,false,true,false,false,1
0101000020E6100000468861485FDA6240D0360A36A68141C0,All Times,-35.0128848600267,150.824131193631,Currarong Boat Ramp (Yalwal Street),Shoalhaven City Council,02 4429 3111,Yalwal Street,Currarong,Ocean,NSW,2540,574,GOOD,Concrete,true,false,false,false,true,true,false,false,1
0101000020E610000025A1A0055593624085E05A1CEF2C42C0,All Times,-36.3510470813499,148.604128659944,Waste Point Road Boat Ramp,National Parks And Wildlife Services,1300 072 757,Waste Point Road,Jindabyne,Lake Jindabyne,NSW,2627,575,GOOD,Unsealed,false,false,false,false,true,false,false,false,1
0101000020E61000005D8B6E362DE56240A4D651961BF940C0,All Times,-33.9461543941118,151.161769119174,Kyeemagh Boat Ramp,Kogarah City Council,02 9330 9400,Mutch Avenue,Kyeemagh,Cooks River,NSW,2216,576,GOOD,Concrete,false,false,false,true,true,true,true,true,4
0101000020E61000007AC04D843220634059BB0AAE6D9B3EC0,High Tide Only,-30.6071423317147,153.006166602954,Deep Creek Boat Ramp\,Bellingen Shire Council,02 6655 7300,Ocean View Drive,Valla Beach,Deep Creek,NSW,2448,577,FAIR,Concrete,true,false,false,false,true,true,false,false,1
0101000020E610000044617D3DFE20634085E52DC956E33EC0,All Times,-30.8880429970791,153.03103517998,"Back Creek Boat Ramp",Kempsey Shire Council,02 6566 3200,"Boat Ramp Access Rd",South West Rocks,South West Rocks Creek,NSW,2431,578,FAIR,Concrete,false,false,false,true,false,true,false,false,2
0101000020E61000002D98118DF91763400D5F706801D73FC0,All Times,-31.8398652338356,152.749212774624,Crowdy Head Boat Harbour,Greater Taree City Council,02 6592 5399,Crowdy Street,Crowdy Head,Ocean,NSW,2427,579,GOOD,Concrete,true,false,false,true,true,true,true,true,4
0101000020E6100000C72E7B8D989E6240A52F5DD968FB40C0,Shallow At Times,-33.964137239934,148.956122150985,Wyangala Dam,Wyangala Waters State Park,02 6345 0877,Wyangalaroad,Wyangala,Wyangala Dam,NSW,2808,580,GOOD,Concrete,true,true,true,false,false,true,false,false,2
0101000020E6100000BE3D10F3762A634036E9631DE9AC3DC0,Shallow At Times,-29.6754320496486,153.327020198556,Sandon River,Clarence Valley Council,02 6643 0200,Sandon Road,Sandon,Sandon River,NSW,2462,581,FAIR,Concrete,true,true,false,false,true,true,false,false,1
0101000020E610000025E39ADD201E624093EF3B13A4C141C0,Shallow At Times,-35.5128196756988,144.941511919512,Harfluer Street Boat Ramp,Deniliquin Council,03 5898 3000,Harfluer Street,Deniliquin,Edward River,NSW,2710,582,GOOD,Concrete,false,false,false,false,false,false,false,false,1
0101000020E61000007CCE86AF5DDB6240B47EE70FED3D41C0,All Times,-34.4837970619532,150.855186236662,Lake Illawarra - Berkeley Harbour,Wollongong City Council,02 4227 7111,Northcliffe Drive,Berkeley,Lake Illawarra,NSW,2506,583,GOOD,Concrete,false,false,true,true,true,true,true,false,2
0101000020E6100000166F349978226340EBBC9AA3A1913DC0,All Times,-29.5688726666239,153.077221491251,Cowper Boat Ramp ,Clarence Valley Council,02 6643 0200,Clarence St,Cowper,Clarence River (South Arm),NSW,2460,584,POOR,Not Provided,false,false,false,false,false,false,false,true,1
0101000020E6100000D7E93D6DA4C46240441D936B1BD341C0,All Times,-35.6492742985088,150.145071621823,East Bridge Boat Ramp (Thule Road),Eurobodalla Shire Council,02 4474 1000,Thule Road,Nelligen,Clyde River,NSW,2536,585,FAIR,Concrete,false,false,false,true,false,false,false,false,1
0101000020E6100000FEA969E37BC2624065AB9D1923C340C0,Shallow At Times,-33.5245086688872,150.077623087287,Lake Lyell (Recreation Area),Lithgow City Council,02 6354 9999,Rydal Sodwalls Tarana Road,Rydal,Lake Lyell,NSW,2790,586,GOOD,Concrete,true,true,true,false,true,true,true,false,2
0101000020E610000038C71443A029634013708EE569C63DC0,Shallow At Times,-29.7750533554791,153.300813236792,Minnie Waters,Clarence Valley Council,02 6643 0200,Beach Street,Minnie Waters,Minnie Waters - Tasman Sea,NSW,2462,587,POOR,Sand,false,true,false,false,false,false,false,false,1
0101000020E610000007E6D29D22236340EA34619603813DC0,All Times,-29.5039609896966,153.097975646888,River Bank Road Boat Ramp,Clarence Valley Council,02 6643 0200,Weir Road,Lower Southgate,Clarence River,NSW,2460,588,GOOD,Not Provided,true,false,false,false,false,false,false,false,1
0101000020E6100000904840935DDC6240F0BCE639094C41C0,All Times,-34.5940315605784,150.886422753862,Shellharbour (Bass Point Ocean Ramp),Shellharbour City Council,02 4221 6111,Bass Point Tourist Road,Shell Cove,Tasman Sea,NSW,2529,589,GOOD,Concrete,false,false,false,false,false,false,false,false,2
0101000020E610000005E455F433D06240EBE7B2E50DA241C0,High Tide Only,-35.2660491107525,150.506342094188,Cunjurong Boat Ramp,Shoalhaven City Council,02 4429 3111,York Street ,Cunjurong Point,Lake Conjola,NSW,2539,590,FAIR,Concrete,true,false,false,false,true,true,false,false,1
0101000020E6100000B0D49218511F6340E92FA4B6EC2F3FC0,Shallow At Times,-31.1872057104919,152.978649412898,"Killick Creek Boat Ramp",Kempsey Shire Council,02 6566 3200,Reserve Road,"Crescent Head
",Killick Creek,NSW,2440,591,FAIR,Concrete,true,false,false,true,true,true,false,false,2
0101000020E6100000D4A61CF477286340CFF2F5C5DFDE3DC0,Shallow At Times,-29.8706020093403,153.264642768822,Wooli River Caravan Park Boat Ramp,Clarence Valley Council,02 6643 0200,Riverside Drive,Wooli ,Wooli Wooli River,NSW,2462,592,POOR,Concrete,false,false,false,false,false,false,false,false,1
0101000020E6100000E5FF84191CD56240DF501A837B8E41C0,All Times,-35.1131442907806,150.65968013741,"Wrights Beach, St Georges Basin",Shoalhaven City Council,02 4429 3111,Fisher Street,St Georges Basin,St Georges Basin,NSW,2540,593,POOR,Concrete,false,false,false,false,false,false,false,false,1
0101000020E61000006F99B2A32CF3624000B03B16E38140C0,All Times,-33.0147426406329,151.599199150874,Toronto Marina,Lake Macquarie City Council,02 4350 5555,Wharf Street,Toronto,Lake Macquarie,NSW,2283,594,GOOD,Concrete,true,false,true,true,true,true,true,false,2
0101000020E6100000002B22C2BFC56240463DB54FC7D941C0,All Times,-35.7013949999769,150.179657999739,"North Bridge, Batemans Bay",Eurobodalla Shire Council,02 4429 3111,Wray Street,Batemans Bay,Clyde River,NSW,2536,595,FAIR,Concrete,false,false,false,true,true,true,false,false,2
0101000020E6100000CFC43C3B58C46240CC7C51DEDE2642C0,All Times,-36.3036764047516,150.135770434083,Mystery Bay Boat Ramp ,Eurobodalla Shire Council,02 4429 3111,Mystery Bay Road,Mystery Bay ,Ocean,NSW,2546,596,POOR,Sand,false,false,false,false,false,false,false,false,1
0101000020E6100000DF4F8DBDA89662409385BAA7230542C0,Shallow At Times,-36.0401506100417,148.708098197937,"Old Adaminaby, Lake Eucumbene",Snowy River Shire Council,02 6451 1195,Snowy Mountains Highway,Kosciuszko National Park,Lake Eucumbene,NSW,2720,597,GOOD,Concrete,false,false,true,false,true,false,false,false,1
0101000020E6100000EE64304DE7DB6240A19DE70DC64941C0,All Times,-34.576356638044,150.87198504879,Shellharbour (Harbour Ramp),Shellharbour City Council,02 4221 6111,Towns Street,Shellharbour,Shellharbour,NSW,2529,598,GOOD,Concrete,false,false,true,true,true,true,false,false,2
0101000020E610000084AF44CEE1CF624034A668D75AE23EC0,All Times,-30.8841986303798,150.496314176704,Lake Keepit Boat Ramp,Inland Waters Holiday Parks Group,02 4967 2233,Keepit Damn Road,Keepit,Lake Keepit,NSW,2340,599,GOOD,Concrete,true,false,true,false,true,false,false,true,1
0101000020E6100000B112498105326240842555D0EDE741C0,All Times,-35.8119450011973,145.563171999665,Tocumwal Boat Ramp (Upstream),Berrigan Shire Council,03 5888 5100,Deniliquin Road,Tocumwal,Murray River,NSW,2714,600,POOR,Concrete,false,false,false,false,false,false,false,false,1
0101000020E61000004989F5BE1201624007D76A9CC48B41C0,Shallow At Times,-35.0919375917129,144.033538322032,Moulamein Town Boat Ramp,Wakool Shire Council,03 5887 5007,Mcbean Place,Moulamein,Edward River,NSW,2733,602,GOOD,Concrete,true,false,false,false,false,false,false,false,1
0101000020E610000038B0FD1A7F316340506F798A6EDD3CC0,All Times,-28.8649679705116,153.546765799985,Fishery Creek Boat Ramp,Ballina Shire Council,02 6686 4444,Johnson Drive,West Ballina,North Creek / Fishery Creek,NSW,2478,603,GOOD,Concrete,false,false,false,true,true,true,true,true,2
0101000020E610000071F9487C0224634017551E580C4A3EC0,All Times,-30.2892508577398,153.125303404358,Coffs Harbour Creek - Melittas Avenue Boat Ramp,Coffs Harbour City Council,02 6648 4000,Melittas Avenue,Coffs Harbour,Coffs Harbour Creek,NSW,2450,604,POOR,Unsealed,false,false,false,false,false,false,false,false,1
0101000020E6100000884B5D42A2C36240036AA78AB31442C0,Shallow At Times,-36.1617291753246,150.113557035653,Atunga Street Boat Ramp,Eurobodalla Shire Council,02 4429 3111,Atunga Street,Dalmeny,Lake Mummuga,NSW,2546,605,FAIR,Unsealed,false,false,false,false,false,false,false,false,1
0101000020E61000009569FCFB3F206340DA22174D0CA53EC0,High Tide Only,-30.6447189504132,153.007810585969,Wellington Drive. Nambucca Heads,Nambucca Shire Council,02 6568 2555,Wellington Drive,Nambucca Heads,Nambucca River,NSW,2448,606,POOR,Concrete,false,false,false,false,false,false,false,false,1
0101000020E61000007C9F874FE6F36240FE4C2579AA5C40C0,Shallow At Times,-32.7239524299748,151.621864094628,Morpeth Boat Ramp,Maitland City Council,02 4934 9700,Queens Wharf Road,Morpeth,Hunter River,NSW,2321,607,GOOD,Concrete,false,false,true,false,true,true,true,false,2
0101000020E6100000C5EEC949A9C56240ED2B36B2EED941C0,All Times,-35.7025969280729,150.176915068054,"South Bridge, Batemans Bay",Eurobodalla Shire Council,02 4429 3111,Princes Highway,Batemans Bay,Clyde River,NSW,2536,608,GOOD,Concrete,false,false,false,true,true,false,false,false,2
0101000020E61000008AE3A823A98362404213AF33E78841C0,Shallow At Times,-35.0695557217464,148.114396886693,Morleys Creek Boat Ramp,Gundagai Shire Council,02 6944 0200,O L Bell Drive,Gundagai,Morleys Creek,NSW,2722,609,GOOD,Concrete,false,false,false,false,false,false,false,false,1
0101000020E610000015DF8B7306C86240CABBE97713DB41C0,Shallow At Times,-35.7115316287305,150.250787518679,Maloneys Beach Boat Ramp,Eurobodalla Shire Council,02 4429 3111,Hibiscus Close,Maloneys Beach,Batemans Bay,NSW,2536,610,FAIR,Sand,true,false,false,false,true,false,false,false,Informal
0101000020E6100000B6DB08A9DBF26240ED3DAF2D3C8940C0,All Times,-33.0721490007089,151.589314000417,Dobell Memorial Park,Lake Macquarie City Council,02 4921 0333,Dobell Drive,Lake Macquarie,Lake Macquarie,NSW,2280,611,GOOD,Concrete,true,false,false,true,true,false,false,false,2
0101000020E6100000DBABDD00F893624065619BA1A57D41C0,Shallow At Times,-34.9816171654409,148.624023850395,Burrinjuck State Waters Boat Ramp,Burrinjuck Waters Holiday Park,02 6227 8114,Burrinjuck Road,Burrinjuck,Lake Burrinjuck,NSW,2582,612,FAIR,Concrete,true,true,true,false,true,false,false,false,1
0101000020E6100000673D8446B0DA62407B161458004741C0,All Times,-34.5546979997716,150.834017999917,Lake Illawarra - Oak Flats Ski Park,Shellharbour City Council,02 4221 6111,The Esplanade ,Oak Flats,Lake Illawarra,NSW,2529,613,GOOD,Concrete,true,false,false,true,true,true,true,false,1
0101000020E610000017F3504D49C66240FFA96CFDF4DB41C0,All Times,-35.7184139996134,150.196448000054,"Hanging Rock Boat Ramp, Batemans Bay",Eurobodalla Shire Council,02 4474 1000,Hanging Rock Place,Batemans Bay,Clyde River,NSW,2536,614,GOOD,Concrete,false,false,false,true,true,true,true,true,3
0101000020E61000004098EC6516C761407A2F4C211D1741C0,All Times,-34.1805764791488,142.22148414812,"James King Park Boat Ramp, Gol Gol - Murray River",Wentworth Shire Council,03 5027 5027,Sturt Highway,Gol Gol,Murray River,NSW,2738,615,GOOD,Concrete,true,false,false,true,true,true,false,false,1
0101000020E61000007511CCE6BAEE6240BC1525BB5AA540C0,All Times,-33.2918313914374,151.460315130778,Tacoma - Wyong River,Wyong Shire Council,02 4350 5555,Wolseley Avenue,Tacoma,Wyong River,NSW,2259,616,GOOD,Concrete,false,false,false,false,false,false,true,false,1
0101000020E610000038261B8BADC2624031CDDDEE3CF441C0,Shallow At Times,-35.9081095297828,150.083684494997,"Town Wharf, Moruya River",Eurobidalla Shire Council,02 6499 2222,Ford Street,Moruya,Moruya River,NSW,2537,617,GOOD,Concrete,false,false,true,true,true,true,true,true,1
0101000020E61000002DBFECF546266340F860803F39773DC0,All Times,-29.4657172859597,153.196162187954,"Lawrence Road, Maclean (Woodford Is.)",TBD,TBD,Lawrence Road,Maclean,Clarence River,NSW,2463,618,POOR,Unsealed,false,false,false,false,false,false,false,false,1
0101000020E61000007335EF94E91C6340E4225DF3276E3FC0,All Times,-31.4302970983871,152.903513400273,"Buller Street Boat Ramp, Port Macquarie",Port Macquarie Hastings Council,02 6581 8111,Buller Street,Port Macquarie,Hastings River Back Channel,NSW,2444,619,GOOD,Concrete,false,false,false,true,false,true,true,false,2
0101000020E6100000D43A95D919EB6140630C6055638D41C0,Shallow At Times,-35.10459391775,143.346905509438,Wood Wood,Swan Hill Rural City Council,03 5036 2333,Murray Valley Highway,Wood Wood,Murray River,NSW,2832,620,GOOD,Concrete,false,false,false,false,true,true,false,false,1
0101000020E6100000F1C6D8B27C286340DD43EFE74DD53CC0,Daylight Hours Only,-28.833220001139,153.265221999543,Lake Gates - Lismore Lake,Lismore City Council,1300 878 387,Bruxner Highway,South Lismore,Wilsons River,NSW,2480,621,FAIR,Concrete,false,false,false,false,false,false,false,false,1
0101000020E6100000FE997127B9DD6240132FE5C8192F41C0,Shallow At Times,-34.3679743880331,150.928851816061,Bellambi Boat Ramp (Main Ramp),Wollongong City Council,02 4227 7111,Robert Cram Drive,Bellambi,Ocean,NSW,2518,622,GOOD,Concrete,false,false,false,true,false,true,true,false,4
0101000020E6100000B074094D921E6240F164A7F10BF541C0,All Times,-35.9144270007472,144.955358999699,Swifts Creek Boat Ramp,National Parks And Wildlife Services,1301 072 757,Swifts Creek Road,Mathoura,Murray River,NSW,2710,623,GOOD,Concrete,true,false,false,false,true,false,false,false,1
0101000020E6100000E460DBF857E4624084586DE03A5C3FC0,All Times,-31.3602733866651,151.135738781427,Bowling Alley Point Recreation Reserve Boat Ramp,Bowling Alley Point Recreation Reserve Trust,02 6740 2100,Tamworth Nundle Road,Bowling Alley Point ,Chaffey Dam,NSW,2340,624,GOOD,Concrete,false,false,false,false,true,false,false,false,1
0101000020E6100000406DCFFA4C116340B75151415B2A40C0,Shallow At Times,-32.3309098860804,152.540646939402,Elizabeth Beach ,Great Lakes Council,02 6591 7222,Lakeside Crescent,Elizabeth Beach,Ocean,NSW,2428,625,POOR,Concrete,false,false,false,false,false,true,false,false,1
0101000020E610000013436B6833356240030AC790E4F441C0,All Times,-35.913225266635,145.662525376793,Thompsons Beach Ramp,Moira Shire Council (Vic),03 5871 9222,Cobram Road,Cobram,Murray River,NSW,3643,626,GOOD,Concrete,false,false,false,false,true,false,false,true,2
0101000020E6100000F20B1807971E62408F7C9B1A680242C0,All Times,-36.0188019999706,144.955935999838,Barmah Township Boat Ramp,Moira Shire Council (Vic),03 5871 9222,Barmah Road,Barmah,Murray River,VIC,3639,627,FAIR,Concrete,false,false,false,false,false,false,false,false,1
0101000020E6100000091D467F41DB62409DE0F65D614F41C0,High Tide Only,-34.6201589065033,150.851745259228,Minnamurra River (James Holt Reserve),The Council Of The Municipality Of Kiama,02 4232 0444,Charles Avenue,Minnamurra,Minnamurra River,NSW,2533,628,GOOD,Concrete,false,false,false,false,false,true,false,false,1
0101000020E610000053009C6223BD62400FF28970B77242C0,All Times,-36.8962231324732,149.910569481554,Merimbula South Boat Ramp,Bega Valley Shire Council,02 6499 2222,Arthur Kaine Drive,Merimbula ,Merimbula Lake (Ocean),NSW,2548,629,GOOD,Concrete,false,false,false,true,true,true,true,true,3
0101000020E6100000A9C403AFC9EF62402D77E53B1CAB40C0,All Times,-33.3367991323888,151.493369586334,The Entrance - Picnic Point Boat Ramp,Wyong Shire Council,02 4350 5555,Tuggerah Parade,The Entrance,Tuggerah Lake,NSW,2261,630,GOOD,Concrete,false,false,false,true,true,true,false,true,4
0101000020E61000004402A470F82A63407BFDE183C8113DC0,All Times,-29.0694658686384,153.342827148752,North Woodburn,TBD,TBD,Bank St,Woodburn,Richmond River,NSW,2471,631,FAIR,Concrete,false,false,false,false,false,false,false,false,1
0101000020E61000000BE716806FDB62401C9EB1880B3E41C0,Shallow At Times,-34.4847269885324,150.857360882503,Lake Illawarra - Berkeley (East Ramp),Wollongong City Council,02 4227 7111,Northcliffe Drive,Berkeley,Lake Illawarra,NSW,2506,632,GOOD,Concrete,false,false,false,false,true,true,true,false,2
0101000020E610000044B71A2BB6C1624027D07B53F83042C0,Shallow At Times,-36.382578311401,150.053487350635,Fairhaven Point Boat Ramp,Bega Valley Shire Council,02 6499 2222,Fairhaven Point Road,Fairhaven Point,Wallaga Lake,NSW,2546,633,POOR,Unsealed,false,false,false,false,false,false,false,false,1
0101000020E6100000BD8622835A1063407B11174DE01740C0,Shallow At Times,-32.1865326273573,152.511048858103,Little Street Boat Ramp,Great Lakes Council,02 6591 7222,Little Street,Forster,Wallis Lake,NSW,2428,634,FAIR,Concrete,false,false,true,true,true,true,true,false,1
0101000020E6100000D968420DB1406240BBBCD223A01A41C0,All Times,-34.2080120829573,146.021612767893,Lake Wyangan,Clarence Valley Council,02 6643 0200,Lakes Road,Griffith,Lake Wyangan,NSW,2603,635,GOOD,Concrete,true,false,false,false,true,false,false,false,1
0101000020E6100000A9075912B68B62406476DAD127E941C0,Shallow At Times,-35.8215277020179,148.365975545775,Talbingo Dam,Snowy  Hydro,02 6453 2888,Elliot Way,Tumbarumba,Talbingo Reservoir,NSW,2653,636,POOR,Unsealed,true,false,false,false,true,false,false,false,2
0101000020E6100000A056048C2EB46240F6DAF902B3C840C0,Shallow At Times,-33.5679630012509,149.630681999658,Ben Chifley Dam Cabins Boat Ramp,Bathurst Regional Council,02 6333 6111,Chifley Dam Road,The Lagoon,Chifley Dam,NSW,2795,637,GOOD,Concrete,true,false,false,false,true,true,false,false,1
0101000020E610000077587059281A63400196888CEFA33FC0,Shallow At Times,-31.6403739770376,152.817425460267,North Haven,Port Macquarie Hastings Council,02 6581 8111,Ocean Drive,North Haven,Camden Haven River,NSW,2443,638,GOOD,Bitumen,false,false,false,true,true,true,false,true,2
0101000020E61000003AC93537C831634082F4B0A2A63B3CC0,Shallow At Times,-28.2330114061374,153.555690388728,Chinderah Boat Ramp (Oxley Park) ,Tweed Shire Council,02 6670 2400,Chinderah Bay Drive,Chinderah ,Tweed River,NSW,2487,639,POOR,Bitumen,false,false,true,true,true,true,false,false,1
0101000020E6100000CA6B0E24D01C6340A58B66B7BE6D3FC0,All Times,-31.4286913514476,152.900407817999,Westport Park Boat Ramp,Port Macquarie-Hastings Council,02 6581 8111,Park Street,Port Macquarie,Hastings River,NSW,2444,640,GOOD,Concrete,false,false,false,true,false,true,true,true,4
0101000020E610000041FF35CE360C6340252E174C0ADF3FC0,All Times,-31.8712508732407,152.381690125907,Wingham - Manning River,Greater Taree City Council,02 6592 5399,Farquhar Street,Wingham,Manning River,NSW,2429,641,GOOD,Concrete,true,false,false,false,true,true,true,true,2
0101000020E61000001142EBE8849862404E5595FBBD1642C0,Shallow At Times,-36.177672813336,148.766224345673,Buckenderra Road Boat Ramp,Snowy River Shire Council,02 6451 1195,Buckenderra Road,Buckenderra,Lake Eucumbene,NSW,2630,642,FAIR,Concrete,true,true,true,false,true,false,false,false,1
0101000020E610000044CE2D73BA2C634048EF364BC9563CC0,All Times,-28.3390089997404,153.397759999718,Commercial Road (Murwillumbah) Boat Ramp,Tweed Shire Council,02 6670 2400,Commercial Road,Murwillumbah,Tweed River,NSW,2484,643,POOR,Concrete,false,false,false,false,false,false,true,true,1
0101000020E610000054A1C8147ADB6240BD83BDEEE75541C0,All Times,-34.6711405206074,150.858652488571,Kiama Harbour,The Council Of The Municipality Of Kiama,02 4232 0444,Terralong Street,Kiama,Kiama Harbour,NSW,2533,644,GOOD,Concrete,false,false,true,true,true,true,true,false,2
0101000020E61000002638F3E8E2D962403E109F8C4F4341C0,All Times,-34.5258651520421,150.808948969877,Yallah Bay Boat Ramp,NSW Crown Lands,1300 886 235,Yallah Bay Road,Yallah,Lake Illawarra,NSW,2530,645,GOOD,Concrete,false,false,false,false,true,true,true,false,2
0101000020E61000008D41B0EA65F462401CCE5F14CB7F40C0,All Times,-32.9983849971579,151.63744100976,Croudace Bay Boat Ramp,Lake Macquarie City Council,02 4921 0333,Bareki Road,Eleebana,Lake Macquarie,NSW,2282,646,GOOD,Concrete,true,false,false,true,true,true,false,false,3
0101000020E61000009639364DA228634080B4C97734D03CC0,All Times,-28.8133005969471,153.269812208088,Victoria Street Boat Ramp,Lismore City Council,1300 878 387,Victoria Street,Lismore,Wilsons River,NSW,2480,647,GOOD,Not Provided,true,false,false,false,false,false,false,true,2
0101000020E6100000AD91AF3A90246340AC951E79AF4F3EC0,All Times,-30.311271257369,153.142606108578,Coffs Harbour Boat Ramp (Sourthern Side Of Outer Harbour),Coffs Harbour City Council,02 6648 4000,Jordan Esplanade,Coffs Harbour,Coffs Harbour,NSW,2450,648,GOOD,Concrete,false,false,false,true,false,true,false,true,4
0101000020E61000004BC490FCEAC7614006FD49ACEB2441C0,Shallow At Times,-34.2884421693107,142.247434885738,Red Cliffs - Murray River Vic,Parks Victoria,13 1963 ,Pump Road,Red Cliffs,Murray River,VIC,3496,649,GOOD,Concrete,false,false,false,false,false,false,false,false,1
0101000020E6100000F94229939A616240BF25374D9F0B42C0,All Times,-36.0907989997172,147.050119000043,"Apex Park Boat Ramp, Lake Hume (Albury)",Albury City Council,02 6023 8111,Riverina Highway,Lake Hume Village,Lake Hume,NSW,2640,650,GOOD,Concrete,true,false,false,false,true,true,false,false,2
0101000020E6100000793A186C14DA624034DA8E01644741C0,All Times,-34.5577394435426,150.814992949792,Lake Illawarra - Oak Flats Sailng Club,Shellharbour City Council,02 4221 6111,The Boulevarde ,Oak Flats,Lake Illawarra,NSW,2529,651,GOOD,Concrete,true,false,false,true,true,true,true,true,1
0101000020E61000008635E884D0E46240A6F28C90BAEF40C0,High Tide Only,-33.8728810013029,151.150454000028,Hawthorne Canal,Inner West Council,9367 9222,"Canal Road, off Lilyfield Road",Lilyfield,Iron Cove,NSW,2040,652,FAIR,Concrete,false,false,false,false,false,false,true,false,1
0101000020E6100000985FB2A2D0E46240D7BDF17BBCEF40C0,Shallow At Times,-33.8729395799998,151.150468204866,Hawthorn Canal Boat Ramp,Leichhardt Municipal Council,02 9367 9222,Canal Road,Lilyfield,Iron Cove Creek,NSW,2040,653,FAIR,Concrete,false,false,false,false,false,false,false,false,1
0101000020E6100000E9FE8344681F6340FF02D1085DFB3EC0,All Times,-30.9818883428843,152.981477983288,"Summer Island Boat Ramp",Kempsey Shire Council,02 6566 3200,"Summer Island Road",Summer Island,Macleay River,NSW,2440,654,POOR,Unsealed,false,false,false,false,false,false,false,false,1
0101000020E6100000952563FE63E862408F30A9D883EF40C0,All Times,-33.871211130726,151.262206262251,Lyne Park,Waverley Council,02 9369 8000,New South Head Road,Rose Bay,Sydney Harbour,NSW,2029,655,GOOD,Concrete,true,false,false,true,true,false,true,true,2
0101000020E6100000C726D68D57DC62401FC68FA2E6B740C0,All Times,-33.4367259218236,150.885687750115,Lower Portland Public Boat Ramp,Hawkesbury City Council,02 4560 4444,River Road,Lower Portland,Hawkesbury River,NSW,2756,656,POOR,Concrete,false,false,false,false,false,true,false,false,1
0101000020E61000007ADBF9F04B1C6340C25670355BAA3EC0,All Times,-30.6654542350068,152.884270179751,Bowraville South Boat Ramp,Nambucca Shire Council,02 6568 2555,Wilson Road,Congarinni North,Nambucca River,NSW,2447,657,FAIR,Concrete,false,false,false,false,false,false,false,false,1
0101000020E6100000C2390734BCD56240EDAFC182E18841C0,All Times,-35.0693820424784,150.679224027741,Holden Street Boat Ramp - Vincentia ,Shoalhaven City Council,02 4429 3111,Holden Street,Vincentia,Jervis Bay,NSW,2540,658,POOR,Unsealed,false,false,true,false,true,true,false,false,1
0101000020E6100000AD12B4DABF436240380B60C34E0242C0,All Times,-36.0180286616291,146.1171697156,Majors Creek Boat Ramp,Moira Shire Council (Vic),03 5871 9222,Majors Lane,Bundalong,Lake Mulwala,VIC,3730,659,GOOD,Concrete,false,false,false,true,false,false,false,false,2
0101000020E61000009C4F123D5DE7624096D91DB73EEB40C0,Shallow At Times,-33.8378514190437,151.230131660236,Mosman Bay ,Mosman Municipal Council,02 9978 4000,Lower Boyle Street,Mosman,Mosman Bay,NSW,2088,660,POOR,Not Provided,false,false,false,false,false,false,false,false,1
0101000020E6100000C715FD02DA0E624040DD009E7CF841C0,Shallow At Times,-35.9413030151577,144.464112753207,Torrumbarry - Downstream Of Weir,Parks Victoria,13 1963 ,Weir Caravan Park,Torrumbarry,Murray River,VIC,3526,661,GOOD,Concrete,false,false,true,false,true,false,false,false,1
0101000020E6100000E76680AC19C46240F701DC46232242C0,Shallow At Times,-36.2667015623337,150.128134012971,Corunna Lake Boat Ramp,National Parks And Wildlife Services,02 4476 0800,Princes Highway,Narooma,Corunna Lake,NSW,2546,662,GOOD,Concrete,true,false,false,false,true,false,false,false,2
0101000020E610000084DA92487F28634064BDF4DF73DE3DC0,All Times,-29.8689556095609,153.265537535499,"Wooli Wooli River, Fishermans Co-Op",Clarence Valley Council,02 6643 0200,Riverside Drive,Wooli,Wooli Wooli River,NSW,2460,663,POOR,Bitumen,false,false,false,false,false,true,false,false,1
0101000020E61000000A4F450CBB4C62400DE8E4EAC70042C0,All Times,-36.0061009996135,146.397832999581,"Ball Park, Corowa",Corowa Shire Council,02 6033 8999,Sanger Street,Corowa ,Murray River,NSW,2646,664,GOOD,Concrete,false,false,false,false,false,false,false,false,2
0101000020E61000001C7661ABAAE662406592605B3BE340C0,All Times,-33.7752489301245,151.208333673815,Davidson Park - Garigal National Park (Roseville Bridge),National Parks And Wildlife Services,1300 072 757,Healey Way Way,Killarney Heights,Middle Harbour,NSW,2087,665,GOOD,Concrete,true,true,false,true,true,true,true,true,3
0101000020E61000008EF28DE81BF46240DBDB525F4E8B40C0,All Times,-33.0883292345604,151.628406789056,Boyds Hole Boat Ramp,Lake Macquarie City Council,02 4921 0333,The Esplande,Swansea,Lake Macquarie,NSW,2281,666,GOOD,Concrete,false,false,false,false,false,true,true,false,2
0101000020E61000002965CD8665C462401523039412F441C0,Shallow At Times,-35.9068169608419,150.13739338032,Brieleys Boat Ramp (Aerodrome),Eurobodalla Shire Council,02 4474 1000,Bruce Cameron Drive,Moruya,Moruya River,NSW,2537,667,FAIR,Concrete,false,false,false,false,true,false,false,false,2
0101000020E610000079582373832063408897F7948B7D3EC0,All Times,-30.4904111008141,153.016046113047,Urunga Ramp - Downstream,Bellingen Shire Council,02 6655 7300,Atherton Drive,Urunga,Kalang River,NSW,2455,668,GOOD,Concrete,true,false,false,true,false,true,false,false,1
0101000020E61000005B124222EDA9624065F023D74D6B42C0,Shallow At Times,-36.8383130002483,149.310196999594,Black Lake Boat Ramp,Bombala Council,02 6458 3555,Cathcart Road,Bibbenluke,Black Lake,NSW,2632,669,GOOD,Concrete,false,false,false,false,true,false,false,false,1
0101000020E6100000A0A2793AD7E3624060C5B3D2A4CC40C0,All Times,-33.5987800004757,151.120023000306,Berowra Waters Boat Ramp,Hornsby Shire Council,02 9847 6672,Bay Road Berowra Waters,Berowra Waters,Hawkesbury River,NSW,2082,670,GOOD,Concrete,true,false,false,true,true,true,true,true,4
0101000020E6100000985FB2CB6FD3624074B87749B66D41C0,All Times,-34.8571254572461,150.607396934877,Lions Park Boat Ramp,Shoalhaven City Council,02 4429 3111,Bolong Road,Bomaderry,Bomaderry Creek,NSW,2541,671,GOOD,Concrete,true,false,true,true,true,true,true,false,1
0101000020E610000009A212F619406240BCB9FE77954841C0,Shallow At Times,-34.5670614236619,146.00316909446,Darlington Point Boat Ramp (Riverside Caravan Park),Murrumbidgee Shire Council,02 6968 4166,Kidman Way,Darlington Point,Murrumbidgee River,NSW,2706,672,GOOD,Concrete,false,false,false,false,false,false,false,false,1
0101000020E6100000B5DFE20033C16140D80B46FC8C0C41C0,All Times,-34.0980525342963,142.037476008523,Dareton Boat Ramp,Wentworth Shire Council,03 5027 5027,Kookaburra Drive,Dareton,Murray River,NSW,2717,673,GOOD,Concrete,false,false,false,true,false,true,false,false,1
0101000020E61000007716D629F0E56240F7A84FFFDFEB40C0,All Times,-33.8427733553853,151.185566824093,"Manns Pl, Manns Point, Greenwich",Lane Cove Municipal Council,02 9911 3555,Manns Place,Greenwich,Parramatta River,NSW,2065,674,FAIR,Concrete,false,false,false,true,false,false,false,false,1
0101000020E6100000F12B7455E2E462405300134848E940C0,Shallow At Times,-33.822518357542,151.15262863817,Burns Bay Reserve Boat Ramp,Lane Cove Municipal Council,02 9911 3555,Kooyong Road,Riverview,Lane Cove River,NSW,2066,675,GOOD,Concrete,true,false,false,true,true,false,false,false,2
0101000020E61000008A433D1E8DF7624023D87DD16F483EC0,All Times,-30.2829562122571,151.73597633329,Malpas Dam Boat Ramp,Armidale Regional Council,1300 136 833,Malpas Dam Road,Black Mountain,Malpas Dam,NSW,2365,676,FAIR,Concrete,false,false,false,false,false,false,false,true,1
0101000020E6100000FCD27D0B331A62400E76E556094141C0,Shallow At Times,-34.5080975170532,144.818731065512,Soapworks Bend Boat Ramp,Hay Shire Council,02 6990 1100,Jackson Street,Hay,Murrumbidgee River,NSW,2711,677,GOOD,Concrete,false,false,false,false,false,false,false,false,1
0101000020E6100000DB08B60140BF624063D0872BAD5942C0,All Times,-36.7005972302584,149.976563315903,Mogareeka Boat Ramp,Bega Valley Shire Council,02 6499 2222,Tathra-Bermagui Road,Mogareeka,Bega River,NSW,2550,678,GOOD,Concrete,true,false,false,true,true,true,true,true,2
0101000020E6100000E7ED40969AA362409210E22FD45740C0,Shallow At Times,-32.6861629346687,149.112620474639,Lake Burrendong State Park - Main Ramp,Department of Primary Industries - State Parks,02 6846 7435,Fashions Mount Road,Lake Burrendong,Lake Burrendong,NSW,2820,679,GOOD,Concrete,true,true,true,false,true,true,false,false,2
0101000020E610000015011CD1501C6340C626A3D24FB83EC0,All Times,-30.719967999298,152.884865336128,Congarinni Bridge,Nambucca Shire Council,02 6568 2555,Congarinni Road,Macksville,Taylors Arm,NSW,2447,680,POOR,Concrete,false,false,false,false,false,false,false,false,1
0101000020E610000059501624010F634052EDBA3F0FE93FC0,All Times,-31.9103889304509,152.468889278013,Endeavour Place Boat Ramp,Greater Taree City Council,02 6592 5399,Endeavour Place,Taree,Manning River,NSW,2430,681,GOOD,Concrete,true,false,false,true,true,true,true,false,4
0101000020E610000061BF2A4250E46240C6794BF44E0741C0,All Times,-34.0570969933065,151.134797175876,Water Street Boat Ramp,Sutherland Shire Council,02 9710 0333,Water Street,Caringbah South,Port Hacking,NSW,2229,682,GOOD,Concrete,false,false,false,true,false,false,false,false,1
0101000020E6100000DEA07681DAE26240F5695BB256E940C0,All Times,-33.8229582735402,151.089173061081,Blaxland Road Boat Ramp,City Of Canada Bay Council,02 9911 6555,Blaxland Road,Rhodes,Parramatta River,NSW,2138,683,GOOD,Concrete,false,false,false,true,false,false,false,true,3
0101000020E61000002DAED0D7ABCF624006D1852541A241C0,High Tide Only,-35.267613115635,150.489726932124,Aney Street Boat Ramp - Lake Conjola,Shoalhaven City Council,02 4429 3111,Aney Street,Lake Conjola,Conjola Lake,NSW,2539,684,FAIR,Bitumen,false,false,false,true,false,false,false,false,1
0101000020E61000008B3681CDB93063408BD2E0546BDD3CC0,All Times,-28.8649189995654,153.522681000108,Emigrant Creek Boat Ramp ,Ballina Shire Council,02 6686 4444,River Street,West Ballina,Emigrant Creek,NSW,2478,685,GOOD,Concrete,false,false,false,false,false,true,true,true,2
0101000020E6100000944283E4781963405DF29643AE533FC0,All Times,-31.3268778079531,152.796007400863,"Log Wharf Reserve, Telegraph Point",Port Macquarie Hastings Council,02 6581 8111,Hacks Ferry Road,Telegraph Point,Wilson River,NSW,2441,686,GOOD,Concrete,false,false,false,false,true,true,true,false,2
0101000020E61000003FAC0AB6911963400D047D4831A83FC0,All Times,-31.657002001306,152.799036999555,Apex Park Boat Ramp,Port Maquarie-Hastings Council,02 6581 8111,Reid Street,Laurieton,Camden Haven Inlet,NSW,2443,687,POOR,Concrete,true,false,false,true,true,true,false,false,2
0101000020E6100000C6DB7F3C91196340CD2BC35432A83FC0,All Times,-31.6570179916851,152.798979043697,"Apex Park Boat Ramp, Laurieton",Port Macquarie-Hastings Council,0,Ried Street,Laurieton,Camden Haven Inlet,NSW,2443,688,POOR,Concrete,true,false,false,true,true,true,false,false,2
0101000020E610000086921E856B186240C470BA6933B841C0,Shallow At Times,-35.4390690002779,144.763124999725,Benarca Bend Boat Ramp (Stevens Weir),Deniliquin Council,03 5898 3000,Stevens Weir Road,Deniliquin,Edward River,NSW,2710,689,GOOD,Concrete,true,false,false,false,true,false,false,false,1
0101000020E6100000744F48DDFB4B6240B447AED2D85141C0,All Times,-34.6394294119813,146.374495164138,Euroley Bridge Boat Ramp,Leeton Shire Council,02 6953 0911,Euroley Road,Yanco,Murrumbidgee River,NSW,2700,690,GOOD,Concrete,false,false,false,false,false,false,false,false,1
0101000020E6100000045BD4264E616240E18F71361D0D42C0,Shallow At Times,-36.1024539999487,147.04078999973,Hume Weir Resort Boat Ramp,Albury City Council,02 6023 8111,Hume Road,Lake Hume Village,Lake Hume,NSW,2640,691,GOOD,Concrete,false,false,false,false,false,false,false,false,2
0101000020E61000000051F7C9D1C761407331BBDFA12C41C0,All Times,-34.3486900009183,142.244359000244,"Hattah, Murray River",Parks Victoria,13 1963 ,Kulkyne Way Way,Red Cliffs,Murray River,VIC,3496,692,GOOD,Concrete,false,false,false,false,false,false,false,false,1
0101000020E61000005918137FA9DE62400E6027B71CF340C0,All Times,-33.899313825823,150.958190476699,"Chipping Norton Lake, Lansvale",Fairfield City Council,02 9725 0222,Cutler Road,Lansvale,Chipping Norton Lake / Georges River,NSW,2166,693,GOOD,Concrete,false,false,false,true,false,true,true,false,1
0101000020E610000058DB797563E062401DADF4D9BD0D40C0,All Times,-32.1073563046177,151.012140977861,Lake Glenbawn - Upper Hunter River,Upper Hunter Shire Council,02 6540 1100,Eastern Foreshore Drive,Glenbawn,Lake Glenbawn,NSW,2337,694,GOOD,Concrete,true,true,true,false,true,false,false,false,2
0101000020E61000008DCCCCA8CB2163403547E0A30E0E3FC0,Shallow At Times,-31.0549108908228,153.056110763548,"Hat Head Boat Ramp",Kempsey Shire Council,02 6566 3200,Straight Street,"Hat Head
",Korogoro Creek,NSW,2440,695,GOOD,Concrete,false,false,false,true,true,true,false,false,2
0101000020E6100000CF4E8B6E77BD614015E136DDD30D41C0,All Times,-34.1080280797925,141.920829078756,"Wentworth Waterfront Boat Ramp, Darling River",Wentworth Shire Council,03 5027 5027,Adelaide Street,Wentworth,Darling River,NSW,2648,696,GOOD,Concrete,false,false,false,false,true,true,false,false,1
0101000020E6100000D8CAE1F0C2286340B69DC762AE5E3DC0,Shallow At Times,-29.3698484170288,153.273796502114,Fischers Lane,Clarence Valley Council,02 6643 0200,Fischers Lane,Chatsworth Island,Clarence River Middle Channel,NSW,2465,697,POOR,Concrete,false,false,false,false,false,false,false,false,1
0101000020E61000005DBF8B2CD0FE62403ABFA116794540C0,All Times,-32.5427578248768,151.962911866135,Allworth Boat Ramp,Great Lakes Council,02 6591 7222,Stroud Street,Allworth,Karuah River,NSW,2425,698,FAIR,Concrete,false,false,false,false,false,false,true,false,2
0101000020E61000004A3A14293D106340FCAD9FBAE53040C0,Shallow At Times,-32.3820107726751,152.507465877063,Patsys Flat Road Boat Ramp,Great Lakes Council,02 6591 7222,Patsy'S Flat Road,Smiths Lake,Smiths Lake,NSW,2428,699,POOR,Unsealed,false,false,false,false,false,false,false,false,1
0101000020E61000009F9FDACA16D36240E169B1C3E88C41C0,Shallow At Times,-35.1008534065511,150.596532275199,Island Point Boat Ramp,Shoalhaven City Council,02 4429 3111,Island Point Road,St Georges Basin,St Georges Basin,NSW,2540,700,GOOD,Concrete,false,false,true,true,true,true,true,false,3
0101000020E610000059E8BC8C62BD62406DA2716E13A042C0,All Times,-37.2505929999214,149.918279999695,Wonboyn Lake Boat Ramp,Bega Valley Shire Council,02 6499 2222,Wonboyn Road,Wonboyn,Wonboyn Lake,NSW,2551,701,GOOD,Concrete,true,false,false,true,true,true,true,true,1
0101000020E6100000AFE2DAC41405634041231733245B40C0,All Times,-32.7120422232606,152.158785274039,Little Beach,Port Stephens Council,02 4980 0255,Lighthouseroad ,Little Beach,Port Stephens,NSW,2251,702,GOOD,Concrete,true,false,true,true,true,false,false,false,3
0101000020E6100000FC60ECF483EC62404EFEA15D85BC40C0,Shallow At Times,-33.4728199997886,151.391107999494,Kincumber Boat Ramp,Gosford City Council,02 4325 8222,Hawke Street,Kincumber,Kincumber Broadwater,NSW,2251,703,FAIR,Concrete,false,false,false,false,false,false,false,false,2
0101000020E61000003BA6692E69EE624016EF6C9D49B940C0,All Times,-33.4475590497879,151.450339514109,Terrigal Haven,Gosford City Council,02 4325 8222,Terrigal Esplanade,Terrigal,Tasman Sea,NSW,2260,704,GOOD,Concrete,true,false,true,true,true,true,false,false,2
0101000020E6100000CD733F2BD8E2624018E070F8B40041C0,High Tide Only,-34.005522780528,151.088887809687,Oyster Bay Boat Ramp,Sutherland Shire Council,02 9710 0333,Connell Road,Oyster Bay,Georges River,NSW,2225,705,POOR,Bitumen,false,false,false,true,false,false,false,false,1
0101000020E61000006C6668118EE8624085B13BD0EEC640C0,Shallow At Times,-33.5541630069229,151.267342285067,Patonga Creek Boat Ramp,Gosford City Council,02 4325 8222,Bay Street,Patonga,Patonga Creek,NSW,2256,706,GOOD,Concrete,true,false,false,false,true,false,false,false,1
0101000020E6100000100CEAF52FAE624093E282006C3A3EC0,All Times,-30.2282104796928,149.443354565738,Wee Waa Lagoon Boat Ramp,Narrabri Shire Council,02 6799 6866,6 Charles Street,Wee Waa,Wee Waa Lagoon,NSW,2388,707,GOOD,Concrete,false,false,false,false,false,false,false,false,1
0101000020E610000002ADBA4A45CF6240F79205386EAD41C0,All Times,-35.3549261119096,150.477208485223,Ulladulla - North Harbour,Shoalhaven City Council,02 4429 3111,Vai Princes Highway,Ulladulla,Harbour,NSW,2539,708,FAIR,Concrete,true,false,false,true,true,true,true,false,3
0101000020E6100000DB3D831CFC0F6340801330BE371740C0,All Times,-32.1813886389491,152.499525314647,Tuncurry - Point Road Boat Ramp,Great Lakes Council,02 6591 7222,Point Road,Tuncurry,Wallis Lake,NSW,2428,709,GOOD,Concrete,true,false,false,true,false,true,true,false,4
0101000020E61000000E5680B6852063405CA7D7135CE53EC0,All Times,-30.8959362412928,153.01632237497,"Mattys Flat Boat Ramp",Kempsey Shire Council,02 6566 3200,"New Entrance Road",South West Rocks,Macleay River,NSW,2431,710,GOOD,Concrete,false,false,true,true,true,true,false,true,2
0101000020E6100000B33220B49ED562401FE139FC6E6C41C0,All Times,-34.8471370012869,150.675623000037,Broughton Creek Ramp,Shoalhaven City Council,02 4429 3111,Back Forest Road,Back Forest,Broughton Creek,NSW,2535,711,POOR,Unsealed,false,false,false,false,false,false,false,false,1
0101000020E61000007CC0F81315E36240E77F406EBFFE40C0,High Tide Only,-33.9902170004787,151.096322999805,Connells Bay Boat Ramp (Donnelly Park),Kogarah City Council,02 9330 9400,Kyle Parade,Connells Point,Georges River,NSW,2221,712,FAIR,Concrete,false,false,false,true,true,true,true,false,3
0101000020E610000092010D9C69316340D8D8A500B2883CC0,All Times,-28.5339661030674,153.544141793635,Brunswick Heads Boat Ramp,Byron Shire Council,02 6626 7000,Old Pacific Highway,Brunswick Heads,Brunswick River,NSW,2483,713,GOOD,Concrete,true,false,false,true,false,true,true,true,2
0101000020E6100000E17D52D535316340BD11207F30883CC0,All Times,-28.5319899991316,153.53782144653,Ferry Reserve Caravan Park Boat Ramp,North Coast Holiday Parks Ferry Reserve,02 6685 1872,Riverside Crescent,Brunswick Heads,Brunswick River,NSW,2483,714,POOR,Bitumen,true,true,true,false,true,true,false,false,1
0101000020E61000005BAF7259CDF06240866DA6581D9340C0,Shallow At Times,-33.1493330776821,151.525067066187,Wyee Point Boat Ramp,Lake Macquarie City Council,02 4921 0333,off Ruttleys Rd via Jasmine Lakeside Village,Wyee Point,Lake Macquarie,NSW,2259,715,FAIR,Concrete,false,false,false,false,false,false,false,false,2
0101000020E6100000441C1D04DEF06240F13F92206F9340C0,All Times,-33.151828833972,151.527101570946,Wyee Point Marina Boat Ramp,Wyee Point Marina,02 4359 1800,Ruttleys Road ,Wyee Point,Lake Macquarie,NSW,2259,716,GOOD,Concrete,false,true,false,false,false,false,true,false,1
0101000020E61000001B091BFFFA3063403AC47E5EE9DE3CC0,All Times,-28.8707484302033,153.530639221958,Faulks Reserve Boat Ramp,Ballina Shire Council,02 6686 4444,Riverside Drive,West Ballina,Richmond River,NSW,2478,717,GOOD,Concrete,false,false,false,false,true,true,true,true,1
